<?xml version="1.0" encoding="UTF-8"?>
<gpx xmlns="http://www.topografix.com/GPX/1/1" version="1.1" creator="Split from the Hume and Hovell Full Track Alignment GPX (NSW Crown Lands)">
<metadata><name>Hume and Hovell Track, Section 4 - Henry Angel Trackhead to Tin Mines Campground</name></metadata>
<trk><name>Section 4 - Henry Angel Trackhead to Tin Mines Campground</name><trkseg>
<trkpt lat="-35.82404" lon="148.0627"><ele>627</ele></trkpt>
<trkpt lat="-35.8242" lon="148.06247"><ele>625</ele></trkpt>
<trkpt lat="-35.8244" lon="148.06233"><ele>626</ele></trkpt>
<trkpt lat="-35.82472" lon="148.06198"><ele>626</ele></trkpt>
<trkpt lat="-35.82504" lon="148.06176"><ele>625</ele></trkpt>
<trkpt lat="-35.82502" lon="148.0611"><ele>624</ele></trkpt>
<trkpt lat="-35.82522" lon="148.06095"><ele>623</ele></trkpt>
<trkpt lat="-35.82545" lon="148.06088"><ele>623</ele></trkpt>
<trkpt lat="-35.82577" lon="148.06063"><ele>623</ele></trkpt>
<trkpt lat="-35.82605" lon="148.06053"><ele>624</ele></trkpt>
<trkpt lat="-35.82658" lon="148.06047"><ele>625</ele></trkpt>
<trkpt lat="-35.82755" lon="148.06088"><ele>629</ele></trkpt>
<trkpt lat="-35.8278" lon="148.06104"><ele>628</ele></trkpt>
<trkpt lat="-35.82816" lon="148.06103"><ele>626</ele></trkpt>
<trkpt lat="-35.8287" lon="148.06082"><ele>624</ele></trkpt>
<trkpt lat="-35.82906" lon="148.06037"><ele>623</ele></trkpt>
<trkpt lat="-35.82933" lon="148.05977"><ele>624</ele></trkpt>
<trkpt lat="-35.8294" lon="148.05938"><ele>624</ele></trkpt>
<trkpt lat="-35.82953" lon="148.05934"><ele>624</ele></trkpt>
<trkpt lat="-35.82988" lon="148.05943"><ele>624</ele></trkpt>
<trkpt lat="-35.83026" lon="148.05908"><ele>625</ele></trkpt>
<trkpt lat="-35.8306" lon="148.05859"><ele>626</ele></trkpt>
<trkpt lat="-35.83115" lon="148.05809"><ele>625</ele></trkpt>
<trkpt lat="-35.83128" lon="148.05818"><ele>625</ele></trkpt>
<trkpt lat="-35.83152" lon="148.05794"><ele>626</ele></trkpt>
<trkpt lat="-35.83183" lon="148.05781"><ele>625</ele></trkpt>
<trkpt lat="-35.83201" lon="148.05788"><ele>625</ele></trkpt>
<trkpt lat="-35.83313" lon="148.05688"><ele>623</ele></trkpt>
<trkpt lat="-35.83357" lon="148.05656"><ele>623</ele></trkpt>
<trkpt lat="-35.83382" lon="148.05616"><ele>623</ele></trkpt>
<trkpt lat="-35.83416" lon="148.05489"><ele>624</ele></trkpt>
<trkpt lat="-35.83419" lon="148.05464"><ele>624</ele></trkpt>
<trkpt lat="-35.83408" lon="148.05436"><ele>624</ele></trkpt>
<trkpt lat="-35.83436" lon="148.05347"><ele>621</ele></trkpt>
<trkpt lat="-35.83436" lon="148.05318"><ele>621</ele></trkpt>
<trkpt lat="-35.83451" lon="148.05285"><ele>621</ele></trkpt>
<trkpt lat="-35.83477" lon="148.05274"><ele>620</ele></trkpt>
<trkpt lat="-35.83509" lon="148.05226"><ele>621</ele></trkpt>
<trkpt lat="-35.83527" lon="148.05175"><ele>624</ele></trkpt>
<trkpt lat="-35.83588" lon="148.05101"><ele>619</ele></trkpt>
<trkpt lat="-35.83617" lon="148.05095"><ele>619</ele></trkpt>
<trkpt lat="-35.83699" lon="148.05051"><ele>619</ele></trkpt>
<trkpt lat="-35.83761" lon="148.05024"><ele>619</ele></trkpt>
<trkpt lat="-35.83802" lon="148.04978"><ele>623</ele></trkpt>
<trkpt lat="-35.83821" lon="148.04946"><ele>625</ele></trkpt>
<trkpt lat="-35.83825" lon="148.04913"><ele>625</ele></trkpt>
<trkpt lat="-35.83831" lon="148.04914"><ele>625</ele></trkpt>
<trkpt lat="-35.83838" lon="148.04933"><ele>625</ele></trkpt>
<trkpt lat="-35.83865" lon="148.04916"><ele>624</ele></trkpt>
<trkpt lat="-35.8388" lon="148.04916"><ele>623</ele></trkpt>
<trkpt lat="-35.83911" lon="148.04898"><ele>621</ele></trkpt>
<trkpt lat="-35.83951" lon="148.04887"><ele>617</ele></trkpt>
<trkpt lat="-35.83998" lon="148.04895"><ele>612</ele></trkpt>
<trkpt lat="-35.84075" lon="148.04917"><ele>609</ele></trkpt>
<trkpt lat="-35.84116" lon="148.04942"><ele>609</ele></trkpt>
<trkpt lat="-35.84181" lon="148.04969"><ele>605</ele></trkpt>
<trkpt lat="-35.84223" lon="148.04967"><ele>603</ele></trkpt>
<trkpt lat="-35.84253" lon="148.04976"><ele>601</ele></trkpt>
<trkpt lat="-35.84291" lon="148.05002"><ele>597</ele></trkpt>
<trkpt lat="-35.84329" lon="148.05002"><ele>593</ele></trkpt>
<trkpt lat="-35.84379" lon="148.04985"><ele>590</ele></trkpt>
<trkpt lat="-35.84414" lon="148.04948"><ele>585</ele></trkpt>
<trkpt lat="-35.84445" lon="148.049"><ele>582</ele></trkpt>
<trkpt lat="-35.84468" lon="148.04849"><ele>582</ele></trkpt>
<trkpt lat="-35.84514" lon="148.04773"><ele>579</ele></trkpt>
<trkpt lat="-35.84538" lon="148.04723"><ele>576</ele></trkpt>
<trkpt lat="-35.84567" lon="148.04641"><ele>573</ele></trkpt>
<trkpt lat="-35.84559" lon="148.04564"><ele>571</ele></trkpt>
<trkpt lat="-35.8457" lon="148.04562"><ele>571</ele></trkpt>
<trkpt lat="-35.8462" lon="148.04599"><ele>569</ele></trkpt>
<trkpt lat="-35.84645" lon="148.04656"><ele>566</ele></trkpt>
<trkpt lat="-35.84666" lon="148.0469"><ele>560</ele></trkpt>
<trkpt lat="-35.84674" lon="148.04691"><ele>559</ele></trkpt>
<trkpt lat="-35.84688" lon="148.04709"><ele>557</ele></trkpt>
<trkpt lat="-35.84724" lon="148.04732"><ele>553</ele></trkpt>
<trkpt lat="-35.8475" lon="148.04728"><ele>551</ele></trkpt>
<trkpt lat="-35.84784" lon="148.04692"><ele>550</ele></trkpt>
<trkpt lat="-35.84852" lon="148.04599"><ele>547</ele></trkpt>
<trkpt lat="-35.84869" lon="148.0459"><ele>547</ele></trkpt>
<trkpt lat="-35.849" lon="148.04585"><ele>547</ele></trkpt>
<trkpt lat="-35.8495" lon="148.04558"><ele>547</ele></trkpt>
<trkpt lat="-35.84977" lon="148.04568"><ele>548</ele></trkpt>
<trkpt lat="-35.84987" lon="148.04557"><ele>547</ele></trkpt>
<trkpt lat="-35.85026" lon="148.04547"><ele>547</ele></trkpt>
<trkpt lat="-35.85057" lon="148.04549"><ele>547</ele></trkpt>
<trkpt lat="-35.85074" lon="148.04558"><ele>548</ele></trkpt>
<trkpt lat="-35.85098" lon="148.04559"><ele>548</ele></trkpt>
<trkpt lat="-35.85117" lon="148.04555"><ele>548</ele></trkpt>
<trkpt lat="-35.85162" lon="148.04566"><ele>550</ele></trkpt>
<trkpt lat="-35.85204" lon="148.04556"><ele>554</ele></trkpt>
<trkpt lat="-35.85215" lon="148.04547"><ele>554</ele></trkpt>
<trkpt lat="-35.85282" lon="148.04438"><ele>545</ele></trkpt>
<trkpt lat="-35.85292" lon="148.04402"><ele>542</ele></trkpt>
<trkpt lat="-35.85339" lon="148.04345"><ele>537</ele></trkpt>
<trkpt lat="-35.8535" lon="148.04324"><ele>535</ele></trkpt>
<trkpt lat="-35.85405" lon="148.04287"><ele>534</ele></trkpt>
<trkpt lat="-35.85437" lon="148.04304"><ele>538</ele></trkpt>
<trkpt lat="-35.85467" lon="148.04305"><ele>541</ele></trkpt>
<trkpt lat="-35.85528" lon="148.04273"><ele>538</ele></trkpt>
<trkpt lat="-35.85562" lon="148.04265"><ele>537</ele></trkpt>
<trkpt lat="-35.85579" lon="148.0427"><ele>539</ele></trkpt>
<trkpt lat="-35.85599" lon="148.04268"><ele>536</ele></trkpt>
<trkpt lat="-35.85655" lon="148.04333"><ele>536</ele></trkpt>
<trkpt lat="-35.85718" lon="148.04322"><ele>527</ele></trkpt>
<trkpt lat="-35.85812" lon="148.04348"><ele>524</ele></trkpt>
<trkpt lat="-35.85869" lon="148.04333"><ele>518</ele></trkpt>
<trkpt lat="-35.85921" lon="148.04292"><ele>509</ele></trkpt>
<trkpt lat="-35.85953" lon="148.04253"><ele>504</ele></trkpt>
<trkpt lat="-35.85974" lon="148.04207"><ele>500</ele></trkpt>
<trkpt lat="-35.86037" lon="148.04139"><ele>488</ele></trkpt>
<trkpt lat="-35.86036" lon="148.0411"><ele>480</ele></trkpt>
<trkpt lat="-35.86064" lon="148.04081"><ele>471</ele></trkpt>
<trkpt lat="-35.86086" lon="148.04085"><ele>471</ele></trkpt>
<trkpt lat="-35.86096" lon="148.0408"><ele>469</ele></trkpt>
<trkpt lat="-35.86105" lon="148.0405"><ele>463</ele></trkpt>
<trkpt lat="-35.86126" lon="148.04036"><ele>460</ele></trkpt>
<trkpt lat="-35.86133" lon="148.04033"><ele>459</ele></trkpt>
<trkpt lat="-35.86151" lon="148.0405"><ele>459</ele></trkpt>
<trkpt lat="-35.86166" lon="148.04041"><ele>458</ele></trkpt>
<trkpt lat="-35.86177" lon="148.04025"><ele>458</ele></trkpt>
<trkpt lat="-35.86158" lon="148.03982"><ele>460</ele></trkpt>
<trkpt lat="-35.86111" lon="148.03931"><ele>463</ele></trkpt>
<trkpt lat="-35.86104" lon="148.03914"><ele>463</ele></trkpt>
<trkpt lat="-35.86102" lon="148.03899"><ele>463</ele></trkpt>
<trkpt lat="-35.86131" lon="148.0384"><ele>477</ele></trkpt>
<trkpt lat="-35.86135" lon="148.03819"><ele>480</ele></trkpt>
<trkpt lat="-35.86122" lon="148.03728"><ele>486</ele></trkpt>
<trkpt lat="-35.86145" lon="148.03632"><ele>497</ele></trkpt>
<trkpt lat="-35.86159" lon="148.03618"><ele>501</ele></trkpt>
<trkpt lat="-35.86167" lon="148.03576"><ele>503</ele></trkpt>
<trkpt lat="-35.8618" lon="148.03544"><ele>504</ele></trkpt>
<trkpt lat="-35.86216" lon="148.03508"><ele>517</ele></trkpt>
<trkpt lat="-35.8625" lon="148.03481"><ele>531</ele></trkpt>
<trkpt lat="-35.86248" lon="148.0347"><ele>528</ele></trkpt>
<trkpt lat="-35.86263" lon="148.03404"><ele>523</ele></trkpt>
<trkpt lat="-35.86278" lon="148.03382"><ele>519</ele></trkpt>
<trkpt lat="-35.86301" lon="148.03372"><ele>524</ele></trkpt>
<trkpt lat="-35.86319" lon="148.0337"><ele>529</ele></trkpt>
<trkpt lat="-35.86371" lon="148.03378"><ele>543</ele></trkpt>
<trkpt lat="-35.86431" lon="148.03372"><ele>550</ele></trkpt>
<trkpt lat="-35.86455" lon="148.03395"><ele>557</ele></trkpt>
<trkpt lat="-35.86488" lon="148.03418"><ele>561</ele></trkpt>
<trkpt lat="-35.86538" lon="148.03422"><ele>572</ele></trkpt>
<trkpt lat="-35.86551" lon="148.03411"><ele>573</ele></trkpt>
<trkpt lat="-35.8657" lon="148.03407"><ele>577</ele></trkpt>
<trkpt lat="-35.86589" lon="148.03377"><ele>577</ele></trkpt>
<trkpt lat="-35.8664" lon="148.0335"><ele>592</ele></trkpt>
<trkpt lat="-35.86645" lon="148.03312"><ele>594</ele></trkpt>
<trkpt lat="-35.8666" lon="148.03288"><ele>599</ele></trkpt>
<trkpt lat="-35.86673" lon="148.03231"><ele>607</ele></trkpt>
<trkpt lat="-35.86665" lon="148.03209"><ele>609</ele></trkpt>
<trkpt lat="-35.86651" lon="148.03204"><ele>610</ele></trkpt>
<trkpt lat="-35.86618" lon="148.03228"><ele>603</ele></trkpt>
<trkpt lat="-35.86584" lon="148.0324"><ele>597</ele></trkpt>
<trkpt lat="-35.86552" lon="148.0324"><ele>596</ele></trkpt>
<trkpt lat="-35.86503" lon="148.03214"><ele>606</ele></trkpt>
<trkpt lat="-35.86464" lon="148.03159"><ele>621</ele></trkpt>
<trkpt lat="-35.86519" lon="148.03156"><ele>629</ele></trkpt>
<trkpt lat="-35.86545" lon="148.03146"><ele>630</ele></trkpt>
<trkpt lat="-35.86558" lon="148.03131"><ele>633</ele></trkpt>
<trkpt lat="-35.86561" lon="148.03109"><ele>637</ele></trkpt>
<trkpt lat="-35.86537" lon="148.03036"><ele>645</ele></trkpt>
<trkpt lat="-35.86542" lon="148.02886"><ele>653</ele></trkpt>
<trkpt lat="-35.86532" lon="148.02811"><ele>660</ele></trkpt>
<trkpt lat="-35.8653" lon="148.02739"><ele>666</ele></trkpt>
<trkpt lat="-35.86506" lon="148.02584"><ele>686</ele></trkpt>
<trkpt lat="-35.86509" lon="148.02506"><ele>696</ele></trkpt>
<trkpt lat="-35.86524" lon="148.02497"><ele>697</ele></trkpt>
<trkpt lat="-35.86532" lon="148.02462"><ele>703</ele></trkpt>
<trkpt lat="-35.86531" lon="148.02426"><ele>709</ele></trkpt>
<trkpt lat="-35.86517" lon="148.02341"><ele>720</ele></trkpt>
<trkpt lat="-35.86514" lon="148.02228"><ele>736</ele></trkpt>
<trkpt lat="-35.86485" lon="148.02158"><ele>749</ele></trkpt>
<trkpt lat="-35.86451" lon="148.02139"><ele>753</ele></trkpt>
<trkpt lat="-35.8639" lon="148.02139"><ele>760</ele></trkpt>
<trkpt lat="-35.86371" lon="148.02182"><ele>758</ele></trkpt>
<trkpt lat="-35.86349" lon="148.02209"><ele>758</ele></trkpt>
<trkpt lat="-35.86286" lon="148.02195"><ele>770</ele></trkpt>
<trkpt lat="-35.8624" lon="148.02198"><ele>776</ele></trkpt>
<trkpt lat="-35.86162" lon="148.02242"><ele>779</ele></trkpt>
<trkpt lat="-35.86081" lon="148.02235"><ele>790</ele></trkpt>
<trkpt lat="-35.85939" lon="148.02307"><ele>790</ele></trkpt>
<trkpt lat="-35.85897" lon="148.02321"><ele>791</ele></trkpt>
<trkpt lat="-35.85782" lon="148.02267"><ele>777</ele></trkpt>
<trkpt lat="-35.85704" lon="148.02203"><ele>766</ele></trkpt>
<trkpt lat="-35.85636" lon="148.02157"><ele>764</ele></trkpt>
<trkpt lat="-35.85587" lon="148.02152"><ele>758</ele></trkpt>
<trkpt lat="-35.85542" lon="148.02139"><ele>752</ele></trkpt>
<trkpt lat="-35.85306" lon="148.02032"><ele>748</ele></trkpt>
<trkpt lat="-35.8515" lon="148.02049"><ele>739</ele></trkpt>
<trkpt lat="-35.85101" lon="148.0204"><ele>737</ele></trkpt>
<trkpt lat="-35.85047" lon="148.01995"><ele>736</ele></trkpt>
<trkpt lat="-35.84923" lon="148.01964"><ele>732</ele></trkpt>
<trkpt lat="-35.84868" lon="148.0196"><ele>734</ele></trkpt>
<trkpt lat="-35.84836" lon="148.01962"><ele>735</ele></trkpt>
<trkpt lat="-35.84739" lon="148.01914"><ele>734</ele></trkpt>
<trkpt lat="-35.8471" lon="148.01913"><ele>731</ele></trkpt>
<trkpt lat="-35.84674" lon="148.01902"><ele>727</ele></trkpt>
<trkpt lat="-35.84638" lon="148.01875"><ele>718</ele></trkpt>
<trkpt lat="-35.84608" lon="148.01845"><ele>711</ele></trkpt>
<trkpt lat="-35.84579" lon="148.01789"><ele>699</ele></trkpt>
<trkpt lat="-35.84521" lon="148.01739"><ele>686</ele></trkpt>
<trkpt lat="-35.84378" lon="148.01691"><ele>668</ele></trkpt>
<trkpt lat="-35.84249" lon="148.01591"><ele>659</ele></trkpt>
<trkpt lat="-35.842" lon="148.01574"><ele>651</ele></trkpt>
<trkpt lat="-35.84187" lon="148.01564"><ele>648</ele></trkpt>
<trkpt lat="-35.84163" lon="148.01566"><ele>645</ele></trkpt>
<trkpt lat="-35.84143" lon="148.01545"><ele>640</ele></trkpt>
<trkpt lat="-35.84129" lon="148.01508"><ele>637</ele></trkpt>
<trkpt lat="-35.84129" lon="148.01487"><ele>638</ele></trkpt>
<trkpt lat="-35.84081" lon="148.01432"><ele>640</ele></trkpt>
<trkpt lat="-35.8405" lon="148.01335"><ele>654</ele></trkpt>
<trkpt lat="-35.84001" lon="148.0127"><ele>657</ele></trkpt>
<trkpt lat="-35.83962" lon="148.01238"><ele>664</ele></trkpt>
<trkpt lat="-35.83912" lon="148.0121"><ele>672</ele></trkpt>
<trkpt lat="-35.83856" lon="148.01146"><ele>681</ele></trkpt>
<trkpt lat="-35.83815" lon="148.01127"><ele>687</ele></trkpt>
<trkpt lat="-35.83777" lon="148.0113"><ele>688</ele></trkpt>
<trkpt lat="-35.83737" lon="148.01147"><ele>686</ele></trkpt>
<trkpt lat="-35.83682" lon="148.01144"><ele>685</ele></trkpt>
<trkpt lat="-35.83655" lon="148.01151"><ele>683</ele></trkpt>
<trkpt lat="-35.8359" lon="148.01236"><ele>681</ele></trkpt>
<trkpt lat="-35.83509" lon="148.01271"><ele>670</ele></trkpt>
<trkpt lat="-35.83421" lon="148.01301"><ele>663</ele></trkpt>
<trkpt lat="-35.83385" lon="148.01287"><ele>666</ele></trkpt>
<trkpt lat="-35.8331" lon="148.01224"><ele>674</ele></trkpt>
<trkpt lat="-35.83275" lon="148.01215"><ele>676</ele></trkpt>
<trkpt lat="-35.83204" lon="148.01179"><ele>682</ele></trkpt>
<trkpt lat="-35.83156" lon="148.01164"><ele>687</ele></trkpt>
<trkpt lat="-35.83094" lon="148.01134"><ele>693</ele></trkpt>
<trkpt lat="-35.83064" lon="148.01108"><ele>699</ele></trkpt>
<trkpt lat="-35.83053" lon="148.01092"><ele>701</ele></trkpt>
<trkpt lat="-35.83" lon="148.00968"><ele>713</ele></trkpt>
<trkpt lat="-35.82954" lon="148.00947"><ele>723</ele></trkpt>
<trkpt lat="-35.82908" lon="148.00896"><ele>728</ele></trkpt>
<trkpt lat="-35.82817" lon="148.00863"><ele>725</ele></trkpt>
<trkpt lat="-35.82803" lon="148.0085"><ele>723</ele></trkpt>
<trkpt lat="-35.82776" lon="148.00806"><ele>718</ele></trkpt>
<trkpt lat="-35.8274" lon="148.00777"><ele>716</ele></trkpt>
<trkpt lat="-35.82695" lon="148.00674"><ele>705</ele></trkpt>
<trkpt lat="-35.82649" lon="148.00612"><ele>700</ele></trkpt>
<trkpt lat="-35.82562" lon="148.00514"><ele>682</ele></trkpt>
<trkpt lat="-35.82539" lon="148.00462"><ele>673</ele></trkpt>
<trkpt lat="-35.82446" lon="148.00334"><ele>653</ele></trkpt>
<trkpt lat="-35.82399" lon="148.00286"><ele>650</ele></trkpt>
<trkpt lat="-35.82294" lon="148.00251"><ele>637</ele></trkpt>
<trkpt lat="-35.8226" lon="148.00224"><ele>635</ele></trkpt>
<trkpt lat="-35.82236" lon="148.00197"><ele>629</ele></trkpt>
<trkpt lat="-35.8223" lon="148.00178"><ele>628</ele></trkpt>
<trkpt lat="-35.82232" lon="148.00019"><ele>615</ele></trkpt>
<trkpt lat="-35.82258" lon="147.99979"><ele>617</ele></trkpt>
<trkpt lat="-35.82254" lon="147.99964"><ele>614</ele></trkpt>
<trkpt lat="-35.82211" lon="147.99936"><ele>593</ele></trkpt>
<trkpt lat="-35.82194" lon="147.99911"><ele>583</ele></trkpt>
<trkpt lat="-35.82199" lon="147.999"><ele>584</ele></trkpt>
<trkpt lat="-35.82189" lon="147.99846"><ele>574</ele></trkpt>
<trkpt lat="-35.82193" lon="147.99789"><ele>570</ele></trkpt>
<trkpt lat="-35.82185" lon="147.99765"><ele>565</ele></trkpt>
<trkpt lat="-35.82165" lon="147.99787"><ele>561</ele></trkpt>
<trkpt lat="-35.82119" lon="147.99791"><ele>555</ele></trkpt>
<trkpt lat="-35.82103" lon="147.99785"><ele>553</ele></trkpt>
<trkpt lat="-35.82038" lon="147.99724"><ele>552</ele></trkpt>
<trkpt lat="-35.81968" lon="147.99638"><ele>556</ele></trkpt>
<trkpt lat="-35.81938" lon="147.99612"><ele>559</ele></trkpt>
<trkpt lat="-35.81904" lon="147.99594"><ele>563</ele></trkpt>
<trkpt lat="-35.81914" lon="147.99566"><ele>557</ele></trkpt>
<trkpt lat="-35.81901" lon="147.99534"><ele>554</ele></trkpt>
<trkpt lat="-35.81891" lon="147.9947"><ele>545</ele></trkpt>
<trkpt lat="-35.81776" lon="147.98585"><ele>498</ele></trkpt>
<trkpt lat="-35.81611" lon="147.98551"><ele>496</ele></trkpt>
<trkpt lat="-35.81557" lon="147.98531"><ele>496</ele></trkpt>
<trkpt lat="-35.81535" lon="147.98516"><ele>496</ele></trkpt>
<trkpt lat="-35.81406" lon="147.98401"><ele>495</ele></trkpt>
<trkpt lat="-35.8136" lon="147.98337"><ele>493</ele></trkpt>
<trkpt lat="-35.81348" lon="147.98311"><ele>492</ele></trkpt>
<trkpt lat="-35.81206" lon="147.98083"><ele>492</ele></trkpt>
<trkpt lat="-35.81117" lon="147.97843"><ele>493</ele></trkpt>
<trkpt lat="-35.811" lon="147.97808"><ele>493</ele></trkpt>
<trkpt lat="-35.81078" lon="147.97781"><ele>495</ele></trkpt>
<trkpt lat="-35.81094" lon="147.97724"><ele>491</ele></trkpt>
<trkpt lat="-35.81045" lon="147.97675"><ele>492</ele></trkpt>
<trkpt lat="-35.80946" lon="147.97616"><ele>497</ele></trkpt>
<trkpt lat="-35.80922" lon="147.97596"><ele>497</ele></trkpt>
<trkpt lat="-35.80903" lon="147.97565"><ele>498</ele></trkpt>
<trkpt lat="-35.80883" lon="147.975"><ele>497</ele></trkpt>
<trkpt lat="-35.80867" lon="147.97488"><ele>498</ele></trkpt>
<trkpt lat="-35.80866" lon="147.97441"><ele>496</ele></trkpt>
<trkpt lat="-35.80855" lon="147.97424"><ele>496</ele></trkpt>
<trkpt lat="-35.80836" lon="147.97344"><ele>497</ele></trkpt>
<trkpt lat="-35.80815" lon="147.97305"><ele>498</ele></trkpt>
<trkpt lat="-35.80796" lon="147.97242"><ele>496</ele></trkpt>
<trkpt lat="-35.80778" lon="147.97216"><ele>497</ele></trkpt>
<trkpt lat="-35.80759" lon="147.97199"><ele>499</ele></trkpt>
<trkpt lat="-35.80764" lon="147.9711"><ele>492</ele></trkpt>
<trkpt lat="-35.80745" lon="147.97076"><ele>490</ele></trkpt>
<trkpt lat="-35.80728" lon="147.9706"><ele>491</ele></trkpt>
<trkpt lat="-35.8068" lon="147.97052"><ele>493</ele></trkpt>
<trkpt lat="-35.80664" lon="147.97043"><ele>493</ele></trkpt>
<trkpt lat="-35.80638" lon="147.96981"><ele>492</ele></trkpt>
<trkpt lat="-35.80606" lon="147.96832"><ele>492</ele></trkpt>
<trkpt lat="-35.80568" lon="147.96788"><ele>492</ele></trkpt>
<trkpt lat="-35.80518" lon="147.96771"><ele>492</ele></trkpt>
<trkpt lat="-35.80483" lon="147.96752"><ele>492</ele></trkpt>
<trkpt lat="-35.804" lon="147.96662"><ele>492</ele></trkpt>
<trkpt lat="-35.80402" lon="147.96619"><ele>490</ele></trkpt>
<trkpt lat="-35.80391" lon="147.96571"><ele>489</ele></trkpt>
<trkpt lat="-35.80365" lon="147.96526"><ele>489</ele></trkpt>
<trkpt lat="-35.80317" lon="147.96468"><ele>490</ele></trkpt>
<trkpt lat="-35.80257" lon="147.96418"><ele>492</ele></trkpt>
<trkpt lat="-35.8023" lon="147.96387"><ele>492</ele></trkpt>
<trkpt lat="-35.80215" lon="147.96358"><ele>491</ele></trkpt>
<trkpt lat="-35.80181" lon="147.96335"><ele>490</ele></trkpt>
<trkpt lat="-35.80165" lon="147.96346"><ele>491</ele></trkpt>
<trkpt lat="-35.8015" lon="147.96342"><ele>491</ele></trkpt>
<trkpt lat="-35.80118" lon="147.96319"><ele>491</ele></trkpt>
<trkpt lat="-35.8008" lon="147.96307"><ele>491</ele></trkpt>
<trkpt lat="-35.80061" lon="147.96295"><ele>492</ele></trkpt>
<trkpt lat="-35.80031" lon="147.96243"><ele>492</ele></trkpt>
<trkpt lat="-35.79983" lon="147.96204"><ele>493</ele></trkpt>
<trkpt lat="-35.79958" lon="147.96206"><ele>494</ele></trkpt>
<trkpt lat="-35.79861" lon="147.96192"><ele>497</ele></trkpt>
<trkpt lat="-35.79771" lon="147.96165"><ele>496</ele></trkpt>
<trkpt lat="-35.79749" lon="147.96177"><ele>497</ele></trkpt>
<trkpt lat="-35.79717" lon="147.96184"><ele>498</ele></trkpt>
<trkpt lat="-35.79386" lon="147.96102"><ele>506</ele></trkpt>
<trkpt lat="-35.79236" lon="147.96094"><ele>513</ele></trkpt>
<trkpt lat="-35.79185" lon="147.96082"><ele>516</ele></trkpt>
<trkpt lat="-35.79137" lon="147.96052"><ele>516</ele></trkpt>
<trkpt lat="-35.78936" lon="147.95891"><ele>517</ele></trkpt>
<trkpt lat="-35.78807" lon="147.95823"><ele>511</ele></trkpt>
<trkpt lat="-35.78705" lon="147.95753"><ele>505</ele></trkpt>
<trkpt lat="-35.78669" lon="147.95736"><ele>504</ele></trkpt>
<trkpt lat="-35.78563" lon="147.95707"><ele>507</ele></trkpt>
<trkpt lat="-35.78541" lon="147.9569"><ele>507</ele></trkpt>
<trkpt lat="-35.78524" lon="147.95668"><ele>504</ele></trkpt>
<trkpt lat="-35.78508" lon="147.956"><ele>500</ele></trkpt>
<trkpt lat="-35.78501" lon="147.95418"><ele>499</ele></trkpt>
<trkpt lat="-35.78492" lon="147.95361"><ele>497</ele></trkpt>
<trkpt lat="-35.78461" lon="147.95314"><ele>499</ele></trkpt>
<trkpt lat="-35.78334" lon="147.95228"><ele>506</ele></trkpt>
<trkpt lat="-35.78317" lon="147.95227"><ele>507</ele></trkpt>
<trkpt lat="-35.78298" lon="147.95238"><ele>509</ele></trkpt>
<trkpt lat="-35.78285" lon="147.95225"><ele>510</ele></trkpt>
<trkpt lat="-35.7819" lon="147.95023"><ele>502</ele></trkpt>
<trkpt lat="-35.78159" lon="147.94997"><ele>501</ele></trkpt>
<trkpt lat="-35.78119" lon="147.94984"><ele>504</ele></trkpt>
<trkpt lat="-35.78083" lon="147.94963"><ele>505</ele></trkpt>
<trkpt lat="-35.78056" lon="147.94937"><ele>507</ele></trkpt>
<trkpt lat="-35.78031" lon="147.94857"><ele>508</ele></trkpt>
<trkpt lat="-35.78028" lon="147.94807"><ele>506</ele></trkpt>
<trkpt lat="-35.78005" lon="147.94683"><ele>501</ele></trkpt>
<trkpt lat="-35.77968" lon="147.94605"><ele>505</ele></trkpt>
<trkpt lat="-35.77965" lon="147.94583"><ele>505</ele></trkpt>
<trkpt lat="-35.7794" lon="147.94532"><ele>505</ele></trkpt>
<trkpt lat="-35.77937" lon="147.94486"><ele>504</ele></trkpt>
<trkpt lat="-35.77923" lon="147.94451"><ele>505</ele></trkpt>
<trkpt lat="-35.78015" lon="147.94301"><ele>501</ele></trkpt>
<trkpt lat="-35.77933" lon="147.94241"><ele>500</ele></trkpt>
<trkpt lat="-35.77917" lon="147.94222"><ele>500</ele></trkpt>
<trkpt lat="-35.77911" lon="147.94206"><ele>501</ele></trkpt>
<trkpt lat="-35.77907" lon="147.94117"><ele>501</ele></trkpt>
<trkpt lat="-35.77913" lon="147.94033"><ele>503</ele></trkpt>
<trkpt lat="-35.77919" lon="147.94015"><ele>504</ele></trkpt>
<trkpt lat="-35.77935" lon="147.93991"><ele>506</ele></trkpt>
<trkpt lat="-35.77913" lon="147.93968"><ele>507</ele></trkpt>
<trkpt lat="-35.77904" lon="147.93947"><ele>509</ele></trkpt>
<trkpt lat="-35.77923" lon="147.93912"><ele>512</ele></trkpt>
<trkpt lat="-35.77936" lon="147.93875"><ele>515</ele></trkpt>
<trkpt lat="-35.7795" lon="147.93859"><ele>516</ele></trkpt>
<trkpt lat="-35.77993" lon="147.93828"><ele>517</ele></trkpt>
<trkpt lat="-35.781" lon="147.93712"><ele>517</ele></trkpt>
<trkpt lat="-35.78105" lon="147.93699"><ele>518</ele></trkpt>
<trkpt lat="-35.78106" lon="147.93677"><ele>519</ele></trkpt>
<trkpt lat="-35.78056" lon="147.93387"><ele>530</ele></trkpt>
<trkpt lat="-35.78006" lon="147.92935"><ele>539</ele></trkpt>
<trkpt lat="-35.77985" lon="147.92817"><ele>543</ele></trkpt>
<trkpt lat="-35.77971" lon="147.92764"><ele>543</ele></trkpt>
<trkpt lat="-35.77971" lon="147.92673"><ele>544</ele></trkpt>
<trkpt lat="-35.77942" lon="147.92424"><ele>553</ele></trkpt>
<trkpt lat="-35.779" lon="147.92332"><ele>558</ele></trkpt>
<trkpt lat="-35.77902" lon="147.92291"><ele>559</ele></trkpt>
<trkpt lat="-35.77909" lon="147.92283"><ele>558</ele></trkpt>
<trkpt lat="-35.7791" lon="147.92267"><ele>558</ele></trkpt>
<trkpt lat="-35.77934" lon="147.92213"><ele>559</ele></trkpt>
<trkpt lat="-35.77936" lon="147.92191"><ele>560</ele></trkpt>
<trkpt lat="-35.77969" lon="147.92116"><ele>560</ele></trkpt>
<trkpt lat="-35.78007" lon="147.92128"><ele>558</ele></trkpt>
<trkpt lat="-35.78056" lon="147.92159"><ele>557</ele></trkpt>
<trkpt lat="-35.78057" lon="147.92155"><ele>557</ele></trkpt>
<trkpt lat="-35.78146" lon="147.92219"><ele>552</ele></trkpt>
<trkpt lat="-35.78217" lon="147.92261"><ele>550</ele></trkpt>
<trkpt lat="-35.78224" lon="147.92232"><ele>552</ele></trkpt>
<trkpt lat="-35.7822" lon="147.9215"><ele>556</ele></trkpt>
<trkpt lat="-35.78229" lon="147.92113"><ele>559</ele></trkpt>
<trkpt lat="-35.78387" lon="147.91886"><ele>577</ele></trkpt>
<trkpt lat="-35.78641" lon="147.91544"><ele>599</ele></trkpt>
<trkpt lat="-35.78675" lon="147.91485"><ele>607</ele></trkpt>
<trkpt lat="-35.78701" lon="147.91408"><ele>615</ele></trkpt>
<trkpt lat="-35.78716" lon="147.91324"><ele>612</ele></trkpt>
<trkpt lat="-35.78711" lon="147.9107"><ele>605</ele></trkpt>
<trkpt lat="-35.78714" lon="147.91018"><ele>606</ele></trkpt>
<trkpt lat="-35.78724" lon="147.90975"><ele>607</ele></trkpt>
<trkpt lat="-35.78747" lon="147.90917"><ele>609</ele></trkpt>
<trkpt lat="-35.78815" lon="147.90802"><ele>618</ele></trkpt>
<trkpt lat="-35.78917" lon="147.90587"><ele>631</ele></trkpt>
<trkpt lat="-35.78978" lon="147.90375"><ele>629</ele></trkpt>
<trkpt lat="-35.79002" lon="147.90273"><ele>628</ele></trkpt>
<trkpt lat="-35.79017" lon="147.9014"><ele>623</ele></trkpt>
<trkpt lat="-35.79037" lon="147.89847"><ele>630</ele></trkpt>
<trkpt lat="-35.79026" lon="147.89715"><ele>631</ele></trkpt>
<trkpt lat="-35.7901" lon="147.89631"><ele>634</ele></trkpt>
<trkpt lat="-35.78995" lon="147.89512"><ele>639</ele></trkpt>
<trkpt lat="-35.78991" lon="147.89428"><ele>646</ele></trkpt>
<trkpt lat="-35.78999" lon="147.89396"><ele>648</ele></trkpt>
<trkpt lat="-35.79197" lon="147.89356"><ele>654</ele></trkpt>
<trkpt lat="-35.79225" lon="147.89311"><ele>654</ele></trkpt>
<trkpt lat="-35.79254" lon="147.89288"><ele>653</ele></trkpt>
<trkpt lat="-35.79296" lon="147.89298"><ele>653</ele></trkpt>
<trkpt lat="-35.79335" lon="147.89329"><ele>654</ele></trkpt>
<trkpt lat="-35.79779" lon="147.89247"><ele>659</ele></trkpt>
<trkpt lat="-35.79886" lon="147.89214"><ele>657</ele></trkpt>
<trkpt lat="-35.79999" lon="147.89202"><ele>653</ele></trkpt>
<trkpt lat="-35.80111" lon="147.89161"><ele>657</ele></trkpt>
<trkpt lat="-35.80204" lon="147.8915"><ele>655</ele></trkpt>
<trkpt lat="-35.80302" lon="147.89124"><ele>650</ele></trkpt>
<trkpt lat="-35.80349" lon="147.8913"><ele>645</ele></trkpt>
<trkpt lat="-35.80477" lon="147.89088"><ele>630</ele></trkpt>
<trkpt lat="-35.80492" lon="147.89097"><ele>629</ele></trkpt>
<trkpt lat="-35.80666" lon="147.89067"><ele>625</ele></trkpt>
<trkpt lat="-35.80766" lon="147.89047"><ele>627</ele></trkpt>
<trkpt lat="-35.80799" lon="147.89038"><ele>627</ele></trkpt>
<trkpt lat="-35.8081" lon="147.89028"><ele>627</ele></trkpt>
<trkpt lat="-35.80798" lon="147.88816"><ele>640</ele></trkpt>
<trkpt lat="-35.80781" lon="147.8864"><ele>646</ele></trkpt>
<trkpt lat="-35.80776" lon="147.88619"><ele>647</ele></trkpt>
<trkpt lat="-35.80661" lon="147.88426"><ele>674</ele></trkpt>
<trkpt lat="-35.80657" lon="147.88229"><ele>687</ele></trkpt>
<trkpt lat="-35.80636" lon="147.88009"><ele>702</ele></trkpt>
<trkpt lat="-35.80626" lon="147.87966"><ele>705</ele></trkpt>
<trkpt lat="-35.80591" lon="147.87905"><ele>711</ele></trkpt>
<trkpt lat="-35.80579" lon="147.87893"><ele>713</ele></trkpt>
<trkpt lat="-35.80595" lon="147.87821"><ele>724</ele></trkpt>
<trkpt lat="-35.80613" lon="147.87778"><ele>728</ele></trkpt>
<trkpt lat="-35.8062" lon="147.87739"><ele>733</ele></trkpt>
<trkpt lat="-35.80619" lon="147.877"><ele>741</ele></trkpt>
<trkpt lat="-35.80632" lon="147.8768"><ele>742</ele></trkpt>
<trkpt lat="-35.80653" lon="147.8766"><ele>739</ele></trkpt>
<trkpt lat="-35.80661" lon="147.87639"><ele>741</ele></trkpt>
<trkpt lat="-35.80669" lon="147.87581"><ele>751</ele></trkpt>
<trkpt lat="-35.80665" lon="147.87529"><ele>764</ele></trkpt>
<trkpt lat="-35.80674" lon="147.87518"><ele>765</ele></trkpt>
<trkpt lat="-35.80689" lon="147.87511"><ele>763</ele></trkpt>
<trkpt lat="-35.80722" lon="147.87509"><ele>757</ele></trkpt>
<trkpt lat="-35.8074" lon="147.87499"><ele>755</ele></trkpt>
<trkpt lat="-35.80755" lon="147.87475"><ele>754</ele></trkpt>
<trkpt lat="-35.80755" lon="147.87444"><ele>758</ele></trkpt>
<trkpt lat="-35.80729" lon="147.87395"><ele>768</ele></trkpt>
<trkpt lat="-35.80679" lon="147.87318"><ele>781</ele></trkpt>
<trkpt lat="-35.8068" lon="147.87232"><ele>782</ele></trkpt>
<trkpt lat="-35.80692" lon="147.872"><ele>782</ele></trkpt>
<trkpt lat="-35.80798" lon="147.87058"><ele>779</ele></trkpt>
<trkpt lat="-35.80875" lon="147.86911"><ele>785</ele></trkpt>
<trkpt lat="-35.809" lon="147.86844"><ele>790</ele></trkpt>
<trkpt lat="-35.80931" lon="147.86798"><ele>790</ele></trkpt>
<trkpt lat="-35.80962" lon="147.86738"><ele>789</ele></trkpt>
<trkpt lat="-35.80985" lon="147.867"><ele>790</ele></trkpt>
<trkpt lat="-35.81045" lon="147.86628"><ele>795</ele></trkpt>
<trkpt lat="-35.81056" lon="147.86604"><ele>798</ele></trkpt>
<trkpt lat="-35.81059" lon="147.8657"><ele>799</ele></trkpt>
<trkpt lat="-35.80992" lon="147.86388"><ele>794</ele></trkpt>
<trkpt lat="-35.80976" lon="147.86313"><ele>791</ele></trkpt>
<trkpt lat="-35.80947" lon="147.86247"><ele>791</ele></trkpt>
<trkpt lat="-35.80891" lon="147.86076"><ele>788</ele></trkpt>
<trkpt lat="-35.80875" lon="147.8604"><ele>785</ele></trkpt>
<trkpt lat="-35.80835" lon="147.85918"><ele>778</ele></trkpt>
<trkpt lat="-35.80809" lon="147.85803"><ele>775</ele></trkpt>
<trkpt lat="-35.8078" lon="147.85722"><ele>776</ele></trkpt>
<trkpt lat="-35.8089" lon="147.85633"><ele>757</ele></trkpt>
<trkpt lat="-35.81037" lon="147.85539"><ele>721</ele></trkpt>
<trkpt lat="-35.8125" lon="147.85469"><ele>700</ele></trkpt>
<trkpt lat="-35.81289" lon="147.85437"><ele>691</ele></trkpt>
<trkpt lat="-35.81371" lon="147.85351"><ele>674</ele></trkpt>
<trkpt lat="-35.81518" lon="147.8522"><ele>633</ele></trkpt>
<trkpt lat="-35.81555" lon="147.85192"><ele>625</ele></trkpt>
<trkpt lat="-35.81648" lon="147.85088"><ele>613</ele></trkpt>
<trkpt lat="-35.81661" lon="147.85062"><ele>612</ele></trkpt>
<trkpt lat="-35.81641" lon="147.85"><ele>614</ele></trkpt>
<trkpt lat="-35.81666" lon="147.84788"><ele>603</ele></trkpt>
<trkpt lat="-35.81625" lon="147.84751"><ele>605</ele></trkpt>
<trkpt lat="-35.8163" lon="147.8473"><ele>603</ele></trkpt>
<trkpt lat="-35.81684" lon="147.84674"><ele>595</ele></trkpt>
<trkpt lat="-35.8171" lon="147.84619"><ele>594</ele></trkpt>
<trkpt lat="-35.81694" lon="147.84581"><ele>597</ele></trkpt>
<trkpt lat="-35.81567" lon="147.84509"><ele>606</ele></trkpt>
<trkpt lat="-35.81389" lon="147.84454"><ele>609</ele></trkpt>
<trkpt lat="-35.8126" lon="147.84398"><ele>610</ele></trkpt>
<trkpt lat="-35.81066" lon="147.8426"><ele>628</ele></trkpt>
<trkpt lat="-35.80902" lon="147.84188"><ele>639</ele></trkpt>
<trkpt lat="-35.8079" lon="147.84145"><ele>647</ele></trkpt>
<trkpt lat="-35.80652" lon="147.84062"><ele>658</ele></trkpt>
<trkpt lat="-35.80641" lon="147.84029"><ele>660</ele></trkpt>
<trkpt lat="-35.80845" lon="147.83788"><ele>651</ele></trkpt>
<trkpt lat="-35.80871" lon="147.83748"><ele>650</ele></trkpt>
<trkpt lat="-35.80915" lon="147.83659"><ele>650</ele></trkpt>
<trkpt lat="-35.81003" lon="147.83534"><ele>645</ele></trkpt>
<trkpt lat="-35.81008" lon="147.83521"><ele>646</ele></trkpt>
<trkpt lat="-35.81102" lon="147.83404"><ele>642</ele></trkpt>
<trkpt lat="-35.81176" lon="147.83334"><ele>637</ele></trkpt>
<trkpt lat="-35.81217" lon="147.83315"><ele>633</ele></trkpt>
<trkpt lat="-35.81256" lon="147.83276"><ele>630</ele></trkpt>
<trkpt lat="-35.81305" lon="147.83252"><ele>628</ele></trkpt>
<trkpt lat="-35.81462" lon="147.83142"><ele>618</ele></trkpt>
<trkpt lat="-35.81501" lon="147.83133"><ele>616</ele></trkpt>
<trkpt lat="-35.81547" lon="147.83133"><ele>613</ele></trkpt>
<trkpt lat="-35.81561" lon="147.83139"><ele>612</ele></trkpt>
<trkpt lat="-35.8166" lon="147.83126"><ele>606</ele></trkpt>
<trkpt lat="-35.81694" lon="147.83106"><ele>605</ele></trkpt>
<trkpt lat="-35.8174" lon="147.83068"><ele>607</ele></trkpt>
<trkpt lat="-35.81755" lon="147.82938"><ele>615</ele></trkpt>
<trkpt lat="-35.8173" lon="147.82667"><ele>625</ele></trkpt>
<trkpt lat="-35.8173" lon="147.82558"><ele>629</ele></trkpt>
<trkpt lat="-35.81735" lon="147.82526"><ele>630</ele></trkpt>
<trkpt lat="-35.81724" lon="147.82429"><ele>634</ele></trkpt>
<trkpt lat="-35.81785" lon="147.82413"><ele>633</ele></trkpt>
<trkpt lat="-35.81822" lon="147.82378"><ele>634</ele></trkpt>
<trkpt lat="-35.81903" lon="147.82383"><ele>637</ele></trkpt>
<trkpt lat="-35.82047" lon="147.82087"><ele>647</ele></trkpt>
<trkpt lat="-35.82054" lon="147.82047"><ele>647</ele></trkpt>
<trkpt lat="-35.82045" lon="147.81935"><ele>646</ele></trkpt>
<trkpt lat="-35.82045" lon="147.81835"><ele>645</ele></trkpt>
<trkpt lat="-35.82022" lon="147.81735"><ele>642</ele></trkpt>
<trkpt lat="-35.81992" lon="147.81565"><ele>638</ele></trkpt>
<trkpt lat="-35.81991" lon="147.81338"><ele>624</ele></trkpt>
<trkpt lat="-35.82013" lon="147.81233"><ele>624</ele></trkpt>
<trkpt lat="-35.8203" lon="147.81209"><ele>624</ele></trkpt>
<trkpt lat="-35.82063" lon="147.81142"><ele>626</ele></trkpt>
<trkpt lat="-35.82115" lon="147.8108"><ele>624</ele></trkpt>
<trkpt lat="-35.82173" lon="147.80934"><ele>624</ele></trkpt>
<trkpt lat="-35.82209" lon="147.80883"><ele>622</ele></trkpt>
<trkpt lat="-35.8224" lon="147.80826"><ele>619</ele></trkpt>
<trkpt lat="-35.82264" lon="147.80733"><ele>620</ele></trkpt>
<trkpt lat="-35.82259" lon="147.80667"><ele>621</ele></trkpt>
<trkpt lat="-35.8227" lon="147.80545"><ele>618</ele></trkpt>
<trkpt lat="-35.82289" lon="147.80523"><ele>616</ele></trkpt>
<trkpt lat="-35.82294" lon="147.8051"><ele>616</ele></trkpt>
<trkpt lat="-35.82309" lon="147.80336"><ele>612</ele></trkpt>
<trkpt lat="-35.82323" lon="147.80275"><ele>609</ele></trkpt>
<trkpt lat="-35.82311" lon="147.80208"><ele>607</ele></trkpt>
<trkpt lat="-35.82323" lon="147.80175"><ele>604</ele></trkpt>
<trkpt lat="-35.82325" lon="147.80119"><ele>602</ele></trkpt>
<trkpt lat="-35.82309" lon="147.80056"><ele>601</ele></trkpt>
<trkpt lat="-35.82298" lon="147.79915"><ele>599</ele></trkpt>
<trkpt lat="-35.82311" lon="147.79852"><ele>597</ele></trkpt>
<trkpt lat="-35.82304" lon="147.79784"><ele>596</ele></trkpt>
<trkpt lat="-35.82257" lon="147.79716"><ele>595</ele></trkpt>
<trkpt lat="-35.82219" lon="147.79676"><ele>593</ele></trkpt>
<trkpt lat="-35.82247" lon="147.79616"><ele>591</ele></trkpt>
<trkpt lat="-35.82242" lon="147.79595"><ele>590</ele></trkpt>
<trkpt lat="-35.8226" lon="147.79529"><ele>589</ele></trkpt>
<trkpt lat="-35.82283" lon="147.79477"><ele>589</ele></trkpt>
<trkpt lat="-35.82284" lon="147.79453"><ele>588</ele></trkpt>
<trkpt lat="-35.82307" lon="147.794"><ele>587</ele></trkpt>
<trkpt lat="-35.82352" lon="147.79361"><ele>585</ele></trkpt>
<trkpt lat="-35.82392" lon="147.79337"><ele>584</ele></trkpt>
<trkpt lat="-35.82433" lon="147.79291"><ele>583</ele></trkpt>
<trkpt lat="-35.82531" lon="147.79238"><ele>584</ele></trkpt>
<trkpt lat="-35.82519" lon="147.79146"><ele>584</ele></trkpt>
<trkpt lat="-35.82502" lon="147.79115"><ele>585</ele></trkpt>
<trkpt lat="-35.8244" lon="147.79099"><ele>588</ele></trkpt>
<trkpt lat="-35.82428" lon="147.7911"><ele>588</ele></trkpt>
<trkpt lat="-35.82415" lon="147.79114"><ele>588</ele></trkpt>
<trkpt lat="-35.82368" lon="147.79102"><ele>590</ele></trkpt>
<trkpt lat="-35.82322" lon="147.79056"><ele>595</ele></trkpt>
<trkpt lat="-35.82299" lon="147.79049"><ele>597</ele></trkpt>
<trkpt lat="-35.82267" lon="147.78989"><ele>602</ele></trkpt>
<trkpt lat="-35.82247" lon="147.78896"><ele>606</ele></trkpt>
<trkpt lat="-35.82238" lon="147.7882"><ele>608</ele></trkpt>
<trkpt lat="-35.82216" lon="147.788"><ele>611</ele></trkpt>
<trkpt lat="-35.82182" lon="147.78798"><ele>614</ele></trkpt>
<trkpt lat="-35.82142" lon="147.78784"><ele>616</ele></trkpt>
<trkpt lat="-35.82098" lon="147.7879"><ele>619</ele></trkpt>
<trkpt lat="-35.82111" lon="147.78743"><ele>619</ele></trkpt>
<trkpt lat="-35.82204" lon="147.78673"><ele>625</ele></trkpt>
<trkpt lat="-35.82282" lon="147.78579"><ele>625</ele></trkpt>
<trkpt lat="-35.82298" lon="147.7855"><ele>625</ele></trkpt>
<trkpt lat="-35.82282" lon="147.78517"><ele>629</ele></trkpt>
<trkpt lat="-35.82178" lon="147.78476"><ele>641</ele></trkpt>
<trkpt lat="-35.82131" lon="147.78448"><ele>645</ele></trkpt>
<trkpt lat="-35.82145" lon="147.7827"><ele>651</ele></trkpt>
<trkpt lat="-35.82109" lon="147.78132"><ele>651</ele></trkpt>
<trkpt lat="-35.82057" lon="147.77971"><ele>655</ele></trkpt>
<trkpt lat="-35.82046" lon="147.77919"><ele>657</ele></trkpt>
<trkpt lat="-35.82047" lon="147.77885"><ele>658</ele></trkpt>
<trkpt lat="-35.82062" lon="147.77845"><ele>659</ele></trkpt>
<trkpt lat="-35.82141" lon="147.77687"><ele>666</ele></trkpt>
<trkpt lat="-35.82196" lon="147.77471"><ele>682</ele></trkpt>
<trkpt lat="-35.82209" lon="147.77434"><ele>684</ele></trkpt>
<trkpt lat="-35.82235" lon="147.77393"><ele>684</ele></trkpt>
<trkpt lat="-35.82259" lon="147.77372"><ele>683</ele></trkpt>
<trkpt lat="-35.82288" lon="147.77373"><ele>683</ele></trkpt>
<trkpt lat="-35.82379" lon="147.77443"><ele>690</ele></trkpt>
<trkpt lat="-35.82409" lon="147.77447"><ele>693</ele></trkpt>
<trkpt lat="-35.82468" lon="147.77403"><ele>702</ele></trkpt>
<trkpt lat="-35.82495" lon="147.77372"><ele>707</ele></trkpt>
<trkpt lat="-35.82554" lon="147.77354"><ele>707</ele></trkpt>
<trkpt lat="-35.82583" lon="147.77296"><ele>711</ele></trkpt>
<trkpt lat="-35.82592" lon="147.77231"><ele>715</ele></trkpt>
<trkpt lat="-35.82619" lon="147.77172"><ele>716</ele></trkpt>
<trkpt lat="-35.82635" lon="147.77115"><ele>720</ele></trkpt>
<trkpt lat="-35.82675" lon="147.77065"><ele>721</ele></trkpt>
<trkpt lat="-35.82699" lon="147.77005"><ele>728</ele></trkpt>
<trkpt lat="-35.82708" lon="147.76919"><ele>732</ele></trkpt>
<trkpt lat="-35.82711" lon="147.76754"><ele>726</ele></trkpt>
<trkpt lat="-35.82795" lon="147.76712"><ele>728</ele></trkpt>
<trkpt lat="-35.82838" lon="147.76683"><ele>728</ele></trkpt>
<trkpt lat="-35.8289" lon="147.76638"><ele>731</ele></trkpt>
<trkpt lat="-35.82999" lon="147.76603"><ele>740</ele></trkpt>
<trkpt lat="-35.83038" lon="147.76576"><ele>737</ele></trkpt>
<trkpt lat="-35.83053" lon="147.76547"><ele>736</ele></trkpt>
<trkpt lat="-35.82846" lon="147.74919"><ele>678</ele></trkpt>
<trkpt lat="-35.8276" lon="147.74311"><ele>684</ele></trkpt>
<trkpt lat="-35.82745" lon="147.74149"><ele>660</ele></trkpt>
<trkpt lat="-35.8277" lon="147.73892"><ele>615</ele></trkpt>
<trkpt lat="-35.82771" lon="147.73807"><ele>608</ele></trkpt>
<trkpt lat="-35.82785" lon="147.73728"><ele>602</ele></trkpt>
<trkpt lat="-35.82792" lon="147.73659"><ele>601</ele></trkpt>
<trkpt lat="-35.82803" lon="147.73469"><ele>608</ele></trkpt>
<trkpt lat="-35.82823" lon="147.73376"><ele>606</ele></trkpt>
<trkpt lat="-35.82892" lon="147.73189"><ele>587</ele></trkpt>
<trkpt lat="-35.82894" lon="147.73167"><ele>587</ele></trkpt>
<trkpt lat="-35.82884" lon="147.73129"><ele>579</ele></trkpt>
<trkpt lat="-35.82881" lon="147.73075"><ele>567</ele></trkpt>
<trkpt lat="-35.8284" lon="147.72887"><ele>539</ele></trkpt>
<trkpt lat="-35.82744" lon="147.72661"><ele>508</ele></trkpt>
<trkpt lat="-35.82712" lon="147.72526"><ele>487</ele></trkpt>
<trkpt lat="-35.82713" lon="147.72489"><ele>485</ele></trkpt>
<trkpt lat="-35.82809" lon="147.72313"><ele>471</ele></trkpt>
<trkpt lat="-35.82843" lon="147.72226"><ele>478</ele></trkpt>
<trkpt lat="-35.82875" lon="147.72121"><ele>487</ele></trkpt>
<trkpt lat="-35.82896" lon="147.72084"><ele>492</ele></trkpt>
<trkpt lat="-35.82909" lon="147.72038"><ele>496</ele></trkpt>
<trkpt lat="-35.82941" lon="147.71992"><ele>496</ele></trkpt>
<trkpt lat="-35.8296" lon="147.71979"><ele>494</ele></trkpt>
<trkpt lat="-35.82982" lon="147.7197"><ele>491</ele></trkpt>
<trkpt lat="-35.82996" lon="147.71953"><ele>491</ele></trkpt>
<trkpt lat="-35.8301" lon="147.71926"><ele>489</ele></trkpt>
<trkpt lat="-35.83013" lon="147.71901"><ele>491</ele></trkpt>
<trkpt lat="-35.8311" lon="147.71749"><ele>471</ele></trkpt>
<trkpt lat="-35.83129" lon="147.71704"><ele>469</ele></trkpt>
<trkpt lat="-35.83142" lon="147.71689"><ele>468</ele></trkpt>
<trkpt lat="-35.83165" lon="147.71678"><ele>466</ele></trkpt>
<trkpt lat="-35.83196" lon="147.71629"><ele>457</ele></trkpt>
<trkpt lat="-35.83234" lon="147.71541"><ele>450</ele></trkpt>
<trkpt lat="-35.83269" lon="147.71475"><ele>449</ele></trkpt>
<trkpt lat="-35.83353" lon="147.7139"><ele>442</ele></trkpt>
<trkpt lat="-35.83423" lon="147.71284"><ele>436</ele></trkpt>
<trkpt lat="-35.83462" lon="147.71241"><ele>425</ele></trkpt>
<trkpt lat="-35.83483" lon="147.71193"><ele>418</ele></trkpt>
<trkpt lat="-35.83496" lon="147.71115"><ele>415</ele></trkpt>
<trkpt lat="-35.83536" lon="147.71019"><ele>404</ele></trkpt>
<trkpt lat="-35.83564" lon="147.7091"><ele>391</ele></trkpt>
<trkpt lat="-35.83581" lon="147.70868"><ele>383</ele></trkpt>
<trkpt lat="-35.83696" lon="147.70683"><ele>343</ele></trkpt>
<trkpt lat="-35.83711" lon="147.7064"><ele>337</ele></trkpt>
<trkpt lat="-35.83726" lon="147.70633"><ele>335</ele></trkpt>
<trkpt lat="-35.83745" lon="147.70603"><ele>333</ele></trkpt>
<trkpt lat="-35.8378" lon="147.70576"><ele>326</ele></trkpt>
<trkpt lat="-35.83992" lon="147.70529"><ele>294</ele></trkpt>
<trkpt lat="-35.84053" lon="147.70499"><ele>287</ele></trkpt>
<trkpt lat="-35.84115" lon="147.70489"><ele>282</ele></trkpt>
<trkpt lat="-35.84162" lon="147.70457"><ele>280</ele></trkpt>
<trkpt lat="-35.84176" lon="147.70454"><ele>282</ele></trkpt>
<trkpt lat="-35.84198" lon="147.70464"><ele>285</ele></trkpt>
<trkpt lat="-35.84216" lon="147.70511"><ele>285</ele></trkpt>
<trkpt lat="-35.84251" lon="147.70546"><ele>291</ele></trkpt>
<trkpt lat="-35.84311" lon="147.70621"><ele>302</ele></trkpt>
<trkpt lat="-35.84335" lon="147.70636"><ele>303</ele></trkpt>
<trkpt lat="-35.84386" lon="147.70645"><ele>298</ele></trkpt>
<trkpt lat="-35.84399" lon="147.70633"><ele>298</ele></trkpt>
<trkpt lat="-35.84413" lon="147.70611"><ele>300</ele></trkpt>
<trkpt lat="-35.84444" lon="147.70595"><ele>298</ele></trkpt>
<trkpt lat="-35.84467" lon="147.70574"><ele>300</ele></trkpt>
<trkpt lat="-35.84532" lon="147.70579"><ele>292</ele></trkpt>
<trkpt lat="-35.84598" lon="147.70572"><ele>291</ele></trkpt>
<trkpt lat="-35.84617" lon="147.70561"><ele>292</ele></trkpt>
<trkpt lat="-35.84638" lon="147.70541"><ele>293</ele></trkpt>
<trkpt lat="-35.8468" lon="147.70485"><ele>291</ele></trkpt>
<trkpt lat="-35.84736" lon="147.70449"><ele>287</ele></trkpt>
<trkpt lat="-35.84779" lon="147.70428"><ele>287</ele></trkpt>
<trkpt lat="-35.84791" lon="147.70408"><ele>288</ele></trkpt>
<trkpt lat="-35.84815" lon="147.70393"><ele>288</ele></trkpt>
<trkpt lat="-35.84842" lon="147.70376"><ele>288</ele></trkpt>
<trkpt lat="-35.84874" lon="147.70364"><ele>288</ele></trkpt>
<trkpt lat="-35.84946" lon="147.70317"><ele>286</ele></trkpt>
<trkpt lat="-35.84981" lon="147.70303"><ele>283</ele></trkpt>
<trkpt lat="-35.85013" lon="147.70297"><ele>281</ele></trkpt>
<trkpt lat="-35.85078" lon="147.7029"><ele>279</ele></trkpt>
<trkpt lat="-35.85141" lon="147.70289"><ele>277</ele></trkpt>
<trkpt lat="-35.85257" lon="147.70252"><ele>271</ele></trkpt>
<trkpt lat="-35.85288" lon="147.70235"><ele>269</ele></trkpt>
<trkpt lat="-35.85343" lon="147.70217"><ele>266</ele></trkpt>
<trkpt lat="-35.85388" lon="147.70188"><ele>261</ele></trkpt>
<trkpt lat="-35.85406" lon="147.70167"><ele>259</ele></trkpt>
<trkpt lat="-35.85442" lon="147.70088"><ele>262</ele></trkpt>
<trkpt lat="-35.85429" lon="147.69992"><ele>265</ele></trkpt>
<trkpt lat="-35.85411" lon="147.69965"><ele>268</ele></trkpt>
<trkpt lat="-35.85368" lon="147.69796"><ele>285</ele></trkpt>
<trkpt lat="-35.85386" lon="147.69748"><ele>281</ele></trkpt>
<trkpt lat="-35.85443" lon="147.6966"><ele>279</ele></trkpt>
<trkpt lat="-35.85441" lon="147.69609"><ele>278</ele></trkpt>
<trkpt lat="-35.85348" lon="147.69514"><ele>282</ele></trkpt>
<trkpt lat="-35.85279" lon="147.69433"><ele>278</ele></trkpt>
<trkpt lat="-35.85158" lon="147.69322"><ele>277</ele></trkpt>
<trkpt lat="-35.8507" lon="147.69278"><ele>277</ele></trkpt>
<trkpt lat="-35.8504" lon="147.69331"><ele>277</ele></trkpt>
<trkpt lat="-35.84989" lon="147.69384"><ele>284</ele></trkpt>
<trkpt lat="-35.84871" lon="147.69404"><ele>283</ele></trkpt>
<trkpt lat="-35.84834" lon="147.69375"><ele>282</ele></trkpt>
<trkpt lat="-35.8482" lon="147.6927"><ele>276</ele></trkpt>
<trkpt lat="-35.84793" lon="147.69235"><ele>279</ele></trkpt>
<trkpt lat="-35.84758" lon="147.69215"><ele>281</ele></trkpt>
<trkpt lat="-35.8471" lon="147.69198"><ele>284</ele></trkpt>
<trkpt lat="-35.84664" lon="147.6917"><ele>281</ele></trkpt>
<trkpt lat="-35.84592" lon="147.69112"><ele>287</ele></trkpt>
<trkpt lat="-35.84536" lon="147.6909"><ele>289</ele></trkpt>
<trkpt lat="-35.84349" lon="147.68999"><ele>295</ele></trkpt>
<trkpt lat="-35.84352" lon="147.68929"><ele>286</ele></trkpt>
<trkpt lat="-35.84412" lon="147.68855"><ele>283</ele></trkpt>
<trkpt lat="-35.8441" lon="147.6876"><ele>283</ele></trkpt>
<trkpt lat="-35.84387" lon="147.68687"><ele>284</ele></trkpt>
<trkpt lat="-35.84328" lon="147.68632"><ele>285</ele></trkpt>
<trkpt lat="-35.84183" lon="147.68437"><ele>287</ele></trkpt>
<trkpt lat="-35.84103" lon="147.6842"><ele>290</ele></trkpt>
<trkpt lat="-35.84049" lon="147.68434"><ele>293</ele></trkpt>
<trkpt lat="-35.84016" lon="147.68436"><ele>294</ele></trkpt>
<trkpt lat="-35.83995" lon="147.68428"><ele>294</ele></trkpt>
<trkpt lat="-35.83961" lon="147.68428"><ele>294</ele></trkpt>
<trkpt lat="-35.83872" lon="147.68463"><ele>302</ele></trkpt>
<trkpt lat="-35.83807" lon="147.68379"><ele>297</ele></trkpt>
<trkpt lat="-35.83734" lon="147.68306"><ele>300</ele></trkpt>
<trkpt lat="-35.83621" lon="147.68176"><ele>310</ele></trkpt>
<trkpt lat="-35.83582" lon="147.68101"><ele>309</ele></trkpt>
<trkpt lat="-35.83573" lon="147.68054"><ele>308</ele></trkpt>
<trkpt lat="-35.83583" lon="147.67898"><ele>306</ele></trkpt>
<trkpt lat="-35.83576" lon="147.67813"><ele>308</ele></trkpt>
<trkpt lat="-35.83577" lon="147.67764"><ele>304</ele></trkpt>
<trkpt lat="-35.83557" lon="147.67735"><ele>307</ele></trkpt>
<trkpt lat="-35.83498" lon="147.67704"><ele>311</ele></trkpt>
<trkpt lat="-35.83469" lon="147.677"><ele>317</ele></trkpt>
<trkpt lat="-35.83441" lon="147.67622"><ele>313</ele></trkpt>
<trkpt lat="-35.83348" lon="147.67516"><ele>317</ele></trkpt>
<trkpt lat="-35.83255" lon="147.67472"><ele>323</ele></trkpt>
<trkpt lat="-35.83235" lon="147.67467"><ele>324</ele></trkpt>
<trkpt lat="-35.83179" lon="147.67434"><ele>321</ele></trkpt>
<trkpt lat="-35.83148" lon="147.67393"><ele>318</ele></trkpt>
<trkpt lat="-35.83165" lon="147.67371"><ele>314</ele></trkpt>
<trkpt lat="-35.83148" lon="147.67329"><ele>313</ele></trkpt>
<trkpt lat="-35.83152" lon="147.67295"><ele>312</ele></trkpt>
<trkpt lat="-35.83073" lon="147.67238"><ele>311</ele></trkpt>
<trkpt lat="-35.82403" lon="147.66813"><ele>333</ele></trkpt>
<trkpt lat="-35.82348" lon="147.66773"><ele>330</ele></trkpt>
<trkpt lat="-35.82275" lon="147.66711"><ele>332</ele></trkpt>
<trkpt lat="-35.82222" lon="147.66653"><ele>336</ele></trkpt>
<trkpt lat="-35.82154" lon="147.66565"><ele>346</ele></trkpt>
<trkpt lat="-35.82123" lon="147.66516"><ele>352</ele></trkpt>
<trkpt lat="-35.82056" lon="147.66383"><ele>357</ele></trkpt>
<trkpt lat="-35.81664" lon="147.6527"><ele>357</ele></trkpt>
<trkpt lat="-35.81639" lon="147.65202"><ele>357</ele></trkpt>
<trkpt lat="-35.81583" lon="147.65096"><ele>359</ele></trkpt>
<trkpt lat="-35.81512" lon="147.64995"><ele>366</ele></trkpt>
<trkpt lat="-35.81444" lon="147.64926"><ele>368</ele></trkpt>
<trkpt lat="-35.81408" lon="147.64896"><ele>370</ele></trkpt>
<trkpt lat="-35.80932" lon="147.64583"><ele>376</ele></trkpt>
<trkpt lat="-35.80928" lon="147.64555"><ele>378</ele></trkpt>
<trkpt lat="-35.80936" lon="147.64505"><ele>380</ele></trkpt>
<trkpt lat="-35.81004" lon="147.64264"><ele>387</ele></trkpt>
<trkpt lat="-35.80985" lon="147.64142"><ele>397</ele></trkpt>
<trkpt lat="-35.80899" lon="147.63749"><ele>435</ele></trkpt>
<trkpt lat="-35.80894" lon="147.63654"><ele>445</ele></trkpt>
<trkpt lat="-35.809" lon="147.63579"><ele>452</ele></trkpt>
<trkpt lat="-35.80921" lon="147.63524"><ele>457</ele></trkpt>
<trkpt lat="-35.81037" lon="147.63367"><ele>486</ele></trkpt>
<trkpt lat="-35.81093" lon="147.63323"><ele>495</ele></trkpt>
<trkpt lat="-35.81118" lon="147.6329"><ele>501</ele></trkpt>
<trkpt lat="-35.81125" lon="147.6325"><ele>505</ele></trkpt>
<trkpt lat="-35.81121" lon="147.63221"><ele>508</ele></trkpt>
<trkpt lat="-35.81052" lon="147.63179"><ele>517</ele></trkpt>
<trkpt lat="-35.81019" lon="147.63148"><ele>524</ele></trkpt>
<trkpt lat="-35.80942" lon="147.63092"><ele>533</ele></trkpt>
<trkpt lat="-35.8092" lon="147.63066"><ele>534</ele></trkpt>
<trkpt lat="-35.80913" lon="147.63042"><ele>535</ele></trkpt>
<trkpt lat="-35.80946" lon="147.62909"><ele>538</ele></trkpt>
<trkpt lat="-35.80958" lon="147.62841"><ele>541</ele></trkpt>
<trkpt lat="-35.80931" lon="147.62753"><ele>539</ele></trkpt>
<trkpt lat="-35.8094" lon="147.62705"><ele>548</ele></trkpt>
<trkpt lat="-35.80933" lon="147.62676"><ele>549</ele></trkpt>
<trkpt lat="-35.80877" lon="147.62602"><ele>546</ele></trkpt>
<trkpt lat="-35.8089" lon="147.62566"><ele>547</ele></trkpt>
<trkpt lat="-35.80944" lon="147.625"><ele>553</ele></trkpt>
<trkpt lat="-35.81016" lon="147.62393"><ele>558</ele></trkpt>
<trkpt lat="-35.81098" lon="147.6233"><ele>568</ele></trkpt>
<trkpt lat="-35.81131" lon="147.62312"><ele>568</ele></trkpt>
<trkpt lat="-35.8138" lon="147.62265"><ele>547</ele></trkpt>
<trkpt lat="-35.81411" lon="147.6223"><ele>542</ele></trkpt>
<trkpt lat="-35.81443" lon="147.62211"><ele>538</ele></trkpt>
<trkpt lat="-35.8151" lon="147.62216"><ele>530</ele></trkpt>
<trkpt lat="-35.81539" lon="147.6223"><ele>527</ele></trkpt>
<trkpt lat="-35.81559" lon="147.62266"><ele>525</ele></trkpt>
<trkpt lat="-35.81665" lon="147.6233"><ele>524</ele></trkpt>
<trkpt lat="-35.81694" lon="147.62308"><ele>527</ele></trkpt>
<trkpt lat="-35.81731" lon="147.62267"><ele>530</ele></trkpt>
<trkpt lat="-35.81804" lon="147.62222"><ele>536</ele></trkpt>
<trkpt lat="-35.8187" lon="147.62218"><ele>543</ele></trkpt>
<trkpt lat="-35.81894" lon="147.62205"><ele>544</ele></trkpt>
<trkpt lat="-35.81919" lon="147.62184"><ele>546</ele></trkpt>
<trkpt lat="-35.81982" lon="147.62079"><ele>550</ele></trkpt>
<trkpt lat="-35.82011" lon="147.62049"><ele>552</ele></trkpt>
<trkpt lat="-35.82079" lon="147.62004"><ele>558</ele></trkpt>
<trkpt lat="-35.82267" lon="147.61704"><ele>558</ele></trkpt>
<trkpt lat="-35.82314" lon="147.61653"><ele>562</ele></trkpt>
<trkpt lat="-35.82337" lon="147.61621"><ele>563</ele></trkpt>
<trkpt lat="-35.82356" lon="147.61544"><ele>564</ele></trkpt>
<trkpt lat="-35.82349" lon="147.61456"><ele>566</ele></trkpt>
<trkpt lat="-35.82369" lon="147.61415"><ele>569</ele></trkpt>
<trkpt lat="-35.82426" lon="147.61359"><ele>575</ele></trkpt>
<trkpt lat="-35.82462" lon="147.61299"><ele>579</ele></trkpt>
<trkpt lat="-35.82523" lon="147.61241"><ele>584</ele></trkpt>
<trkpt lat="-35.82547" lon="147.61207"><ele>586</ele></trkpt>
<trkpt lat="-35.82577" lon="147.61134"><ele>589</ele></trkpt>
<trkpt lat="-35.82637" lon="147.61029"><ele>595</ele></trkpt>
<trkpt lat="-35.82689" lon="147.60973"><ele>598</ele></trkpt>
<trkpt lat="-35.82733" lon="147.60912"><ele>599</ele></trkpt>
<trkpt lat="-35.82767" lon="147.60832"><ele>600</ele></trkpt>
<trkpt lat="-35.82872" lon="147.60654"><ele>617</ele></trkpt>
<trkpt lat="-35.82883" lon="147.60611"><ele>618</ele></trkpt>
<trkpt lat="-35.82925" lon="147.60528"><ele>624</ele></trkpt>
<trkpt lat="-35.82963" lon="147.60484"><ele>631</ele></trkpt>
<trkpt lat="-35.83027" lon="147.60427"><ele>638</ele></trkpt>
<trkpt lat="-35.83073" lon="147.60305"><ele>644</ele></trkpt>
<trkpt lat="-35.83235" lon="147.60127"><ele>667</ele></trkpt>
<trkpt lat="-35.83354" lon="147.6003"><ele>674</ele></trkpt>
<trkpt lat="-35.83384" lon="147.59998"><ele>675</ele></trkpt>
<trkpt lat="-35.83398" lon="147.59964"><ele>679</ele></trkpt>
<trkpt lat="-35.83398" lon="147.5994"><ele>684</ele></trkpt>
<trkpt lat="-35.83416" lon="147.59904"><ele>689</ele></trkpt>
<trkpt lat="-35.83445" lon="147.59883"><ele>692</ele></trkpt>
<trkpt lat="-35.83485" lon="147.59879"><ele>692</ele></trkpt>
<trkpt lat="-35.83546" lon="147.59828"><ele>700</ele></trkpt>
<trkpt lat="-35.83561" lon="147.59789"><ele>705</ele></trkpt>
<trkpt lat="-35.83575" lon="147.59719"><ele>713</ele></trkpt>
<trkpt lat="-35.83573" lon="147.59676"><ele>717</ele></trkpt>
<trkpt lat="-35.83563" lon="147.59598"><ele>720</ele></trkpt>
<trkpt lat="-35.83561" lon="147.59487"><ele>720</ele></trkpt>
<trkpt lat="-35.83525" lon="147.594"><ele>722</ele></trkpt>
<trkpt lat="-35.83519" lon="147.59238"><ele>721</ele></trkpt>
<trkpt lat="-35.83521" lon="147.59216"><ele>722</ele></trkpt>
<trkpt lat="-35.83556" lon="147.59097"><ele>726</ele></trkpt>
<trkpt lat="-35.83573" lon="147.59066"><ele>728</ele></trkpt>
<trkpt lat="-35.83602" lon="147.59042"><ele>730</ele></trkpt>
<trkpt lat="-35.8366" lon="147.59018"><ele>735</ele></trkpt>
<trkpt lat="-35.83714" lon="147.58965"><ele>737</ele></trkpt>
<trkpt lat="-35.83729" lon="147.58941"><ele>737</ele></trkpt>
<trkpt lat="-35.83768" lon="147.58904"><ele>737</ele></trkpt>
<trkpt lat="-35.83798" lon="147.58867"><ele>734</ele></trkpt>
<trkpt lat="-35.839" lon="147.58777"><ele>730</ele></trkpt>
<trkpt lat="-35.83941" lon="147.58747"><ele>731</ele></trkpt>
<trkpt lat="-35.84006" lon="147.58711"><ele>735</ele></trkpt>
<trkpt lat="-35.84051" lon="147.58697"><ele>738</ele></trkpt>
<trkpt lat="-35.84089" lon="147.58675"><ele>740</ele></trkpt>
<trkpt lat="-35.84124" lon="147.58643"><ele>743</ele></trkpt>
<trkpt lat="-35.84168" lon="147.58585"><ele>749</ele></trkpt>
<trkpt lat="-35.84208" lon="147.58511"><ele>756</ele></trkpt>
<trkpt lat="-35.84226" lon="147.58347"><ele>758</ele></trkpt>
<trkpt lat="-35.84252" lon="147.58309"><ele>761</ele></trkpt>
<trkpt lat="-35.8427" lon="147.58298"><ele>763</ele></trkpt>
<trkpt lat="-35.84341" lon="147.58287"><ele>768</ele></trkpt>
<trkpt lat="-35.84387" lon="147.58266"><ele>769</ele></trkpt>
<trkpt lat="-35.8442" lon="147.58215"><ele>772</ele></trkpt>
<trkpt lat="-35.84468" lon="147.58165"><ele>775</ele></trkpt>
<trkpt lat="-35.84632" lon="147.58089"><ele>780</ele></trkpt>
<trkpt lat="-35.8466" lon="147.58072"><ele>781</ele></trkpt>
<trkpt lat="-35.84682" lon="147.5805"><ele>784</ele></trkpt>
<trkpt lat="-35.84714" lon="147.58035"><ele>788</ele></trkpt>
<trkpt lat="-35.84787" lon="147.57986"><ele>793</ele></trkpt>
<trkpt lat="-35.84862" lon="147.57915"><ele>797</ele></trkpt>
<trkpt lat="-35.84911" lon="147.57877"><ele>797</ele></trkpt>
<trkpt lat="-35.84931" lon="147.57842"><ele>798</ele></trkpt>
<trkpt lat="-35.84942" lon="147.57807"><ele>798</ele></trkpt>
<trkpt lat="-35.84962" lon="147.5777"><ele>796</ele></trkpt>
<trkpt lat="-35.84976" lon="147.57719"><ele>795</ele></trkpt>
<trkpt lat="-35.84975" lon="147.57682"><ele>795</ele></trkpt>
<trkpt lat="-35.84967" lon="147.57651"><ele>795</ele></trkpt>
<trkpt lat="-35.84907" lon="147.57541"><ele>786</ele></trkpt>
<trkpt lat="-35.84904" lon="147.57443"><ele>779</ele></trkpt>
<trkpt lat="-35.8493" lon="147.57388"><ele>783</ele></trkpt>
<trkpt lat="-35.84951" lon="147.57287"><ele>774</ele></trkpt>
<trkpt lat="-35.8509" lon="147.57087"><ele>755</ele></trkpt>
<trkpt lat="-35.85101" lon="147.57053"><ele>754</ele></trkpt>
<trkpt lat="-35.85107" lon="147.57017"><ele>754</ele></trkpt>
<trkpt lat="-35.85125" lon="147.56831"><ele>748</ele></trkpt>
<trkpt lat="-35.85116" lon="147.5668"><ele>750</ele></trkpt>
<trkpt lat="-35.85069" lon="147.56571"><ele>746</ele></trkpt>
<trkpt lat="-35.85029" lon="147.56453"><ele>749</ele></trkpt>
<trkpt lat="-35.84976" lon="147.56348"><ele>756</ele></trkpt>
<trkpt lat="-35.84911" lon="147.56276"><ele>757</ele></trkpt>
<trkpt lat="-35.84893" lon="147.56248"><ele>754</ele></trkpt>
<trkpt lat="-35.84884" lon="147.56219"><ele>752</ele></trkpt>
<trkpt lat="-35.84882" lon="147.56183"><ele>750</ele></trkpt>
<trkpt lat="-35.84891" lon="147.56118"><ele>751</ele></trkpt>
<trkpt lat="-35.84886" lon="147.56002"><ele>757</ele></trkpt>
<trkpt lat="-35.84933" lon="147.5594"><ele>762</ele></trkpt>
<trkpt lat="-35.84962" lon="147.55866"><ele>764</ele></trkpt>
<trkpt lat="-35.84967" lon="147.55841"><ele>765</ele></trkpt>
<trkpt lat="-35.84955" lon="147.55758"><ele>769</ele></trkpt>
<trkpt lat="-35.84927" lon="147.55675"><ele>774</ele></trkpt>
<trkpt lat="-35.84921" lon="147.55641"><ele>777</ele></trkpt>
<trkpt lat="-35.8493" lon="147.55618"><ele>777</ele></trkpt>
<trkpt lat="-35.8496" lon="147.55587"><ele>774</ele></trkpt>
<trkpt lat="-35.84979" lon="147.55556"><ele>772</ele></trkpt>
<trkpt lat="-35.84982" lon="147.55524"><ele>773</ele></trkpt>
<trkpt lat="-35.84967" lon="147.55422"><ele>773</ele></trkpt>
<trkpt lat="-35.84966" lon="147.55374"><ele>771</ele></trkpt>
<trkpt lat="-35.84981" lon="147.55317"><ele>767</ele></trkpt>
<trkpt lat="-35.84977" lon="147.55283"><ele>765</ele></trkpt>
<trkpt lat="-35.84962" lon="147.55252"><ele>762</ele></trkpt>
<trkpt lat="-35.84926" lon="147.55228"><ele>759</ele></trkpt>
<trkpt lat="-35.84923" lon="147.55217"><ele>757</ele></trkpt>
<trkpt lat="-35.84928" lon="147.55179"><ele>754</ele></trkpt>
<trkpt lat="-35.84901" lon="147.55118"><ele>750</ele></trkpt>
<trkpt lat="-35.84866" lon="147.5509"><ele>750</ele></trkpt>
<trkpt lat="-35.84815" lon="147.55097"><ele>753</ele></trkpt>
<trkpt lat="-35.84782" lon="147.55093"><ele>749</ele></trkpt>
<trkpt lat="-35.84724" lon="147.55076"><ele>744</ele></trkpt>
<trkpt lat="-35.84684" lon="147.55057"><ele>744</ele></trkpt>
<trkpt lat="-35.84666" lon="147.55036"><ele>742</ele></trkpt>
<trkpt lat="-35.84662" lon="147.55012"><ele>739</ele></trkpt>
<trkpt lat="-35.84699" lon="147.54949"><ele>731</ele></trkpt>
<trkpt lat="-35.84707" lon="147.54924"><ele>728</ele></trkpt>
<trkpt lat="-35.84704" lon="147.54914"><ele>727</ele></trkpt>
<trkpt lat="-35.84689" lon="147.54885"><ele>725</ele></trkpt>
<trkpt lat="-35.84619" lon="147.54793"><ele>715</ele></trkpt>
<trkpt lat="-35.84562" lon="147.54756"><ele>710</ele></trkpt>
<trkpt lat="-35.84543" lon="147.54667"><ele>698</ele></trkpt>
<trkpt lat="-35.84525" lon="147.54458"><ele>682</ele></trkpt>
<trkpt lat="-35.84519" lon="147.54428"><ele>679</ele></trkpt>
<trkpt lat="-35.84463" lon="147.54283"><ele>666</ele></trkpt>
<trkpt lat="-35.8445" lon="147.54241"><ele>663</ele></trkpt>
<trkpt lat="-35.8444" lon="147.54162"><ele>659</ele></trkpt>
<trkpt lat="-35.84428" lon="147.54124"><ele>660</ele></trkpt>
<trkpt lat="-35.84409" lon="147.54089"><ele>661</ele></trkpt>
<trkpt lat="-35.84363" lon="147.53965"><ele>669</ele></trkpt>
<trkpt lat="-35.84347" lon="147.53895"><ele>673</ele></trkpt>
<trkpt lat="-35.84344" lon="147.53862"><ele>676</ele></trkpt>
<trkpt lat="-35.84367" lon="147.53654"><ele>681</ele></trkpt>
<trkpt lat="-35.84367" lon="147.53591"><ele>679</ele></trkpt>
<trkpt lat="-35.84411" lon="147.53435"><ele>669</ele></trkpt>
<trkpt lat="-35.84437" lon="147.53401"><ele>667</ele></trkpt>
<trkpt lat="-35.8448" lon="147.5332"><ele>664</ele></trkpt>
<trkpt lat="-35.84528" lon="147.53262"><ele>658</ele></trkpt>
<trkpt lat="-35.84548" lon="147.53195"><ele>653</ele></trkpt>
<trkpt lat="-35.84546" lon="147.53154"><ele>652</ele></trkpt>
<trkpt lat="-35.84567" lon="147.53113"><ele>652</ele></trkpt>
<trkpt lat="-35.84622" lon="147.53049"><ele>652</ele></trkpt>
<trkpt lat="-35.84632" lon="147.53007"><ele>652</ele></trkpt>
<trkpt lat="-35.84722" lon="147.52834"><ele>652</ele></trkpt>
<trkpt lat="-35.84739" lon="147.5281"><ele>651</ele></trkpt>
<trkpt lat="-35.84758" lon="147.52793"><ele>650</ele></trkpt>
<trkpt lat="-35.84781" lon="147.52783"><ele>650</ele></trkpt>
<trkpt lat="-35.84827" lon="147.52738"><ele>647</ele></trkpt>
<trkpt lat="-35.84835" lon="147.52717"><ele>647</ele></trkpt>
<trkpt lat="-35.84875" lon="147.52652"><ele>645</ele></trkpt>
<trkpt lat="-35.84887" lon="147.52608"><ele>645</ele></trkpt>
<trkpt lat="-35.8489" lon="147.52575"><ele>645</ele></trkpt>
<trkpt lat="-35.84887" lon="147.52475"><ele>644</ele></trkpt>
<trkpt lat="-35.84881" lon="147.52427"><ele>643</ele></trkpt>
<trkpt lat="-35.84887" lon="147.52391"><ele>644</ele></trkpt>
<trkpt lat="-35.84904" lon="147.52367"><ele>646</ele></trkpt>
<trkpt lat="-35.84931" lon="147.52352"><ele>649</ele></trkpt>
<trkpt lat="-35.84966" lon="147.52325"><ele>655</ele></trkpt>
<trkpt lat="-35.84983" lon="147.52292"><ele>661</ele></trkpt>
<trkpt lat="-35.84985" lon="147.52265"><ele>664</ele></trkpt>
<trkpt lat="-35.84976" lon="147.52241"><ele>665</ele></trkpt>
<trkpt lat="-35.84936" lon="147.52182"><ele>664</ele></trkpt>
<trkpt lat="-35.84936" lon="147.52165"><ele>666</ele></trkpt>
<trkpt lat="-35.84952" lon="147.52133"><ele>672</ele></trkpt>
<trkpt lat="-35.84961" lon="147.52101"><ele>678</ele></trkpt>
<trkpt lat="-35.84959" lon="147.52074"><ele>680</ele></trkpt>
<trkpt lat="-35.84931" lon="147.5204"><ele>677</ele></trkpt>
<trkpt lat="-35.84932" lon="147.51975"><ele>681</ele></trkpt>
<trkpt lat="-35.84947" lon="147.51916"><ele>685</ele></trkpt>
<trkpt lat="-35.84958" lon="147.51906"><ele>685</ele></trkpt>
<trkpt lat="-35.84981" lon="147.51903"><ele>687</ele></trkpt>
<trkpt lat="-35.84998" lon="147.5191"><ele>688</ele></trkpt>
<trkpt lat="-35.85028" lon="147.5191"><ele>691</ele></trkpt>
<trkpt lat="-35.85097" lon="147.51902"><ele>697</ele></trkpt>
<trkpt lat="-35.85146" lon="147.51883"><ele>702</ele></trkpt>
<trkpt lat="-35.85174" lon="147.51846"><ele>705</ele></trkpt>
<trkpt lat="-35.85186" lon="147.51809"><ele>706</ele></trkpt>
<trkpt lat="-35.85198" lon="147.51659"><ele>700</ele></trkpt>
<trkpt lat="-35.85191" lon="147.51605"><ele>697</ele></trkpt>
<trkpt lat="-35.85158" lon="147.51445"><ele>693</ele></trkpt>
<trkpt lat="-35.85143" lon="147.5141"><ele>692</ele></trkpt>
<trkpt lat="-35.85079" lon="147.51328"><ele>691</ele></trkpt>
<trkpt lat="-35.85072" lon="147.51312"><ele>690</ele></trkpt>
<trkpt lat="-35.8507" lon="147.51274"><ele>688</ele></trkpt>
<trkpt lat="-35.85076" lon="147.51232"><ele>685</ele></trkpt>
<trkpt lat="-35.85128" lon="147.51113"><ele>676</ele></trkpt>
<trkpt lat="-35.85132" lon="147.51099"><ele>676</ele></trkpt>
<trkpt lat="-35.85131" lon="147.51067"><ele>675</ele></trkpt>
<trkpt lat="-35.85114" lon="147.51026"><ele>673</ele></trkpt>
<trkpt lat="-35.85093" lon="147.50999"><ele>671</ele></trkpt>
<trkpt lat="-35.8507" lon="147.50939"><ele>669</ele></trkpt>
<trkpt lat="-35.85061" lon="147.50879"><ele>668</ele></trkpt>
<trkpt lat="-35.85029" lon="147.50768"><ele>667</ele></trkpt>
<trkpt lat="-35.84968" lon="147.50654"><ele>670</ele></trkpt>
<trkpt lat="-35.84884" lon="147.50541"><ele>669</ele></trkpt>
<trkpt lat="-35.84875" lon="147.50519"><ele>669</ele></trkpt>
<trkpt lat="-35.84876" lon="147.5048"><ele>668</ele></trkpt>
<trkpt lat="-35.84912" lon="147.50318"><ele>655</ele></trkpt>
<trkpt lat="-35.84915" lon="147.50224"><ele>646</ele></trkpt>
<trkpt lat="-35.84951" lon="147.50171"><ele>644</ele></trkpt>
<trkpt lat="-35.84977" lon="147.50144"><ele>647</ele></trkpt>
<trkpt lat="-35.84999" lon="147.50136"><ele>648</ele></trkpt>
<trkpt lat="-35.85026" lon="147.50136"><ele>650</ele></trkpt>
<trkpt lat="-35.85082" lon="147.50114"><ele>653</ele></trkpt>
<trkpt lat="-35.8515" lon="147.50104"><ele>653</ele></trkpt>
<trkpt lat="-35.85197" lon="147.50077"><ele>650</ele></trkpt>
<trkpt lat="-35.85206" lon="147.50051"><ele>648</ele></trkpt>
<trkpt lat="-35.85207" lon="147.49997"><ele>644</ele></trkpt>
<trkpt lat="-35.85241" lon="147.4991"><ele>641</ele></trkpt>
<trkpt lat="-35.8525" lon="147.49854"><ele>638</ele></trkpt>
<trkpt lat="-35.8527" lon="147.49826"><ele>636</ele></trkpt>
<trkpt lat="-35.85295" lon="147.49805"><ele>633</ele></trkpt>
<trkpt lat="-35.85339" lon="147.49783"><ele>628</ele></trkpt>
<trkpt lat="-35.85395" lon="147.49713"><ele>618</ele></trkpt>
<trkpt lat="-35.85451" lon="147.49581"><ele>605</ele></trkpt>
<trkpt lat="-35.855" lon="147.49517"><ele>594</ele></trkpt>
<trkpt lat="-35.85531" lon="147.49457"><ele>589</ele></trkpt>
<trkpt lat="-35.85556" lon="147.49372"><ele>583</ele></trkpt>
<trkpt lat="-35.85566" lon="147.49356"><ele>581</ele></trkpt>
<trkpt lat="-35.85606" lon="147.49322"><ele>578</ele></trkpt>
<trkpt lat="-35.85625" lon="147.49282"><ele>576</ele></trkpt>
<trkpt lat="-35.85633" lon="147.49279"><ele>576</ele></trkpt>
<trkpt lat="-35.85645" lon="147.49285"><ele>576</ele></trkpt>
<trkpt lat="-35.85654" lon="147.49282"><ele>576</ele></trkpt>
<trkpt lat="-35.85662" lon="147.49251"><ele>575</ele></trkpt>
<trkpt lat="-35.8568" lon="147.4923"><ele>575</ele></trkpt>
<trkpt lat="-35.857" lon="147.49174"><ele>571</ele></trkpt>
<trkpt lat="-35.85742" lon="147.49092"><ele>567</ele></trkpt>
<trkpt lat="-35.85786" lon="147.49049"><ele>565</ele></trkpt>
<trkpt lat="-35.85819" lon="147.49027"><ele>563</ele></trkpt>
<trkpt lat="-35.85837" lon="147.48991"><ele>560</ele></trkpt>
<trkpt lat="-35.85915" lon="147.48877"><ele>553</ele></trkpt>
<trkpt lat="-35.85975" lon="147.48801"><ele>553</ele></trkpt>
<trkpt lat="-35.86062" lon="147.4871"><ele>551</ele></trkpt>
<trkpt lat="-35.86089" lon="147.48664"><ele>548</ele></trkpt>
<trkpt lat="-35.86114" lon="147.48568"><ele>541</ele></trkpt>
<trkpt lat="-35.86118" lon="147.48507"><ele>538</ele></trkpt>
<trkpt lat="-35.8611" lon="147.4833"><ele>535</ele></trkpt>
<trkpt lat="-35.86111" lon="147.48205"><ele>530</ele></trkpt>
<trkpt lat="-35.86106" lon="147.48175"><ele>528</ele></trkpt>
<trkpt lat="-35.86082" lon="147.48167"><ele>526</ele></trkpt>
<trkpt lat="-35.86058" lon="147.48169"><ele>522</ele></trkpt>
<trkpt lat="-35.86053" lon="147.48126"><ele>517</ele></trkpt>
<trkpt lat="-35.86029" lon="147.48094"><ele>512</ele></trkpt>
<trkpt lat="-35.86015" lon="147.4808"><ele>510</ele></trkpt>
<trkpt lat="-35.85961" lon="147.48054"><ele>508</ele></trkpt>
<trkpt lat="-35.85886" lon="147.48002"><ele>506</ele></trkpt>
<trkpt lat="-35.85876" lon="147.47978"><ele>506</ele></trkpt>
<trkpt lat="-35.85873" lon="147.47868"><ele>506</ele></trkpt>
<trkpt lat="-35.85886" lon="147.47808"><ele>507</ele></trkpt>
<trkpt lat="-35.85918" lon="147.47765"><ele>507</ele></trkpt>
<trkpt lat="-35.85968" lon="147.47717"><ele>505</ele></trkpt>
<trkpt lat="-35.85994" lon="147.47684"><ele>504</ele></trkpt>
<trkpt lat="-35.86027" lon="147.47612"><ele>505</ele></trkpt>
<trkpt lat="-35.86052" lon="147.47578"><ele>506</ele></trkpt>
<trkpt lat="-35.86067" lon="147.4753"><ele>509</ele></trkpt>
</trkseg></trk>
</gpx>
