<?xml version="1.0" encoding="UTF-8"?>
<gpx xmlns="http://www.topografix.com/GPX/1/1" version="1.1" creator="Split from the Hume and Hovell Full Track Alignment GPX (NSW Crown Lands)">
<metadata><name>Hume and Hovell Track, Section 2 - Fitzpatrick Trackhead to Blowering Campsite</name></metadata>
<trk><name>Section 2 - Fitzpatrick Trackhead to Blowering Campsite</name><trkseg>
<trkpt lat="-35.13924" lon="148.67281"><ele>401</ele></trkpt>
<trkpt lat="-35.13923" lon="148.67236"><ele>405</ele></trkpt>
<trkpt lat="-35.13929" lon="148.67176"><ele>410</ele></trkpt>
<trkpt lat="-35.13919" lon="148.67149"><ele>412</ele></trkpt>
<trkpt lat="-35.13932" lon="148.67112"><ele>414</ele></trkpt>
<trkpt lat="-35.13927" lon="148.67081"><ele>416</ele></trkpt>
<trkpt lat="-35.13911" lon="148.67022"><ele>428</ele></trkpt>
<trkpt lat="-35.13904" lon="148.66957"><ele>443</ele></trkpt>
<trkpt lat="-35.13889" lon="148.66919"><ele>452</ele></trkpt>
<trkpt lat="-35.13876" lon="148.66888"><ele>455</ele></trkpt>
<trkpt lat="-35.13824" lon="148.66802"><ele>455</ele></trkpt>
<trkpt lat="-35.13796" lon="148.66738"><ele>448</ele></trkpt>
<trkpt lat="-35.13755" lon="148.66673"><ele>437</ele></trkpt>
<trkpt lat="-35.13746" lon="148.66678"><ele>436</ele></trkpt>
<trkpt lat="-35.137" lon="148.66665"><ele>437</ele></trkpt>
<trkpt lat="-35.13661" lon="148.66633"><ele>436</ele></trkpt>
<trkpt lat="-35.13534" lon="148.66565"><ele>433</ele></trkpt>
<trkpt lat="-35.13524" lon="148.66554"><ele>432</ele></trkpt>
<trkpt lat="-35.13504" lon="148.6652"><ele>431</ele></trkpt>
<trkpt lat="-35.13503" lon="148.66505"><ele>431</ele></trkpt>
<trkpt lat="-35.13481" lon="148.66426"><ele>444</ele></trkpt>
<trkpt lat="-35.13465" lon="148.66392"><ele>450</ele></trkpt>
<trkpt lat="-35.13427" lon="148.66327"><ele>454</ele></trkpt>
<trkpt lat="-35.13385" lon="148.6628"><ele>458</ele></trkpt>
<trkpt lat="-35.13358" lon="148.66226"><ele>456</ele></trkpt>
<trkpt lat="-35.13318" lon="148.66173"><ele>451</ele></trkpt>
<trkpt lat="-35.1328" lon="148.66098"><ele>451</ele></trkpt>
<trkpt lat="-35.13272" lon="148.6609"><ele>451</ele></trkpt>
<trkpt lat="-35.13266" lon="148.66066"><ele>450</ele></trkpt>
<trkpt lat="-35.13307" lon="148.66076"><ele>454</ele></trkpt>
<trkpt lat="-35.13334" lon="148.66057"><ele>456</ele></trkpt>
<trkpt lat="-35.13373" lon="148.66048"><ele>462</ele></trkpt>
<trkpt lat="-35.13437" lon="148.66044"><ele>470</ele></trkpt>
<trkpt lat="-35.13588" lon="148.65992"><ele>486</ele></trkpt>
<trkpt lat="-35.13595" lon="148.65998"><ele>488</ele></trkpt>
<trkpt lat="-35.1366" lon="148.65996"><ele>504</ele></trkpt>
<trkpt lat="-35.13669" lon="148.65976"><ele>506</ele></trkpt>
<trkpt lat="-35.13724" lon="148.65957"><ele>518</ele></trkpt>
<trkpt lat="-35.13734" lon="148.65949"><ele>522</ele></trkpt>
<trkpt lat="-35.13802" lon="148.65933"><ele>540</ele></trkpt>
<trkpt lat="-35.13826" lon="148.65922"><ele>548</ele></trkpt>
<trkpt lat="-35.13854" lon="148.65899"><ele>565</ele></trkpt>
<trkpt lat="-35.1383" lon="148.65898"><ele>558</ele></trkpt>
<trkpt lat="-35.13809" lon="148.65891"><ele>555</ele></trkpt>
<trkpt lat="-35.13778" lon="148.6587"><ele>553</ele></trkpt>
<trkpt lat="-35.13774" lon="148.6585"><ele>557</ele></trkpt>
<trkpt lat="-35.13787" lon="148.65792"><ele>572</ele></trkpt>
<trkpt lat="-35.13811" lon="148.65759"><ele>590</ele></trkpt>
<trkpt lat="-35.13816" lon="148.65716"><ele>598</ele></trkpt>
<trkpt lat="-35.13783" lon="148.65676"><ele>581</ele></trkpt>
<trkpt lat="-35.13777" lon="148.65649"><ele>581</ele></trkpt>
<trkpt lat="-35.13785" lon="148.65627"><ele>589</ele></trkpt>
<trkpt lat="-35.13782" lon="148.65602"><ele>590</ele></trkpt>
<trkpt lat="-35.13742" lon="148.6554"><ele>571</ele></trkpt>
<trkpt lat="-35.13737" lon="148.655"><ele>570</ele></trkpt>
<trkpt lat="-35.13739" lon="148.65486"><ele>569</ele></trkpt>
<trkpt lat="-35.13751" lon="148.65481"><ele>575</ele></trkpt>
<trkpt lat="-35.13759" lon="148.65471"><ele>577</ele></trkpt>
<trkpt lat="-35.13829" lon="148.65441"><ele>606</ele></trkpt>
<trkpt lat="-35.1385" lon="148.65428"><ele>611</ele></trkpt>
<trkpt lat="-35.13846" lon="148.65407"><ele>605</ele></trkpt>
<trkpt lat="-35.13814" lon="148.65358"><ele>584</ele></trkpt>
<trkpt lat="-35.13817" lon="148.65349"><ele>584</ele></trkpt>
<trkpt lat="-35.13863" lon="148.65321"><ele>586</ele></trkpt>
<trkpt lat="-35.13888" lon="148.65318"><ele>589</ele></trkpt>
<trkpt lat="-35.13925" lon="148.65327"><ele>601</ele></trkpt>
<trkpt lat="-35.13939" lon="148.65314"><ele>605</ele></trkpt>
<trkpt lat="-35.13929" lon="148.65271"><ele>588</ele></trkpt>
<trkpt lat="-35.13929" lon="148.65229"><ele>580</ele></trkpt>
<trkpt lat="-35.13936" lon="148.65215"><ele>583</ele></trkpt>
<trkpt lat="-35.13937" lon="148.65152"><ele>581</ele></trkpt>
<trkpt lat="-35.13968" lon="148.65132"><ele>599</ele></trkpt>
<trkpt lat="-35.13994" lon="148.65103"><ele>613</ele></trkpt>
<trkpt lat="-35.13967" lon="148.65073"><ele>611</ele></trkpt>
<trkpt lat="-35.13884" lon="148.65064"><ele>587</ele></trkpt>
<trkpt lat="-35.13886" lon="148.65044"><ele>589</ele></trkpt>
<trkpt lat="-35.13895" lon="148.65027"><ele>594</ele></trkpt>
<trkpt lat="-35.1395" lon="148.65002"><ele>622</ele></trkpt>
<trkpt lat="-35.13976" lon="148.64983"><ele>635</ele></trkpt>
<trkpt lat="-35.1402" lon="148.64983"><ele>655</ele></trkpt>
<trkpt lat="-35.14028" lon="148.64969"><ele>660</ele></trkpt>
<trkpt lat="-35.14044" lon="148.64908"><ele>672</ele></trkpt>
<trkpt lat="-35.14049" lon="148.64856"><ele>678</ele></trkpt>
<trkpt lat="-35.14028" lon="148.64845"><ele>675</ele></trkpt>
<trkpt lat="-35.14009" lon="148.64828"><ele>676</ele></trkpt>
<trkpt lat="-35.14001" lon="148.64807"><ele>678</ele></trkpt>
<trkpt lat="-35.14005" lon="148.64784"><ele>681</ele></trkpt>
<trkpt lat="-35.14037" lon="148.64758"><ele>689</ele></trkpt>
<trkpt lat="-35.14062" lon="148.64727"><ele>694</ele></trkpt>
<trkpt lat="-35.14133" lon="148.64687"><ele>711</ele></trkpt>
<trkpt lat="-35.1416" lon="148.64645"><ele>723</ele></trkpt>
<trkpt lat="-35.14184" lon="148.64571"><ele>734</ele></trkpt>
<trkpt lat="-35.14201" lon="148.64559"><ele>737</ele></trkpt>
<trkpt lat="-35.14298" lon="148.64547"><ele>759</ele></trkpt>
<trkpt lat="-35.14356" lon="148.64571"><ele>772</ele></trkpt>
<trkpt lat="-35.1438" lon="148.64568"><ele>775</ele></trkpt>
<trkpt lat="-35.14467" lon="148.64603"><ele>788</ele></trkpt>
<trkpt lat="-35.14489" lon="148.64598"><ele>792</ele></trkpt>
<trkpt lat="-35.14499" lon="148.64592"><ele>794</ele></trkpt>
<trkpt lat="-35.14514" lon="148.64568"><ele>797</ele></trkpt>
<trkpt lat="-35.14538" lon="148.64472"><ele>788</ele></trkpt>
<trkpt lat="-35.14556" lon="148.64444"><ele>785</ele></trkpt>
<trkpt lat="-35.14582" lon="148.64424"><ele>786</ele></trkpt>
<trkpt lat="-35.14602" lon="148.6442"><ele>786</ele></trkpt>
<trkpt lat="-35.14621" lon="148.64424"><ele>788</ele></trkpt>
<trkpt lat="-35.14672" lon="148.64421"><ele>789</ele></trkpt>
<trkpt lat="-35.14712" lon="148.64424"><ele>793</ele></trkpt>
<trkpt lat="-35.14778" lon="148.64461"><ele>803</ele></trkpt>
<trkpt lat="-35.14812" lon="148.64495"><ele>806</ele></trkpt>
<trkpt lat="-35.14853" lon="148.64527"><ele>814</ele></trkpt>
<trkpt lat="-35.14935" lon="148.64526"><ele>827</ele></trkpt>
<trkpt lat="-35.14993" lon="148.64538"><ele>836</ele></trkpt>
<trkpt lat="-35.15013" lon="148.64545"><ele>840</ele></trkpt>
<trkpt lat="-35.15058" lon="148.64582"><ele>845</ele></trkpt>
<trkpt lat="-35.15102" lon="148.64562"><ele>851</ele></trkpt>
<trkpt lat="-35.15176" lon="148.64509"><ele>858</ele></trkpt>
<trkpt lat="-35.15209" lon="148.64513"><ele>862</ele></trkpt>
<trkpt lat="-35.15279" lon="148.64581"><ele>871</ele></trkpt>
<trkpt lat="-35.15304" lon="148.64593"><ele>873</ele></trkpt>
<trkpt lat="-35.15319" lon="148.64609"><ele>874</ele></trkpt>
<trkpt lat="-35.15343" lon="148.64623"><ele>877</ele></trkpt>
<trkpt lat="-35.15572" lon="148.64618"><ele>898</ele></trkpt>
<trkpt lat="-35.15599" lon="148.64583"><ele>902</ele></trkpt>
<trkpt lat="-35.15632" lon="148.64567"><ele>908</ele></trkpt>
<trkpt lat="-35.15666" lon="148.64529"><ele>914</ele></trkpt>
<trkpt lat="-35.15744" lon="148.6446"><ele>928</ele></trkpt>
<trkpt lat="-35.15805" lon="148.64442"><ele>940</ele></trkpt>
<trkpt lat="-35.15835" lon="148.64394"><ele>948</ele></trkpt>
<trkpt lat="-35.15821" lon="148.64357"><ele>948</ele></trkpt>
<trkpt lat="-35.15823" lon="148.64349"><ele>948</ele></trkpt>
<trkpt lat="-35.15852" lon="148.64322"><ele>954</ele></trkpt>
<trkpt lat="-35.15897" lon="148.64318"><ele>960</ele></trkpt>
<trkpt lat="-35.15905" lon="148.64312"><ele>962</ele></trkpt>
<trkpt lat="-35.15917" lon="148.64312"><ele>963</ele></trkpt>
<trkpt lat="-35.1599" lon="148.6429"><ele>979</ele></trkpt>
<trkpt lat="-35.16028" lon="148.64267"><ele>988</ele></trkpt>
<trkpt lat="-35.16057" lon="148.64232"><ele>995</ele></trkpt>
<trkpt lat="-35.1606" lon="148.64218"><ele>995</ele></trkpt>
<trkpt lat="-35.16051" lon="148.64182"><ele>996</ele></trkpt>
<trkpt lat="-35.16006" lon="148.6412"><ele>999</ele></trkpt>
<trkpt lat="-35.15989" lon="148.64079"><ele>1001</ele></trkpt>
<trkpt lat="-35.15987" lon="148.64037"><ele>1007</ele></trkpt>
<trkpt lat="-35.16024" lon="148.63969"><ele>1022</ele></trkpt>
<trkpt lat="-35.1602" lon="148.63914"><ele>1032</ele></trkpt>
<trkpt lat="-35.16044" lon="148.63901"><ele>1039</ele></trkpt>
<trkpt lat="-35.16084" lon="148.63898"><ele>1046</ele></trkpt>
<trkpt lat="-35.16114" lon="148.6387"><ele>1055</ele></trkpt>
<trkpt lat="-35.16127" lon="148.63847"><ele>1062</ele></trkpt>
<trkpt lat="-35.16221" lon="148.63804"><ele>1070</ele></trkpt>
<trkpt lat="-35.16246" lon="148.6377"><ele>1072</ele></trkpt>
<trkpt lat="-35.16223" lon="148.63723"><ele>1084</ele></trkpt>
<trkpt lat="-35.16169" lon="148.63689"><ele>1107</ele></trkpt>
<trkpt lat="-35.16146" lon="148.63662"><ele>1113</ele></trkpt>
<trkpt lat="-35.16124" lon="148.63616"><ele>1116</ele></trkpt>
<trkpt lat="-35.16119" lon="148.63584"><ele>1118</ele></trkpt>
<trkpt lat="-35.16137" lon="148.63465"><ele>1102</ele></trkpt>
<trkpt lat="-35.16145" lon="148.63435"><ele>1097</ele></trkpt>
<trkpt lat="-35.16158" lon="148.6342"><ele>1096</ele></trkpt>
<trkpt lat="-35.16172" lon="148.63356"><ele>1081</ele></trkpt>
<trkpt lat="-35.1618" lon="148.63343"><ele>1075</ele></trkpt>
<trkpt lat="-35.16175" lon="148.63307"><ele>1069</ele></trkpt>
<trkpt lat="-35.16184" lon="148.63259"><ele>1057</ele></trkpt>
<trkpt lat="-35.162" lon="148.63229"><ele>1049</ele></trkpt>
<trkpt lat="-35.16215" lon="148.63219"><ele>1045</ele></trkpt>
<trkpt lat="-35.16223" lon="148.6322"><ele>1044</ele></trkpt>
<trkpt lat="-35.16255" lon="148.63241"><ele>1040</ele></trkpt>
<trkpt lat="-35.16292" lon="148.6331"><ele>1032</ele></trkpt>
<trkpt lat="-35.1631" lon="148.63327"><ele>1026</ele></trkpt>
<trkpt lat="-35.16354" lon="148.63356"><ele>1013</ele></trkpt>
<trkpt lat="-35.16361" lon="148.63351"><ele>1009</ele></trkpt>
<trkpt lat="-35.16369" lon="148.63304"><ele>1001</ele></trkpt>
<trkpt lat="-35.1641" lon="148.63322"><ele>987</ele></trkpt>
<trkpt lat="-35.1644" lon="148.63356"><ele>981</ele></trkpt>
<trkpt lat="-35.16459" lon="148.63369"><ele>976</ele></trkpt>
<trkpt lat="-35.16479" lon="148.63343"><ele>967</ele></trkpt>
<trkpt lat="-35.16506" lon="148.63347"><ele>958</ele></trkpt>
<trkpt lat="-35.16515" lon="148.63334"><ele>955</ele></trkpt>
<trkpt lat="-35.16531" lon="148.63324"><ele>950</ele></trkpt>
<trkpt lat="-35.16555" lon="148.63342"><ele>944</ele></trkpt>
<trkpt lat="-35.16578" lon="148.63335"><ele>937</ele></trkpt>
<trkpt lat="-35.16585" lon="148.63325"><ele>935</ele></trkpt>
<trkpt lat="-35.16611" lon="148.63313"><ele>932</ele></trkpt>
<trkpt lat="-35.16612" lon="148.63297"><ele>933</ele></trkpt>
<trkpt lat="-35.16718" lon="148.63291"><ele>920</ele></trkpt>
<trkpt lat="-35.1677" lon="148.63268"><ele>916</ele></trkpt>
<trkpt lat="-35.16852" lon="148.63176"><ele>916</ele></trkpt>
<trkpt lat="-35.16859" lon="148.63174"><ele>916</ele></trkpt>
<trkpt lat="-35.16908" lon="148.6327"><ele>915</ele></trkpt>
<trkpt lat="-35.16939" lon="148.63311"><ele>914</ele></trkpt>
<trkpt lat="-35.16972" lon="148.63325"><ele>915</ele></trkpt>
<trkpt lat="-35.17011" lon="148.63321"><ele>916</ele></trkpt>
<trkpt lat="-35.17052" lon="148.63311"><ele>913</ele></trkpt>
<trkpt lat="-35.17062" lon="148.63302"><ele>912</ele></trkpt>
<trkpt lat="-35.1707" lon="148.63279"><ele>911</ele></trkpt>
<trkpt lat="-35.17062" lon="148.63194"><ele>905</ele></trkpt>
<trkpt lat="-35.17062" lon="148.63127"><ele>899</ele></trkpt>
<trkpt lat="-35.1708" lon="148.63026"><ele>890</ele></trkpt>
<trkpt lat="-35.17211" lon="148.6287"><ele>901</ele></trkpt>
<trkpt lat="-35.17236" lon="148.6282"><ele>906</ele></trkpt>
<trkpt lat="-35.17245" lon="148.6276"><ele>912</ele></trkpt>
<trkpt lat="-35.17248" lon="148.62677"><ele>918</ele></trkpt>
<trkpt lat="-35.17247" lon="148.62516"><ele>920</ele></trkpt>
<trkpt lat="-35.17241" lon="148.62436"><ele>923</ele></trkpt>
<trkpt lat="-35.17251" lon="148.62413"><ele>927</ele></trkpt>
<trkpt lat="-35.17247" lon="148.62128"><ele>922</ele></trkpt>
<trkpt lat="-35.17303" lon="148.61717"><ele>901</ele></trkpt>
<trkpt lat="-35.17291" lon="148.61684"><ele>897</ele></trkpt>
<trkpt lat="-35.17282" lon="148.61673"><ele>895</ele></trkpt>
<trkpt lat="-35.17268" lon="148.61666"><ele>893</ele></trkpt>
<trkpt lat="-35.17258" lon="148.6165"><ele>890</ele></trkpt>
<trkpt lat="-35.17252" lon="148.61625"><ele>885</ele></trkpt>
<trkpt lat="-35.17218" lon="148.61562"><ele>870</ele></trkpt>
<trkpt lat="-35.17169" lon="148.61534"><ele>860</ele></trkpt>
<trkpt lat="-35.17154" lon="148.61521"><ele>856</ele></trkpt>
<trkpt lat="-35.17152" lon="148.61484"><ele>849</ele></trkpt>
<trkpt lat="-35.17145" lon="148.61472"><ele>845</ele></trkpt>
<trkpt lat="-35.17106" lon="148.6147"><ele>840</ele></trkpt>
<trkpt lat="-35.1709" lon="148.61463"><ele>837</ele></trkpt>
<trkpt lat="-35.17085" lon="148.61446"><ele>833</ele></trkpt>
<trkpt lat="-35.17092" lon="148.61406"><ele>828</ele></trkpt>
<trkpt lat="-35.1709" lon="148.61377"><ele>821</ele></trkpt>
<trkpt lat="-35.17068" lon="148.61289"><ele>808</ele></trkpt>
<trkpt lat="-35.17089" lon="148.61228"><ele>801</ele></trkpt>
<trkpt lat="-35.17073" lon="148.61174"><ele>797</ele></trkpt>
<trkpt lat="-35.17073" lon="148.61143"><ele>795</ele></trkpt>
<trkpt lat="-35.17059" lon="148.61118"><ele>794</ele></trkpt>
<trkpt lat="-35.17032" lon="148.61019"><ele>783</ele></trkpt>
<trkpt lat="-35.17034" lon="148.61003"><ele>780</ele></trkpt>
<trkpt lat="-35.17046" lon="148.60986"><ele>779</ele></trkpt>
<trkpt lat="-35.17076" lon="148.60975"><ele>779</ele></trkpt>
<trkpt lat="-35.17083" lon="148.60883"><ele>773</ele></trkpt>
<trkpt lat="-35.17082" lon="148.60791"><ele>768</ele></trkpt>
<trkpt lat="-35.17073" lon="148.6077"><ele>767</ele></trkpt>
<trkpt lat="-35.1707" lon="148.60733"><ele>764</ele></trkpt>
<trkpt lat="-35.17094" lon="148.60659"><ele>761</ele></trkpt>
<trkpt lat="-35.17085" lon="148.6052"><ele>773</ele></trkpt>
<trkpt lat="-35.17095" lon="148.60417"><ele>769</ele></trkpt>
<trkpt lat="-35.17091" lon="148.60399"><ele>769</ele></trkpt>
<trkpt lat="-35.17093" lon="148.6037"><ele>767</ele></trkpt>
<trkpt lat="-35.17083" lon="148.60319"><ele>765</ele></trkpt>
<trkpt lat="-35.17065" lon="148.60277"><ele>768</ele></trkpt>
<trkpt lat="-35.17073" lon="148.60246"><ele>768</ele></trkpt>
<trkpt lat="-35.17039" lon="148.602"><ele>770</ele></trkpt>
<trkpt lat="-35.1704" lon="148.60171"><ele>769</ele></trkpt>
<trkpt lat="-35.17029" lon="148.6013"><ele>771</ele></trkpt>
<trkpt lat="-35.17015" lon="148.60116"><ele>771</ele></trkpt>
<trkpt lat="-35.16984" lon="148.60111"><ele>772</ele></trkpt>
<trkpt lat="-35.16942" lon="148.60089"><ele>773</ele></trkpt>
<trkpt lat="-35.16938" lon="148.60071"><ele>775</ele></trkpt>
<trkpt lat="-35.16911" lon="148.60033"><ele>782</ele></trkpt>
<trkpt lat="-35.16971" lon="148.59902"><ele>804</ele></trkpt>
<trkpt lat="-35.17003" lon="148.59867"><ele>808</ele></trkpt>
<trkpt lat="-35.1701" lon="148.59853"><ele>810</ele></trkpt>
<trkpt lat="-35.17469" lon="148.5973"><ele>857</ele></trkpt>
<trkpt lat="-35.18238" lon="148.5957"><ele>864</ele></trkpt>
<trkpt lat="-35.18256" lon="148.5956"><ele>864</ele></trkpt>
<trkpt lat="-35.18331" lon="148.59541"><ele>864</ele></trkpt>
<trkpt lat="-35.18382" lon="148.59505"><ele>873</ele></trkpt>
<trkpt lat="-35.18385" lon="148.5952"><ele>872</ele></trkpt>
<trkpt lat="-35.184" lon="148.59531"><ele>873</ele></trkpt>
<trkpt lat="-35.1859" lon="148.59487"><ele>909</ele></trkpt>
<trkpt lat="-35.1875" lon="148.59442"><ele>912</ele></trkpt>
<trkpt lat="-35.18829" lon="148.59431"><ele>893</ele></trkpt>
<trkpt lat="-35.18952" lon="148.59372"><ele>873</ele></trkpt>
<trkpt lat="-35.18965" lon="148.59361"><ele>871</ele></trkpt>
<trkpt lat="-35.19023" lon="148.59359"><ele>865</ele></trkpt>
<trkpt lat="-35.1903" lon="148.59393"><ele>863</ele></trkpt>
<trkpt lat="-35.19058" lon="148.59415"><ele>860</ele></trkpt>
<trkpt lat="-35.19079" lon="148.59427"><ele>858</ele></trkpt>
<trkpt lat="-35.19131" lon="148.59439"><ele>855</ele></trkpt>
<trkpt lat="-35.19147" lon="148.59451"><ele>855</ele></trkpt>
<trkpt lat="-35.19172" lon="148.59456"><ele>853</ele></trkpt>
<trkpt lat="-35.19206" lon="148.59477"><ele>851</ele></trkpt>
<trkpt lat="-35.19217" lon="148.59478"><ele>850</ele></trkpt>
<trkpt lat="-35.19229" lon="148.59496"><ele>850</ele></trkpt>
<trkpt lat="-35.19243" lon="148.59508"><ele>848</ele></trkpt>
<trkpt lat="-35.19282" lon="148.59531"><ele>846</ele></trkpt>
<trkpt lat="-35.19293" lon="148.59556"><ele>844</ele></trkpt>
<trkpt lat="-35.19296" lon="148.5958"><ele>843</ele></trkpt>
<trkpt lat="-35.1925" lon="148.5967"><ele>827</ele></trkpt>
<trkpt lat="-35.19203" lon="148.59738"><ele>822</ele></trkpt>
<trkpt lat="-35.19186" lon="148.59777"><ele>817</ele></trkpt>
<trkpt lat="-35.19181" lon="148.59795"><ele>815</ele></trkpt>
<trkpt lat="-35.19183" lon="148.59821"><ele>813</ele></trkpt>
<trkpt lat="-35.19167" lon="148.59887"><ele>806</ele></trkpt>
<trkpt lat="-35.19212" lon="148.59928"><ele>800</ele></trkpt>
<trkpt lat="-35.19233" lon="148.59938"><ele>796</ele></trkpt>
<trkpt lat="-35.19281" lon="148.59999"><ele>777</ele></trkpt>
<trkpt lat="-35.19299" lon="148.6001"><ele>775</ele></trkpt>
<trkpt lat="-35.19309" lon="148.60026"><ele>772</ele></trkpt>
<trkpt lat="-35.19332" lon="148.60027"><ele>767</ele></trkpt>
<trkpt lat="-35.19344" lon="148.60054"><ele>767</ele></trkpt>
<trkpt lat="-35.1934" lon="148.60082"><ele>761</ele></trkpt>
<trkpt lat="-35.19327" lon="148.60095"><ele>759</ele></trkpt>
<trkpt lat="-35.19326" lon="148.6011"><ele>759</ele></trkpt>
<trkpt lat="-35.19317" lon="148.60123"><ele>760</ele></trkpt>
<trkpt lat="-35.19311" lon="148.60174"><ele>759</ele></trkpt>
<trkpt lat="-35.19293" lon="148.60189"><ele>760</ele></trkpt>
<trkpt lat="-35.19271" lon="148.60242"><ele>750</ele></trkpt>
<trkpt lat="-35.19273" lon="148.60273"><ele>747</ele></trkpt>
<trkpt lat="-35.19247" lon="148.60353"><ele>733</ele></trkpt>
<trkpt lat="-35.19232" lon="148.60444"><ele>731</ele></trkpt>
<trkpt lat="-35.19213" lon="148.60497"><ele>732</ele></trkpt>
<trkpt lat="-35.19227" lon="148.60593"><ele>726</ele></trkpt>
<trkpt lat="-35.19232" lon="148.60775"><ele>701</ele></trkpt>
<trkpt lat="-35.19237" lon="148.60791"><ele>698</ele></trkpt>
<trkpt lat="-35.19231" lon="148.60816"><ele>695</ele></trkpt>
<trkpt lat="-35.19274" lon="148.6089"><ele>694</ele></trkpt>
<trkpt lat="-35.19286" lon="148.60902"><ele>696</ele></trkpt>
<trkpt lat="-35.19297" lon="148.60928"><ele>694</ele></trkpt>
<trkpt lat="-35.19352" lon="148.60983"><ele>686</ele></trkpt>
<trkpt lat="-35.19359" lon="148.60998"><ele>683</ele></trkpt>
<trkpt lat="-35.19382" lon="148.61019"><ele>680</ele></trkpt>
<trkpt lat="-35.19447" lon="148.61011"><ele>681</ele></trkpt>
<trkpt lat="-35.19486" lon="148.60977"><ele>686</ele></trkpt>
<trkpt lat="-35.19501" lon="148.60973"><ele>685</ele></trkpt>
<trkpt lat="-35.19517" lon="148.60961"><ele>687</ele></trkpt>
<trkpt lat="-35.19546" lon="148.60954"><ele>684</ele></trkpt>
<trkpt lat="-35.19571" lon="148.60932"><ele>684</ele></trkpt>
<trkpt lat="-35.19608" lon="148.60914"><ele>682</ele></trkpt>
<trkpt lat="-35.19627" lon="148.60885"><ele>686</ele></trkpt>
<trkpt lat="-35.19658" lon="148.60855"><ele>686</ele></trkpt>
<trkpt lat="-35.19796" lon="148.6067"><ele>702</ele></trkpt>
<trkpt lat="-35.19818" lon="148.6065"><ele>702</ele></trkpt>
<trkpt lat="-35.19827" lon="148.60625"><ele>704</ele></trkpt>
<trkpt lat="-35.19829" lon="148.60601"><ele>707</ele></trkpt>
<trkpt lat="-35.19823" lon="148.60593"><ele>709</ele></trkpt>
<trkpt lat="-35.1982" lon="148.60535"><ele>722</ele></trkpt>
<trkpt lat="-35.19824" lon="148.60515"><ele>725</ele></trkpt>
<trkpt lat="-35.19834" lon="148.60498"><ele>726</ele></trkpt>
<trkpt lat="-35.19861" lon="148.60478"><ele>734</ele></trkpt>
<trkpt lat="-35.19878" lon="148.60452"><ele>738</ele></trkpt>
<trkpt lat="-35.19888" lon="148.60421"><ele>742</ele></trkpt>
<trkpt lat="-35.19997" lon="148.60335"><ele>754</ele></trkpt>
<trkpt lat="-35.20081" lon="148.60304"><ele>765</ele></trkpt>
<trkpt lat="-35.20103" lon="148.60277"><ele>770</ele></trkpt>
<trkpt lat="-35.20186" lon="148.60211"><ele>781</ele></trkpt>
<trkpt lat="-35.20254" lon="148.60189"><ele>796</ele></trkpt>
<trkpt lat="-35.20324" lon="148.60126"><ele>816</ele></trkpt>
<trkpt lat="-35.20338" lon="148.60118"><ele>819</ele></trkpt>
<trkpt lat="-35.20357" lon="148.60118"><ele>824</ele></trkpt>
<trkpt lat="-35.2037" lon="148.60103"><ele>826</ele></trkpt>
<trkpt lat="-35.20398" lon="148.60084"><ele>831</ele></trkpt>
<trkpt lat="-35.20495" lon="148.60038"><ele>859</ele></trkpt>
<trkpt lat="-35.20552" lon="148.59973"><ele>868</ele></trkpt>
<trkpt lat="-35.20617" lon="148.59934"><ele>874</ele></trkpt>
<trkpt lat="-35.2065" lon="148.59866"><ele>878</ele></trkpt>
<trkpt lat="-35.20654" lon="148.59846"><ele>879</ele></trkpt>
<trkpt lat="-35.20663" lon="148.59833"><ele>880</ele></trkpt>
<trkpt lat="-35.20696" lon="148.59643"><ele>888</ele></trkpt>
<trkpt lat="-35.20698" lon="148.59606"><ele>890</ele></trkpt>
<trkpt lat="-35.20708" lon="148.59577"><ele>891</ele></trkpt>
<trkpt lat="-35.20759" lon="148.59555"><ele>891</ele></trkpt>
<trkpt lat="-35.2082" lon="148.59515"><ele>888</ele></trkpt>
<trkpt lat="-35.20852" lon="148.595"><ele>889</ele></trkpt>
<trkpt lat="-35.20889" lon="148.59469"><ele>892</ele></trkpt>
<trkpt lat="-35.20922" lon="148.59462"><ele>894</ele></trkpt>
<trkpt lat="-35.21039" lon="148.59414"><ele>895</ele></trkpt>
<trkpt lat="-35.21147" lon="148.5938"><ele>892</ele></trkpt>
<trkpt lat="-35.21185" lon="148.59362"><ele>892</ele></trkpt>
<trkpt lat="-35.21217" lon="148.59357"><ele>891</ele></trkpt>
<trkpt lat="-35.21246" lon="148.59319"><ele>891</ele></trkpt>
<trkpt lat="-35.2128" lon="148.59286"><ele>889</ele></trkpt>
<trkpt lat="-35.21295" lon="148.59249"><ele>888</ele></trkpt>
<trkpt lat="-35.21302" lon="148.59211"><ele>890</ele></trkpt>
<trkpt lat="-35.21319" lon="148.59183"><ele>889</ele></trkpt>
<trkpt lat="-35.21344" lon="148.59087"><ele>892</ele></trkpt>
<trkpt lat="-35.21356" lon="148.59059"><ele>893</ele></trkpt>
<trkpt lat="-35.21405" lon="148.59002"><ele>891</ele></trkpt>
<trkpt lat="-35.21415" lon="148.58978"><ele>893</ele></trkpt>
<trkpt lat="-35.21469" lon="148.58893"><ele>894</ele></trkpt>
<trkpt lat="-35.21483" lon="148.58882"><ele>894</ele></trkpt>
<trkpt lat="-35.21514" lon="148.58872"><ele>891</ele></trkpt>
<trkpt lat="-35.21536" lon="148.58853"><ele>890</ele></trkpt>
<trkpt lat="-35.21549" lon="148.58834"><ele>890</ele></trkpt>
<trkpt lat="-35.21568" lon="148.58795"><ele>884</ele></trkpt>
<trkpt lat="-35.21567" lon="148.58763"><ele>882</ele></trkpt>
<trkpt lat="-35.21548" lon="148.58753"><ele>886</ele></trkpt>
<trkpt lat="-35.21523" lon="148.58692"><ele>879</ele></trkpt>
<trkpt lat="-35.21553" lon="148.5869"><ele>872</ele></trkpt>
<trkpt lat="-35.21572" lon="148.58682"><ele>866</ele></trkpt>
<trkpt lat="-35.21612" lon="148.58677"><ele>855</ele></trkpt>
<trkpt lat="-35.21608" lon="148.58637"><ele>847</ele></trkpt>
<trkpt lat="-35.21631" lon="148.58625"><ele>838</ele></trkpt>
<trkpt lat="-35.21657" lon="148.5862"><ele>830</ele></trkpt>
<trkpt lat="-35.21675" lon="148.58627"><ele>827</ele></trkpt>
<trkpt lat="-35.21678" lon="148.58634"><ele>828</ele></trkpt>
<trkpt lat="-35.21713" lon="148.58645"><ele>821</ele></trkpt>
<trkpt lat="-35.21718" lon="148.58629"><ele>817</ele></trkpt>
<trkpt lat="-35.21736" lon="148.58623"><ele>811</ele></trkpt>
<trkpt lat="-35.21747" lon="148.58625"><ele>808</ele></trkpt>
<trkpt lat="-35.21769" lon="148.5864"><ele>806</ele></trkpt>
<trkpt lat="-35.21786" lon="148.58638"><ele>802</ele></trkpt>
<trkpt lat="-35.21806" lon="148.58629"><ele>797</ele></trkpt>
<trkpt lat="-35.21839" lon="148.58629"><ele>790</ele></trkpt>
<trkpt lat="-35.21857" lon="148.58638"><ele>789</ele></trkpt>
<trkpt lat="-35.2189" lon="148.58665"><ele>786</ele></trkpt>
<trkpt lat="-35.21982" lon="148.58647"><ele>771</ele></trkpt>
<trkpt lat="-35.21993" lon="148.58636"><ele>769</ele></trkpt>
<trkpt lat="-35.21986" lon="148.58616"><ele>771</ele></trkpt>
<trkpt lat="-35.21929" lon="148.58566"><ele>776</ele></trkpt>
<trkpt lat="-35.21943" lon="148.5856"><ele>776</ele></trkpt>
<trkpt lat="-35.21987" lon="148.58572"><ele>774</ele></trkpt>
<trkpt lat="-35.22073" lon="148.58546"><ele>778</ele></trkpt>
<trkpt lat="-35.22077" lon="148.58557"><ele>776</ele></trkpt>
<trkpt lat="-35.22101" lon="148.58587"><ele>770</ele></trkpt>
<trkpt lat="-35.22127" lon="148.58613"><ele>768</ele></trkpt>
<trkpt lat="-35.22135" lon="148.58606"><ele>769</ele></trkpt>
<trkpt lat="-35.22285" lon="148.58594"><ele>761</ele></trkpt>
<trkpt lat="-35.2236" lon="148.58576"><ele>755</ele></trkpt>
<trkpt lat="-35.2246" lon="148.58563"><ele>742</ele></trkpt>
<trkpt lat="-35.22482" lon="148.58546"><ele>740</ele></trkpt>
<trkpt lat="-35.22529" lon="148.5848"><ele>741</ele></trkpt>
<trkpt lat="-35.22554" lon="148.58454"><ele>740</ele></trkpt>
<trkpt lat="-35.22616" lon="148.58431"><ele>735</ele></trkpt>
<trkpt lat="-35.22679" lon="148.58396"><ele>736</ele></trkpt>
<trkpt lat="-35.22692" lon="148.5835"><ele>742</ele></trkpt>
<trkpt lat="-35.22708" lon="148.5832"><ele>749</ele></trkpt>
<trkpt lat="-35.22723" lon="148.58323"><ele>749</ele></trkpt>
<trkpt lat="-35.2281" lon="148.58436"><ele>731</ele></trkpt>
<trkpt lat="-35.22838" lon="148.58465"><ele>731</ele></trkpt>
<trkpt lat="-35.22853" lon="148.58472"><ele>731</ele></trkpt>
<trkpt lat="-35.2287" lon="148.58473"><ele>732</ele></trkpt>
<trkpt lat="-35.22906" lon="148.58448"><ele>736</ele></trkpt>
<trkpt lat="-35.22994" lon="148.58314"><ele>741</ele></trkpt>
<trkpt lat="-35.23113" lon="148.58237"><ele>739</ele></trkpt>
<trkpt lat="-35.2317" lon="148.58186"><ele>737</ele></trkpt>
<trkpt lat="-35.23317" lon="148.58026"><ele>742</ele></trkpt>
<trkpt lat="-35.23342" lon="148.57989"><ele>741</ele></trkpt>
<trkpt lat="-35.23374" lon="148.57895"><ele>752</ele></trkpt>
<trkpt lat="-35.23432" lon="148.57839"><ele>753</ele></trkpt>
<trkpt lat="-35.23443" lon="148.57838"><ele>752</ele></trkpt>
<trkpt lat="-35.23453" lon="148.57843"><ele>751</ele></trkpt>
<trkpt lat="-35.23473" lon="148.57877"><ele>746</ele></trkpt>
<trkpt lat="-35.23492" lon="148.57894"><ele>744</ele></trkpt>
<trkpt lat="-35.23508" lon="148.57892"><ele>745</ele></trkpt>
<trkpt lat="-35.23532" lon="148.57874"><ele>746</ele></trkpt>
<trkpt lat="-35.23568" lon="148.5786"><ele>747</ele></trkpt>
<trkpt lat="-35.23615" lon="148.5786"><ele>749</ele></trkpt>
<trkpt lat="-35.23663" lon="148.57866"><ele>752</ele></trkpt>
<trkpt lat="-35.23814" lon="148.57922"><ele>757</ele></trkpt>
<trkpt lat="-35.23837" lon="148.57923"><ele>760</ele></trkpt>
<trkpt lat="-35.23886" lon="148.57916"><ele>765</ele></trkpt>
<trkpt lat="-35.23966" lon="148.57873"><ele>777</ele></trkpt>
<trkpt lat="-35.24124" lon="148.57765"><ele>811</ele></trkpt>
<trkpt lat="-35.24171" lon="148.57724"><ele>819</ele></trkpt>
<trkpt lat="-35.24248" lon="148.57631"><ele>816</ele></trkpt>
<trkpt lat="-35.24269" lon="148.57614"><ele>817</ele></trkpt>
<trkpt lat="-35.24324" lon="148.57593"><ele>814</ele></trkpt>
<trkpt lat="-35.24359" lon="148.57587"><ele>811</ele></trkpt>
<trkpt lat="-35.24377" lon="148.57588"><ele>809</ele></trkpt>
<trkpt lat="-35.24462" lon="148.57609"><ele>797</ele></trkpt>
<trkpt lat="-35.24499" lon="148.57606"><ele>796</ele></trkpt>
<trkpt lat="-35.24517" lon="148.576"><ele>796</ele></trkpt>
<trkpt lat="-35.24558" lon="148.5757"><ele>795</ele></trkpt>
<trkpt lat="-35.24576" lon="148.57566"><ele>793</ele></trkpt>
<trkpt lat="-35.24605" lon="148.57549"><ele>796</ele></trkpt>
<trkpt lat="-35.24637" lon="148.57511"><ele>797</ele></trkpt>
<trkpt lat="-35.2465" lon="148.57485"><ele>796</ele></trkpt>
<trkpt lat="-35.24657" lon="148.57458"><ele>797</ele></trkpt>
<trkpt lat="-35.2467" lon="148.57262"><ele>813</ele></trkpt>
<trkpt lat="-35.24669" lon="148.57068"><ele>813</ele></trkpt>
<trkpt lat="-35.24672" lon="148.57019"><ele>815</ele></trkpt>
<trkpt lat="-35.2468" lon="148.56975"><ele>818</ele></trkpt>
<trkpt lat="-35.24693" lon="148.5694"><ele>821</ele></trkpt>
<trkpt lat="-35.24751" lon="148.56864"><ele>826</ele></trkpt>
<trkpt lat="-35.24779" lon="148.56836"><ele>828</ele></trkpt>
<trkpt lat="-35.24823" lon="148.56811"><ele>827</ele></trkpt>
<trkpt lat="-35.24924" lon="148.56784"><ele>823</ele></trkpt>
<trkpt lat="-35.25055" lon="148.5674"><ele>817</ele></trkpt>
<trkpt lat="-35.25172" lon="148.56676"><ele>812</ele></trkpt>
<trkpt lat="-35.252" lon="148.56645"><ele>814</ele></trkpt>
<trkpt lat="-35.25234" lon="148.56583"><ele>817</ele></trkpt>
<trkpt lat="-35.25249" lon="148.56565"><ele>819</ele></trkpt>
<trkpt lat="-35.25303" lon="148.56528"><ele>821</ele></trkpt>
<trkpt lat="-35.25332" lon="148.56544"><ele>812</ele></trkpt>
<trkpt lat="-35.25356" lon="148.56549"><ele>811</ele></trkpt>
<trkpt lat="-35.25396" lon="148.56521"><ele>810</ele></trkpt>
<trkpt lat="-35.25415" lon="148.56487"><ele>810</ele></trkpt>
<trkpt lat="-35.25439" lon="148.56467"><ele>816</ele></trkpt>
<trkpt lat="-35.25454" lon="148.56448"><ele>818</ele></trkpt>
<trkpt lat="-35.2548" lon="148.56437"><ele>816</ele></trkpt>
<trkpt lat="-35.25517" lon="148.56373"><ele>818</ele></trkpt>
<trkpt lat="-35.25555" lon="148.56332"><ele>816</ele></trkpt>
<trkpt lat="-35.25561" lon="148.56302"><ele>819</ele></trkpt>
<trkpt lat="-35.25591" lon="148.56298"><ele>817</ele></trkpt>
<trkpt lat="-35.25621" lon="148.56267"><ele>821</ele></trkpt>
<trkpt lat="-35.25667" lon="148.56267"><ele>821</ele></trkpt>
<trkpt lat="-35.25694" lon="148.5625"><ele>820</ele></trkpt>
<trkpt lat="-35.25718" lon="148.56247"><ele>819</ele></trkpt>
<trkpt lat="-35.25794" lon="148.56196"><ele>828</ele></trkpt>
<trkpt lat="-35.25861" lon="148.56172"><ele>824</ele></trkpt>
<trkpt lat="-35.259" lon="148.5617"><ele>820</ele></trkpt>
<trkpt lat="-35.25917" lon="148.56161"><ele>818</ele></trkpt>
<trkpt lat="-35.25931" lon="148.56145"><ele>820</ele></trkpt>
<trkpt lat="-35.25936" lon="148.56124"><ele>822</ele></trkpt>
<trkpt lat="-35.25928" lon="148.56103"><ele>824</ele></trkpt>
<trkpt lat="-35.25923" lon="148.56026"><ele>833</ele></trkpt>
<trkpt lat="-35.25931" lon="148.55964"><ele>846</ele></trkpt>
<trkpt lat="-35.25943" lon="148.55929"><ele>852</ele></trkpt>
<trkpt lat="-35.25952" lon="148.55921"><ele>852</ele></trkpt>
<trkpt lat="-35.25994" lon="148.55905"><ele>847</ele></trkpt>
<trkpt lat="-35.26049" lon="148.55919"><ele>837</ele></trkpt>
<trkpt lat="-35.26067" lon="148.55909"><ele>839</ele></trkpt>
<trkpt lat="-35.26088" lon="148.5591"><ele>837</ele></trkpt>
<trkpt lat="-35.26104" lon="148.55881"><ele>846</ele></trkpt>
<trkpt lat="-35.262" lon="148.5579"><ele>853</ele></trkpt>
<trkpt lat="-35.26204" lon="148.55777"><ele>854</ele></trkpt>
<trkpt lat="-35.26199" lon="148.55754"><ele>854</ele></trkpt>
<trkpt lat="-35.26173" lon="148.55721"><ele>854</ele></trkpt>
<trkpt lat="-35.26149" lon="148.55666"><ele>861</ele></trkpt>
<trkpt lat="-35.26161" lon="148.55637"><ele>857</ele></trkpt>
<trkpt lat="-35.26201" lon="148.55575"><ele>859</ele></trkpt>
<trkpt lat="-35.26218" lon="148.55558"><ele>861</ele></trkpt>
<trkpt lat="-35.26247" lon="148.55546"><ele>862</ele></trkpt>
<trkpt lat="-35.26265" lon="148.55547"><ele>864</ele></trkpt>
<trkpt lat="-35.26284" lon="148.55536"><ele>866</ele></trkpt>
<trkpt lat="-35.26352" lon="148.55435"><ele>875</ele></trkpt>
<trkpt lat="-35.26362" lon="148.55408"><ele>878</ele></trkpt>
<trkpt lat="-35.26372" lon="148.55333"><ele>886</ele></trkpt>
<trkpt lat="-35.26391" lon="148.55286"><ele>889</ele></trkpt>
<trkpt lat="-35.264" lon="148.55241"><ele>890</ele></trkpt>
<trkpt lat="-35.26412" lon="148.55221"><ele>891</ele></trkpt>
<trkpt lat="-35.26406" lon="148.55187"><ele>896</ele></trkpt>
<trkpt lat="-35.26409" lon="148.55128"><ele>905</ele></trkpt>
<trkpt lat="-35.26418" lon="148.55125"><ele>903</ele></trkpt>
<trkpt lat="-35.26451" lon="148.5508"><ele>914</ele></trkpt>
<trkpt lat="-35.26503" lon="148.55045"><ele>918</ele></trkpt>
<trkpt lat="-35.26519" lon="148.55025"><ele>923</ele></trkpt>
<trkpt lat="-35.26528" lon="148.54965"><ele>927</ele></trkpt>
<trkpt lat="-35.26535" lon="148.54948"><ele>930</ele></trkpt>
<trkpt lat="-35.26529" lon="148.54931"><ele>930</ele></trkpt>
<trkpt lat="-35.26452" lon="148.54821"><ele>937</ele></trkpt>
<trkpt lat="-35.26426" lon="148.54701"><ele>939</ele></trkpt>
<trkpt lat="-35.26424" lon="148.54668"><ele>938</ele></trkpt>
<trkpt lat="-35.26441" lon="148.54639"><ele>940</ele></trkpt>
<trkpt lat="-35.26467" lon="148.54634"><ele>944</ele></trkpt>
<trkpt lat="-35.26521" lon="148.54608"><ele>946</ele></trkpt>
<trkpt lat="-35.26548" lon="148.54575"><ele>945</ele></trkpt>
<trkpt lat="-35.26572" lon="148.54574"><ele>947</ele></trkpt>
<trkpt lat="-35.266" lon="148.5458"><ele>948</ele></trkpt>
<trkpt lat="-35.26695" lon="148.5457"><ele>952</ele></trkpt>
<trkpt lat="-35.26727" lon="148.5458"><ele>953</ele></trkpt>
<trkpt lat="-35.26752" lon="148.54601"><ele>956</ele></trkpt>
<trkpt lat="-35.26801" lon="148.54674"><ele>958</ele></trkpt>
<trkpt lat="-35.26867" lon="148.54732"><ele>955</ele></trkpt>
<trkpt lat="-35.26879" lon="148.54737"><ele>955</ele></trkpt>
<trkpt lat="-35.269" lon="148.54739"><ele>953</ele></trkpt>
<trkpt lat="-35.26949" lon="148.54722"><ele>953</ele></trkpt>
<trkpt lat="-35.2706" lon="148.54703"><ele>956</ele></trkpt>
<trkpt lat="-35.27096" lon="148.5469"><ele>956</ele></trkpt>
<trkpt lat="-35.27125" lon="148.54674"><ele>956</ele></trkpt>
<trkpt lat="-35.27152" lon="148.54647"><ele>956</ele></trkpt>
<trkpt lat="-35.27203" lon="148.54513"><ele>952</ele></trkpt>
<trkpt lat="-35.27288" lon="148.54329"><ele>956</ele></trkpt>
<trkpt lat="-35.27335" lon="148.54264"><ele>954</ele></trkpt>
<trkpt lat="-35.27369" lon="148.54245"><ele>957</ele></trkpt>
<trkpt lat="-35.27388" lon="148.54214"><ele>957</ele></trkpt>
<trkpt lat="-35.27397" lon="148.54177"><ele>955</ele></trkpt>
<trkpt lat="-35.27451" lon="148.54087"><ele>954</ele></trkpt>
<trkpt lat="-35.2753" lon="148.53989"><ele>959</ele></trkpt>
<trkpt lat="-35.27665" lon="148.53799"><ele>959</ele></trkpt>
<trkpt lat="-35.27729" lon="148.53716"><ele>961</ele></trkpt>
<trkpt lat="-35.27806" lon="148.53593"><ele>961</ele></trkpt>
<trkpt lat="-35.27822" lon="148.53522"><ele>954</ele></trkpt>
<trkpt lat="-35.27841" lon="148.53504"><ele>951</ele></trkpt>
<trkpt lat="-35.27909" lon="148.5351"><ele>954</ele></trkpt>
<trkpt lat="-35.2798" lon="148.53498"><ele>955</ele></trkpt>
<trkpt lat="-35.28" lon="148.53507"><ele>955</ele></trkpt>
<trkpt lat="-35.28015" lon="148.53531"><ele>957</ele></trkpt>
<trkpt lat="-35.28023" lon="148.53566"><ele>958</ele></trkpt>
<trkpt lat="-35.27999" lon="148.53624"><ele>958</ele></trkpt>
<trkpt lat="-35.27986" lon="148.53679"><ele>961</ele></trkpt>
<trkpt lat="-35.27988" lon="148.53738"><ele>966</ele></trkpt>
<trkpt lat="-35.27994" lon="148.53753"><ele>967</ele></trkpt>
<trkpt lat="-35.28012" lon="148.53771"><ele>969</ele></trkpt>
<trkpt lat="-35.28079" lon="148.53788"><ele>968</ele></trkpt>
<trkpt lat="-35.28088" lon="148.53783"><ele>967</ele></trkpt>
<trkpt lat="-35.28094" lon="148.5375"><ele>961</ele></trkpt>
<trkpt lat="-35.28111" lon="148.53725"><ele>960</ele></trkpt>
<trkpt lat="-35.28131" lon="148.53709"><ele>960</ele></trkpt>
<trkpt lat="-35.28149" lon="148.53721"><ele>961</ele></trkpt>
<trkpt lat="-35.28199" lon="148.53739"><ele>963</ele></trkpt>
<trkpt lat="-35.28235" lon="148.53735"><ele>965</ele></trkpt>
<trkpt lat="-35.28276" lon="148.53744"><ele>966</ele></trkpt>
<trkpt lat="-35.2831" lon="148.53724"><ele>968</ele></trkpt>
<trkpt lat="-35.28378" lon="148.53751"><ele>965</ele></trkpt>
<trkpt lat="-35.28486" lon="148.53691"><ele>970</ele></trkpt>
<trkpt lat="-35.28528" lon="148.53689"><ele>970</ele></trkpt>
<trkpt lat="-35.28539" lon="148.53681"><ele>970</ele></trkpt>
<trkpt lat="-35.28571" lon="148.53675"><ele>970</ele></trkpt>
<trkpt lat="-35.28616" lon="148.53648"><ele>970</ele></trkpt>
<trkpt lat="-35.28669" lon="148.53589"><ele>971</ele></trkpt>
<trkpt lat="-35.28701" lon="148.53585"><ele>971</ele></trkpt>
<trkpt lat="-35.28728" lon="148.53572"><ele>972</ele></trkpt>
<trkpt lat="-35.28772" lon="148.53563"><ele>973</ele></trkpt>
<trkpt lat="-35.28807" lon="148.53574"><ele>972</ele></trkpt>
<trkpt lat="-35.28854" lon="148.53571"><ele>972</ele></trkpt>
<trkpt lat="-35.28874" lon="148.53568"><ele>973</ele></trkpt>
<trkpt lat="-35.28941" lon="148.53538"><ele>975</ele></trkpt>
<trkpt lat="-35.28956" lon="148.53539"><ele>973</ele></trkpt>
<trkpt lat="-35.28978" lon="148.53573"><ele>970</ele></trkpt>
<trkpt lat="-35.28976" lon="148.53599"><ele>970</ele></trkpt>
<trkpt lat="-35.29006" lon="148.53603"><ele>971</ele></trkpt>
<trkpt lat="-35.29109" lon="148.53647"><ele>975</ele></trkpt>
<trkpt lat="-35.29152" lon="148.53653"><ele>976</ele></trkpt>
<trkpt lat="-35.29191" lon="148.53637"><ele>976</ele></trkpt>
<trkpt lat="-35.29259" lon="148.53563"><ele>968</ele></trkpt>
<trkpt lat="-35.29293" lon="148.53544"><ele>968</ele></trkpt>
<trkpt lat="-35.29325" lon="148.53544"><ele>970</ele></trkpt>
<trkpt lat="-35.29341" lon="148.53548"><ele>971</ele></trkpt>
<trkpt lat="-35.29416" lon="148.53587"><ele>976</ele></trkpt>
<trkpt lat="-35.29445" lon="148.53592"><ele>980</ele></trkpt>
<trkpt lat="-35.2947" lon="148.53588"><ele>981</ele></trkpt>
<trkpt lat="-35.29512" lon="148.53555"><ele>977</ele></trkpt>
<trkpt lat="-35.29556" lon="148.53533"><ele>974</ele></trkpt>
<trkpt lat="-35.29684" lon="148.5352"><ele>971</ele></trkpt>
<trkpt lat="-35.29761" lon="148.5348"><ele>970</ele></trkpt>
<trkpt lat="-35.29824" lon="148.53428"><ele>971</ele></trkpt>
<trkpt lat="-35.29861" lon="148.5341"><ele>970</ele></trkpt>
<trkpt lat="-35.29974" lon="148.53304"><ele>970</ele></trkpt>
<trkpt lat="-35.30012" lon="148.5326"><ele>969</ele></trkpt>
<trkpt lat="-35.30023" lon="148.53246"><ele>969</ele></trkpt>
<trkpt lat="-35.30044" lon="148.53195"><ele>971</ele></trkpt>
<trkpt lat="-35.30046" lon="148.53063"><ele>972</ele></trkpt>
<trkpt lat="-35.30059" lon="148.53011"><ele>970</ele></trkpt>
<trkpt lat="-35.3008" lon="148.52962"><ele>968</ele></trkpt>
<trkpt lat="-35.30116" lon="148.52909"><ele>969</ele></trkpt>
<trkpt lat="-35.30188" lon="148.52843"><ele>969</ele></trkpt>
<trkpt lat="-35.30242" lon="148.52785"><ele>970</ele></trkpt>
<trkpt lat="-35.30263" lon="148.52777"><ele>969</ele></trkpt>
<trkpt lat="-35.30279" lon="148.52778"><ele>969</ele></trkpt>
<trkpt lat="-35.30315" lon="148.52792"><ele>970</ele></trkpt>
<trkpt lat="-35.30345" lon="148.52793"><ele>970</ele></trkpt>
<trkpt lat="-35.30378" lon="148.52782"><ele>971</ele></trkpt>
<trkpt lat="-35.30432" lon="148.52741"><ele>970</ele></trkpt>
<trkpt lat="-35.30503" lon="148.52721"><ele>970</ele></trkpt>
<trkpt lat="-35.3054" lon="148.52755"><ele>969</ele></trkpt>
<trkpt lat="-35.30549" lon="148.52758"><ele>969</ele></trkpt>
<trkpt lat="-35.30576" lon="148.52749"><ele>968</ele></trkpt>
<trkpt lat="-35.30593" lon="148.5275"><ele>969</ele></trkpt>
<trkpt lat="-35.30648" lon="148.52722"><ele>973</ele></trkpt>
<trkpt lat="-35.30658" lon="148.52727"><ele>974</ele></trkpt>
<trkpt lat="-35.30688" lon="148.52705"><ele>976</ele></trkpt>
<trkpt lat="-35.30709" lon="148.52663"><ele>979</ele></trkpt>
<trkpt lat="-35.3073" lon="148.52641"><ele>981</ele></trkpt>
<trkpt lat="-35.30805" lon="148.52595"><ele>981</ele></trkpt>
<trkpt lat="-35.30816" lon="148.52584"><ele>981</ele></trkpt>
<trkpt lat="-35.30837" lon="148.52585"><ele>981</ele></trkpt>
<trkpt lat="-35.30871" lon="148.52613"><ele>980</ele></trkpt>
<trkpt lat="-35.30939" lon="148.52649"><ele>974</ele></trkpt>
<trkpt lat="-35.30957" lon="148.5265"><ele>973</ele></trkpt>
<trkpt lat="-35.30972" lon="148.52645"><ele>972</ele></trkpt>
<trkpt lat="-35.31061" lon="148.52562"><ele>973</ele></trkpt>
<trkpt lat="-35.31143" lon="148.52503"><ele>975</ele></trkpt>
<trkpt lat="-35.3121" lon="148.52446"><ele>977</ele></trkpt>
<trkpt lat="-35.31343" lon="148.52347"><ele>980</ele></trkpt>
<trkpt lat="-35.31365" lon="148.52339"><ele>981</ele></trkpt>
<trkpt lat="-35.3142" lon="148.52339"><ele>983</ele></trkpt>
<trkpt lat="-35.31547" lon="148.5232"><ele>980</ele></trkpt>
<trkpt lat="-35.31611" lon="148.52303"><ele>984</ele></trkpt>
<trkpt lat="-35.31696" lon="148.52292"><ele>982</ele></trkpt>
<trkpt lat="-35.31737" lon="148.52273"><ele>981</ele></trkpt>
<trkpt lat="-35.31746" lon="148.52267"><ele>981</ele></trkpt>
<trkpt lat="-35.31751" lon="148.52256"><ele>982</ele></trkpt>
<trkpt lat="-35.31756" lon="148.522"><ele>982</ele></trkpt>
<trkpt lat="-35.3177" lon="148.52139"><ele>982</ele></trkpt>
<trkpt lat="-35.31797" lon="148.52085"><ele>984</ele></trkpt>
<trkpt lat="-35.31812" lon="148.52072"><ele>985</ele></trkpt>
<trkpt lat="-35.31837" lon="148.52061"><ele>986</ele></trkpt>
<trkpt lat="-35.31873" lon="148.52057"><ele>985</ele></trkpt>
<trkpt lat="-35.32006" lon="148.52068"><ele>981</ele></trkpt>
<trkpt lat="-35.32026" lon="148.52075"><ele>979</ele></trkpt>
<trkpt lat="-35.32054" lon="148.52043"><ele>982</ele></trkpt>
<trkpt lat="-35.32079" lon="148.51971"><ele>986</ele></trkpt>
<trkpt lat="-35.32117" lon="148.51897"><ele>988</ele></trkpt>
<trkpt lat="-35.32174" lon="148.51755"><ele>994</ele></trkpt>
<trkpt lat="-35.3219" lon="148.51743"><ele>995</ele></trkpt>
<trkpt lat="-35.32224" lon="148.51745"><ele>995</ele></trkpt>
<trkpt lat="-35.32244" lon="148.51753"><ele>995</ele></trkpt>
<trkpt lat="-35.32258" lon="148.51749"><ele>995</ele></trkpt>
<trkpt lat="-35.32308" lon="148.51749"><ele>994</ele></trkpt>
<trkpt lat="-35.32408" lon="148.51628"><ele>994</ele></trkpt>
<trkpt lat="-35.32424" lon="148.51602"><ele>994</ele></trkpt>
<trkpt lat="-35.3252" lon="148.51522"><ele>988</ele></trkpt>
<trkpt lat="-35.32524" lon="148.5151"><ele>989</ele></trkpt>
<trkpt lat="-35.32522" lon="148.5147"><ele>993</ele></trkpt>
<trkpt lat="-35.32538" lon="148.51429"><ele>994</ele></trkpt>
<trkpt lat="-35.32584" lon="148.51453"><ele>986</ele></trkpt>
<trkpt lat="-35.32624" lon="148.51517"><ele>992</ele></trkpt>
<trkpt lat="-35.32635" lon="148.51544"><ele>993</ele></trkpt>
<trkpt lat="-35.32623" lon="148.5162"><ele>987</ele></trkpt>
<trkpt lat="-35.32627" lon="148.51661"><ele>985</ele></trkpt>
<trkpt lat="-35.32635" lon="148.51686"><ele>984</ele></trkpt>
<trkpt lat="-35.32663" lon="148.51705"><ele>983</ele></trkpt>
<trkpt lat="-35.32773" lon="148.51743"><ele>986</ele></trkpt>
<trkpt lat="-35.328" lon="148.51744"><ele>986</ele></trkpt>
<trkpt lat="-35.3282" lon="148.51739"><ele>987</ele></trkpt>
<trkpt lat="-35.32837" lon="148.51732"><ele>987</ele></trkpt>
<trkpt lat="-35.32852" lon="148.51718"><ele>987</ele></trkpt>
<trkpt lat="-35.32904" lon="148.51663"><ele>986</ele></trkpt>
<trkpt lat="-35.3298" lon="148.51541"><ele>990</ele></trkpt>
<trkpt lat="-35.33013" lon="148.51512"><ele>993</ele></trkpt>
<trkpt lat="-35.33115" lon="148.5148"><ele>997</ele></trkpt>
<trkpt lat="-35.33206" lon="148.51477"><ele>998</ele></trkpt>
<trkpt lat="-35.33273" lon="148.51442"><ele>1001</ele></trkpt>
<trkpt lat="-35.33295" lon="148.51435"><ele>1001</ele></trkpt>
<trkpt lat="-35.33389" lon="148.5144"><ele>1003</ele></trkpt>
<trkpt lat="-35.33417" lon="148.51447"><ele>1005</ele></trkpt>
<trkpt lat="-35.33442" lon="148.51477"><ele>1009</ele></trkpt>
<trkpt lat="-35.33461" lon="148.5152"><ele>1009</ele></trkpt>
<trkpt lat="-35.33488" lon="148.51562"><ele>1008</ele></trkpt>
<trkpt lat="-35.33503" lon="148.51576"><ele>1008</ele></trkpt>
<trkpt lat="-35.33539" lon="148.5159"><ele>1006</ele></trkpt>
<trkpt lat="-35.33611" lon="148.51592"><ele>1004</ele></trkpt>
<trkpt lat="-35.33665" lon="148.51576"><ele>1003</ele></trkpt>
<trkpt lat="-35.33765" lon="148.51593"><ele>1009</ele></trkpt>
<trkpt lat="-35.33869" lon="148.5159"><ele>1008</ele></trkpt>
<trkpt lat="-35.33957" lon="148.51478"><ele>1014</ele></trkpt>
<trkpt lat="-35.33993" lon="148.51446"><ele>1015</ele></trkpt>
<trkpt lat="-35.34034" lon="148.51401"><ele>1018</ele></trkpt>
<trkpt lat="-35.34108" lon="148.51369"><ele>1021</ele></trkpt>
<trkpt lat="-35.34139" lon="148.51372"><ele>1019</ele></trkpt>
<trkpt lat="-35.34187" lon="148.51369"><ele>1019</ele></trkpt>
<trkpt lat="-35.34214" lon="148.51359"><ele>1020</ele></trkpt>
<trkpt lat="-35.34271" lon="148.51314"><ele>1025</ele></trkpt>
<trkpt lat="-35.34402" lon="148.51225"><ele>1018</ele></trkpt>
<trkpt lat="-35.34545" lon="148.51137"><ele>1023</ele></trkpt>
<trkpt lat="-35.34552" lon="148.51117"><ele>1025</ele></trkpt>
<trkpt lat="-35.34559" lon="148.51053"><ele>1031</ele></trkpt>
<trkpt lat="-35.34533" lon="148.50958"><ele>1041</ele></trkpt>
<trkpt lat="-35.34549" lon="148.50923"><ele>1046</ele></trkpt>
<trkpt lat="-35.34621" lon="148.50827"><ele>1065</ele></trkpt>
<trkpt lat="-35.34669" lon="148.50789"><ele>1070</ele></trkpt>
<trkpt lat="-35.34733" lon="148.50703"><ele>1073</ele></trkpt>
<trkpt lat="-35.3476" lon="148.50638"><ele>1079</ele></trkpt>
<trkpt lat="-35.3477" lon="148.50587"><ele>1086</ele></trkpt>
<trkpt lat="-35.34793" lon="148.50532"><ele>1088</ele></trkpt>
<trkpt lat="-35.34815" lon="148.50464"><ele>1092</ele></trkpt>
<trkpt lat="-35.34828" lon="148.50365"><ele>1100</ele></trkpt>
<trkpt lat="-35.34869" lon="148.50314"><ele>1103</ele></trkpt>
<trkpt lat="-35.34915" lon="148.5021"><ele>1103</ele></trkpt>
<trkpt lat="-35.34963" lon="148.50153"><ele>1097</ele></trkpt>
<trkpt lat="-35.35005" lon="148.50128"><ele>1095</ele></trkpt>
<trkpt lat="-35.35077" lon="148.50103"><ele>1096</ele></trkpt>
<trkpt lat="-35.35139" lon="148.50072"><ele>1096</ele></trkpt>
<trkpt lat="-35.35184" lon="148.50063"><ele>1096</ele></trkpt>
<trkpt lat="-35.35234" lon="148.50029"><ele>1100</ele></trkpt>
<trkpt lat="-35.35269" lon="148.49993"><ele>1103</ele></trkpt>
<trkpt lat="-35.35309" lon="148.49918"><ele>1104</ele></trkpt>
<trkpt lat="-35.35322" lon="148.49874"><ele>1104</ele></trkpt>
<trkpt lat="-35.35329" lon="148.49808"><ele>1104</ele></trkpt>
<trkpt lat="-35.35321" lon="148.49737"><ele>1106</ele></trkpt>
<trkpt lat="-35.35307" lon="148.4969"><ele>1106</ele></trkpt>
<trkpt lat="-35.3531" lon="148.49615"><ele>1105</ele></trkpt>
<trkpt lat="-35.35301" lon="148.49549"><ele>1101</ele></trkpt>
<trkpt lat="-35.353" lon="148.4953"><ele>1100</ele></trkpt>
<trkpt lat="-35.35319" lon="148.49492"><ele>1097</ele></trkpt>
<trkpt lat="-35.35303" lon="148.49448"><ele>1093</ele></trkpt>
<trkpt lat="-35.35281" lon="148.49356"><ele>1090</ele></trkpt>
<trkpt lat="-35.35289" lon="148.4934"><ele>1091</ele></trkpt>
<trkpt lat="-35.35271" lon="148.49229"><ele>1098</ele></trkpt>
<trkpt lat="-35.35291" lon="148.49127"><ele>1107</ele></trkpt>
<trkpt lat="-35.35241" lon="148.49016"><ele>1113</ele></trkpt>
<trkpt lat="-35.35235" lon="148.48981"><ele>1115</ele></trkpt>
<trkpt lat="-35.35212" lon="148.48926"><ele>1118</ele></trkpt>
<trkpt lat="-35.35214" lon="148.48937"><ele>1117</ele></trkpt>
<trkpt lat="-35.35211" lon="148.48907"><ele>1119</ele></trkpt>
<trkpt lat="-35.35216" lon="148.48893"><ele>1121</ele></trkpt>
<trkpt lat="-35.3523" lon="148.48878"><ele>1123</ele></trkpt>
<trkpt lat="-35.35252" lon="148.4886"><ele>1126</ele></trkpt>
<trkpt lat="-35.35292" lon="148.48838"><ele>1133</ele></trkpt>
<trkpt lat="-35.35316" lon="148.48832"><ele>1136</ele></trkpt>
<trkpt lat="-35.35358" lon="148.48835"><ele>1139</ele></trkpt>
<trkpt lat="-35.35406" lon="148.48808"><ele>1138</ele></trkpt>
<trkpt lat="-35.35423" lon="148.48772"><ele>1136</ele></trkpt>
<trkpt lat="-35.35456" lon="148.48738"><ele>1134</ele></trkpt>
<trkpt lat="-35.35532" lon="148.48678"><ele>1136</ele></trkpt>
<trkpt lat="-35.35579" lon="148.48672"><ele>1140</ele></trkpt>
<trkpt lat="-35.3562" lon="148.48678"><ele>1142</ele></trkpt>
<trkpt lat="-35.3565" lon="148.48672"><ele>1143</ele></trkpt>
<trkpt lat="-35.3572" lon="148.48684"><ele>1141</ele></trkpt>
<trkpt lat="-35.35778" lon="148.48663"><ele>1138</ele></trkpt>
<trkpt lat="-35.35831" lon="148.48626"><ele>1131</ele></trkpt>
<trkpt lat="-35.35877" lon="148.48626"><ele>1130</ele></trkpt>
<trkpt lat="-35.35908" lon="148.48641"><ele>1130</ele></trkpt>
<trkpt lat="-35.35957" lon="148.48686"><ele>1132</ele></trkpt>
<trkpt lat="-35.36001" lon="148.48707"><ele>1133</ele></trkpt>
<trkpt lat="-35.36064" lon="148.48728"><ele>1136</ele></trkpt>
<trkpt lat="-35.36112" lon="148.48727"><ele>1136</ele></trkpt>
<trkpt lat="-35.36198" lon="148.48709"><ele>1130</ele></trkpt>
<trkpt lat="-35.36222" lon="148.48715"><ele>1128</ele></trkpt>
<trkpt lat="-35.36261" lon="148.48705"><ele>1125</ele></trkpt>
<trkpt lat="-35.36342" lon="148.48723"><ele>1125</ele></trkpt>
<trkpt lat="-35.36362" lon="148.48712"><ele>1129</ele></trkpt>
<trkpt lat="-35.36381" lon="148.48709"><ele>1132</ele></trkpt>
<trkpt lat="-35.36399" lon="148.48697"><ele>1135</ele></trkpt>
<trkpt lat="-35.36445" lon="148.48606"><ele>1141</ele></trkpt>
<trkpt lat="-35.36466" lon="148.48574"><ele>1143</ele></trkpt>
<trkpt lat="-35.3649" lon="148.48564"><ele>1147</ele></trkpt>
<trkpt lat="-35.36541" lon="148.48581"><ele>1154</ele></trkpt>
<trkpt lat="-35.3656" lon="148.48597"><ele>1157</ele></trkpt>
<trkpt lat="-35.36591" lon="148.48655"><ele>1165</ele></trkpt>
<trkpt lat="-35.36612" lon="148.48677"><ele>1167</ele></trkpt>
<trkpt lat="-35.36647" lon="148.48702"><ele>1167</ele></trkpt>
<trkpt lat="-35.36679" lon="148.48716"><ele>1169</ele></trkpt>
<trkpt lat="-35.36756" lon="148.48722"><ele>1175</ele></trkpt>
<trkpt lat="-35.36777" lon="148.48734"><ele>1177</ele></trkpt>
<trkpt lat="-35.36841" lon="148.48806"><ele>1190</ele></trkpt>
<trkpt lat="-35.36886" lon="148.48814"><ele>1195</ele></trkpt>
<trkpt lat="-35.3692" lon="148.48809"><ele>1198</ele></trkpt>
<trkpt lat="-35.36933" lon="148.48802"><ele>1197</ele></trkpt>
<trkpt lat="-35.36966" lon="148.48749"><ele>1190</ele></trkpt>
<trkpt lat="-35.36999" lon="148.48713"><ele>1183</ele></trkpt>
<trkpt lat="-35.37011" lon="148.48683"><ele>1178</ele></trkpt>
<trkpt lat="-35.37052" lon="148.48633"><ele>1173</ele></trkpt>
<trkpt lat="-35.37082" lon="148.48578"><ele>1167</ele></trkpt>
<trkpt lat="-35.37088" lon="148.48521"><ele>1164</ele></trkpt>
<trkpt lat="-35.37056" lon="148.4841"><ele>1160</ele></trkpt>
<trkpt lat="-35.37051" lon="148.48376"><ele>1156</ele></trkpt>
<trkpt lat="-35.37057" lon="148.48319"><ele>1152</ele></trkpt>
<trkpt lat="-35.37076" lon="148.48276"><ele>1152</ele></trkpt>
<trkpt lat="-35.3708" lon="148.48242"><ele>1151</ele></trkpt>
<trkpt lat="-35.37092" lon="148.48217"><ele>1149</ele></trkpt>
<trkpt lat="-35.37093" lon="148.48199"><ele>1147</ele></trkpt>
<trkpt lat="-35.37101" lon="148.48177"><ele>1145</ele></trkpt>
<trkpt lat="-35.37112" lon="148.48156"><ele>1142</ele></trkpt>
<trkpt lat="-35.37143" lon="148.48127"><ele>1136</ele></trkpt>
<trkpt lat="-35.37162" lon="148.48092"><ele>1133</ele></trkpt>
<trkpt lat="-35.37195" lon="148.48052"><ele>1125</ele></trkpt>
<trkpt lat="-35.37239" lon="148.47951"><ele>1115</ele></trkpt>
<trkpt lat="-35.37263" lon="148.47934"><ele>1113</ele></trkpt>
<trkpt lat="-35.37293" lon="148.47896"><ele>1107</ele></trkpt>
<trkpt lat="-35.3735" lon="148.47867"><ele>1101</ele></trkpt>
<trkpt lat="-35.37406" lon="148.47892"><ele>1096</ele></trkpt>
<trkpt lat="-35.37436" lon="148.47888"><ele>1091</ele></trkpt>
<trkpt lat="-35.37454" lon="148.47872"><ele>1086</ele></trkpt>
<trkpt lat="-35.37475" lon="148.47818"><ele>1073</ele></trkpt>
<trkpt lat="-35.37508" lon="148.47797"><ele>1058</ele></trkpt>
<trkpt lat="-35.3755" lon="148.47847"><ele>1057</ele></trkpt>
<trkpt lat="-35.3756" lon="148.47853"><ele>1056</ele></trkpt>
<trkpt lat="-35.37584" lon="148.47847"><ele>1047</ele></trkpt>
<trkpt lat="-35.37604" lon="148.47853"><ele>1045</ele></trkpt>
<trkpt lat="-35.37656" lon="148.47883"><ele>1044</ele></trkpt>
<trkpt lat="-35.37696" lon="148.47886"><ele>1044</ele></trkpt>
<trkpt lat="-35.37705" lon="148.4788"><ele>1043</ele></trkpt>
<trkpt lat="-35.37715" lon="148.47822"><ele>1029</ele></trkpt>
<trkpt lat="-35.37723" lon="148.47811"><ele>1026</ele></trkpt>
<trkpt lat="-35.37733" lon="148.47799"><ele>1024</ele></trkpt>
<trkpt lat="-35.3777" lon="148.47777"><ele>1020</ele></trkpt>
<trkpt lat="-35.37812" lon="148.47774"><ele>1018</ele></trkpt>
<trkpt lat="-35.37846" lon="148.47786"><ele>1018</ele></trkpt>
<trkpt lat="-35.37924" lon="148.4779"><ele>1008</ele></trkpt>
<trkpt lat="-35.37961" lon="148.47813"><ele>1014</ele></trkpt>
<trkpt lat="-35.38035" lon="148.47777"><ele>1002</ele></trkpt>
<trkpt lat="-35.3805" lon="148.47779"><ele>1002</ele></trkpt>
<trkpt lat="-35.38066" lon="148.4777"><ele>1000</ele></trkpt>
<trkpt lat="-35.38088" lon="148.47743"><ele>992</ele></trkpt>
<trkpt lat="-35.38097" lon="148.47739"><ele>991</ele></trkpt>
<trkpt lat="-35.38136" lon="148.47744"><ele>993</ele></trkpt>
<trkpt lat="-35.38159" lon="148.47737"><ele>991</ele></trkpt>
<trkpt lat="-35.38254" lon="148.47687"><ele>981</ele></trkpt>
<trkpt lat="-35.38283" lon="148.4766"><ele>976</ele></trkpt>
<trkpt lat="-35.38292" lon="148.47641"><ele>975</ele></trkpt>
<trkpt lat="-35.38286" lon="148.47591"><ele>974</ele></trkpt>
<trkpt lat="-35.38249" lon="148.4754"><ele>971</ele></trkpt>
<trkpt lat="-35.38232" lon="148.47534"><ele>969</ele></trkpt>
<trkpt lat="-35.38201" lon="148.47505"><ele>964</ele></trkpt>
<trkpt lat="-35.38161" lon="148.4748"><ele>953</ele></trkpt>
<trkpt lat="-35.38161" lon="148.47464"><ele>949</ele></trkpt>
<trkpt lat="-35.38177" lon="148.47435"><ele>942</ele></trkpt>
<trkpt lat="-35.38204" lon="148.47415"><ele>935</ele></trkpt>
<trkpt lat="-35.38261" lon="148.47402"><ele>928</ele></trkpt>
<trkpt lat="-35.38314" lon="148.47379"><ele>920</ele></trkpt>
<trkpt lat="-35.38334" lon="148.47362"><ele>913</ele></trkpt>
<trkpt lat="-35.38375" lon="148.47338"><ele>905</ele></trkpt>
<trkpt lat="-35.38415" lon="148.47326"><ele>902</ele></trkpt>
<trkpt lat="-35.38472" lon="148.47331"><ele>906</ele></trkpt>
<trkpt lat="-35.38476" lon="148.47326"><ele>904</ele></trkpt>
<trkpt lat="-35.38476" lon="148.47294"><ele>894</ele></trkpt>
<trkpt lat="-35.38449" lon="148.47242"><ele>872</ele></trkpt>
<trkpt lat="-35.3845" lon="148.4719"><ele>854</ele></trkpt>
<trkpt lat="-35.38439" lon="148.47155"><ele>841</ele></trkpt>
<trkpt lat="-35.38422" lon="148.47137"><ele>835</ele></trkpt>
<trkpt lat="-35.38372" lon="148.47122"><ele>833</ele></trkpt>
<trkpt lat="-35.38367" lon="148.47107"><ele>830</ele></trkpt>
<trkpt lat="-35.38384" lon="148.47084"><ele>823</ele></trkpt>
<trkpt lat="-35.38464" lon="148.47045"><ele>814</ele></trkpt>
<trkpt lat="-35.38484" lon="148.4702"><ele>806</ele></trkpt>
<trkpt lat="-35.38495" lon="148.46954"><ele>790</ele></trkpt>
<trkpt lat="-35.38512" lon="148.46946"><ele>788</ele></trkpt>
<trkpt lat="-35.38551" lon="148.46946"><ele>791</ele></trkpt>
<trkpt lat="-35.38562" lon="148.46933"><ele>789</ele></trkpt>
<trkpt lat="-35.38568" lon="148.46911"><ele>784</ele></trkpt>
<trkpt lat="-35.38597" lon="148.46863"><ele>779</ele></trkpt>
<trkpt lat="-35.38642" lon="148.46764"><ele>771</ele></trkpt>
<trkpt lat="-35.38649" lon="148.46731"><ele>767</ele></trkpt>
<trkpt lat="-35.38696" lon="148.46673"><ele>768</ele></trkpt>
<trkpt lat="-35.38704" lon="148.46587"><ele>769</ele></trkpt>
<trkpt lat="-35.38693" lon="148.46537"><ele>765</ele></trkpt>
<trkpt lat="-35.38668" lon="148.46481"><ele>758</ele></trkpt>
<trkpt lat="-35.38642" lon="148.46449"><ele>753</ele></trkpt>
<trkpt lat="-35.38612" lon="148.46392"><ele>746</ele></trkpt>
<trkpt lat="-35.38595" lon="148.46372"><ele>743</ele></trkpt>
<trkpt lat="-35.38582" lon="148.46343"><ele>741</ele></trkpt>
<trkpt lat="-35.38575" lon="148.46316"><ele>738</ele></trkpt>
<trkpt lat="-35.38576" lon="148.46269"><ele>732</ele></trkpt>
<trkpt lat="-35.38562" lon="148.46252"><ele>728</ele></trkpt>
<trkpt lat="-35.38475" lon="148.46206"><ele>719</ele></trkpt>
<trkpt lat="-35.38455" lon="148.46181"><ele>718</ele></trkpt>
<trkpt lat="-35.38413" lon="148.46091"><ele>714</ele></trkpt>
<trkpt lat="-35.38363" lon="148.46022"><ele>705</ele></trkpt>
<trkpt lat="-35.38362" lon="148.45995"><ele>703</ele></trkpt>
<trkpt lat="-35.38376" lon="148.45962"><ele>701</ele></trkpt>
<trkpt lat="-35.38392" lon="148.4594"><ele>699</ele></trkpt>
<trkpt lat="-35.38404" lon="148.45893"><ele>695</ele></trkpt>
<trkpt lat="-35.38406" lon="148.45852"><ele>692</ele></trkpt>
<trkpt lat="-35.38422" lon="148.45813"><ele>692</ele></trkpt>
<trkpt lat="-35.38461" lon="148.45787"><ele>696</ele></trkpt>
<trkpt lat="-35.38515" lon="148.45779"><ele>703</ele></trkpt>
<trkpt lat="-35.3856" lon="148.45766"><ele>708</ele></trkpt>
<trkpt lat="-35.38585" lon="148.45742"><ele>710</ele></trkpt>
<trkpt lat="-35.38597" lon="148.45702"><ele>710</ele></trkpt>
<trkpt lat="-35.38561" lon="148.45646"><ele>702</ele></trkpt>
<trkpt lat="-35.38546" lon="148.4565"><ele>700</ele></trkpt>
<trkpt lat="-35.38526" lon="148.45564"><ele>697</ele></trkpt>
<trkpt lat="-35.3852" lon="148.455"><ele>701</ele></trkpt>
<trkpt lat="-35.38521" lon="148.45431"><ele>711</ele></trkpt>
<trkpt lat="-35.38527" lon="148.45396"><ele>713</ele></trkpt>
<trkpt lat="-35.38541" lon="148.45353"><ele>714</ele></trkpt>
<trkpt lat="-35.38548" lon="148.45278"><ele>710</ele></trkpt>
<trkpt lat="-35.3852" lon="148.45231"><ele>703</ele></trkpt>
<trkpt lat="-35.3851" lon="148.45196"><ele>702</ele></trkpt>
<trkpt lat="-35.38491" lon="148.45162"><ele>700</ele></trkpt>
<trkpt lat="-35.38463" lon="148.45135"><ele>700</ele></trkpt>
<trkpt lat="-35.38381" lon="148.45084"><ele>698</ele></trkpt>
<trkpt lat="-35.38331" lon="148.45017"><ele>697</ele></trkpt>
<trkpt lat="-35.3832" lon="148.44981"><ele>696</ele></trkpt>
<trkpt lat="-35.38341" lon="148.44935"><ele>693</ele></trkpt>
<trkpt lat="-35.38399" lon="148.449"><ele>689</ele></trkpt>
<trkpt lat="-35.38416" lon="148.44883"><ele>685</ele></trkpt>
<trkpt lat="-35.38423" lon="148.4486"><ele>680</ele></trkpt>
<trkpt lat="-35.38438" lon="148.44847"><ele>677</ele></trkpt>
<trkpt lat="-35.38477" lon="148.44831"><ele>674</ele></trkpt>
<trkpt lat="-35.38524" lon="148.44794"><ele>672</ele></trkpt>
<trkpt lat="-35.38544" lon="148.44776"><ele>672</ele></trkpt>
<trkpt lat="-35.38544" lon="148.44757"><ele>671</ele></trkpt>
<trkpt lat="-35.38529" lon="148.44727"><ele>669</ele></trkpt>
<trkpt lat="-35.38498" lon="148.44697"><ele>666</ele></trkpt>
<trkpt lat="-35.38463" lon="148.44625"><ele>660</ele></trkpt>
<trkpt lat="-35.38381" lon="148.44544"><ele>649</ele></trkpt>
<trkpt lat="-35.38344" lon="148.44481"><ele>649</ele></trkpt>
<trkpt lat="-35.38324" lon="148.44461"><ele>650</ele></trkpt>
<trkpt lat="-35.38198" lon="148.44367"><ele>651</ele></trkpt>
<trkpt lat="-35.3816" lon="148.44363"><ele>649</ele></trkpt>
<trkpt lat="-35.38106" lon="148.44348"><ele>644</ele></trkpt>
<trkpt lat="-35.38027" lon="148.44302"><ele>637</ele></trkpt>
<trkpt lat="-35.37948" lon="148.44313"><ele>632</ele></trkpt>
<trkpt lat="-35.37897" lon="148.44295"><ele>627</ele></trkpt>
<trkpt lat="-35.3786" lon="148.44309"><ele>624</ele></trkpt>
<trkpt lat="-35.37842" lon="148.44308"><ele>623</ele></trkpt>
<trkpt lat="-35.37732" lon="148.44277"><ele>617</ele></trkpt>
<trkpt lat="-35.37724" lon="148.44271"><ele>616</ele></trkpt>
<trkpt lat="-35.37717" lon="148.44248"><ele>615</ele></trkpt>
<trkpt lat="-35.37719" lon="148.44213"><ele>607</ele></trkpt>
<trkpt lat="-35.37712" lon="148.442"><ele>604</ele></trkpt>
<trkpt lat="-35.37699" lon="148.44196"><ele>603</ele></trkpt>
<trkpt lat="-35.37665" lon="148.44205"><ele>602</ele></trkpt>
<trkpt lat="-35.37631" lon="148.4422"><ele>597</ele></trkpt>
<trkpt lat="-35.37611" lon="148.4421"><ele>590</ele></trkpt>
<trkpt lat="-35.37552" lon="148.44212"><ele>581</ele></trkpt>
<trkpt lat="-35.37538" lon="148.44204"><ele>578</ele></trkpt>
<trkpt lat="-35.37562" lon="148.44155"><ele>567</ele></trkpt>
<trkpt lat="-35.37599" lon="148.44123"><ele>563</ele></trkpt>
<trkpt lat="-35.3762" lon="148.44037"><ele>538</ele></trkpt>
<trkpt lat="-35.3764" lon="148.43999"><ele>528</ele></trkpt>
<trkpt lat="-35.37635" lon="148.43986"><ele>523</ele></trkpt>
<trkpt lat="-35.37624" lon="148.43985"><ele>521</ele></trkpt>
<trkpt lat="-35.37551" lon="148.4405"><ele>532</ele></trkpt>
<trkpt lat="-35.37538" lon="148.44041"><ele>528</ele></trkpt>
<trkpt lat="-35.37545" lon="148.44035"><ele>527</ele></trkpt>
<trkpt lat="-35.37545" lon="148.44016"><ele>520</ele></trkpt>
<trkpt lat="-35.37563" lon="148.43982"><ele>510</ele></trkpt>
<trkpt lat="-35.37595" lon="148.43928"><ele>498</ele></trkpt>
<trkpt lat="-35.37616" lon="148.43902"><ele>494</ele></trkpt>
<trkpt lat="-35.3765" lon="148.43916"><ele>503</ele></trkpt>
<trkpt lat="-35.37652" lon="148.43912"><ele>502</ele></trkpt>
<trkpt lat="-35.37629" lon="148.43872"><ele>486</ele></trkpt>
<trkpt lat="-35.37626" lon="148.43842"><ele>476</ele></trkpt>
<trkpt lat="-35.37632" lon="148.43822"><ele>471</ele></trkpt>
<trkpt lat="-35.37618" lon="148.43809"><ele>464</ele></trkpt>
<trkpt lat="-35.37615" lon="148.43801"><ele>461</ele></trkpt>
<trkpt lat="-35.37626" lon="148.43781"><ele>455</ele></trkpt>
<trkpt lat="-35.37626" lon="148.43762"><ele>449</ele></trkpt>
<trkpt lat="-35.37617" lon="148.4375"><ele>443</ele></trkpt>
<trkpt lat="-35.37626" lon="148.43744"><ele>443</ele></trkpt>
<trkpt lat="-35.37675" lon="148.43735"><ele>445</ele></trkpt>
<trkpt lat="-35.37685" lon="148.43714"><ele>439</ele></trkpt>
<trkpt lat="-35.37686" lon="148.43692"><ele>433</ele></trkpt>
<trkpt lat="-35.37682" lon="148.43678"><ele>429</ele></trkpt>
<trkpt lat="-35.37655" lon="148.43654"><ele>422</ele></trkpt>
<trkpt lat="-35.3758" lon="148.43527"><ele>408</ele></trkpt>
<trkpt lat="-35.37579" lon="148.43497"><ele>409</ele></trkpt>
<trkpt lat="-35.37569" lon="148.43455"><ele>417</ele></trkpt>
<trkpt lat="-35.37527" lon="148.43428"><ele>427</ele></trkpt>
<trkpt lat="-35.37498" lon="148.43417"><ele>433</ele></trkpt>
<trkpt lat="-35.37485" lon="148.43393"><ele>441</ele></trkpt>
<trkpt lat="-35.37498" lon="148.43353"><ele>452</ele></trkpt>
<trkpt lat="-35.3752" lon="148.43319"><ele>461</ele></trkpt>
<trkpt lat="-35.37521" lon="148.43289"><ele>473</ele></trkpt>
<trkpt lat="-35.37494" lon="148.43213"><ele>509</ele></trkpt>
<trkpt lat="-35.37481" lon="148.43197"><ele>517</ele></trkpt>
<trkpt lat="-35.37464" lon="148.43195"><ele>519</ele></trkpt>
<trkpt lat="-35.37442" lon="148.43212"><ele>511</ele></trkpt>
<trkpt lat="-35.37421" lon="148.43206"><ele>515</ele></trkpt>
<trkpt lat="-35.37419" lon="148.43195"><ele>520</ele></trkpt>
<trkpt lat="-35.37435" lon="148.43165"><ele>534</ele></trkpt>
<trkpt lat="-35.3744" lon="148.43134"><ele>545</ele></trkpt>
<trkpt lat="-35.37436" lon="148.43123"><ele>548</ele></trkpt>
<trkpt lat="-35.37417" lon="148.43121"><ele>550</ele></trkpt>
<trkpt lat="-35.37406" lon="148.43125"><ele>550</ele></trkpt>
<trkpt lat="-35.37434" lon="148.43067"><ele>563</ele></trkpt>
<trkpt lat="-35.37414" lon="148.43026"><ele>565</ele></trkpt>
<trkpt lat="-35.37368" lon="148.42958"><ele>569</ele></trkpt>
<trkpt lat="-35.37333" lon="148.42865"><ele>570</ele></trkpt>
<trkpt lat="-35.3736" lon="148.42769"><ele>546</ele></trkpt>
<trkpt lat="-35.37345" lon="148.42697"><ele>535</ele></trkpt>
<trkpt lat="-35.37308" lon="148.42656"><ele>531</ele></trkpt>
<trkpt lat="-35.37282" lon="148.42649"><ele>532</ele></trkpt>
<trkpt lat="-35.37239" lon="148.42652"><ele>542</ele></trkpt>
<trkpt lat="-35.3722" lon="148.4264"><ele>542</ele></trkpt>
<trkpt lat="-35.37214" lon="148.42607"><ele>532</ele></trkpt>
<trkpt lat="-35.37159" lon="148.42535"><ele>528</ele></trkpt>
<trkpt lat="-35.37137" lon="148.42515"><ele>528</ele></trkpt>
<trkpt lat="-35.3714" lon="148.4249"><ele>525</ele></trkpt>
<trkpt lat="-35.37145" lon="148.42481"><ele>525</ele></trkpt>
<trkpt lat="-35.37139" lon="148.42453"><ele>528</ele></trkpt>
<trkpt lat="-35.37157" lon="148.42431"><ele>527</ele></trkpt>
<trkpt lat="-35.37187" lon="148.42406"><ele>529</ele></trkpt>
<trkpt lat="-35.37261" lon="148.42392"><ele>526</ele></trkpt>
<trkpt lat="-35.37336" lon="148.42355"><ele>526</ele></trkpt>
<trkpt lat="-35.37356" lon="148.42339"><ele>521</ele></trkpt>
<trkpt lat="-35.37364" lon="148.42323"><ele>518</ele></trkpt>
<trkpt lat="-35.37371" lon="148.42229"><ele>511</ele></trkpt>
<trkpt lat="-35.37354" lon="148.42156"><ele>508</ele></trkpt>
<trkpt lat="-35.37349" lon="148.42101"><ele>503</ele></trkpt>
<trkpt lat="-35.37353" lon="148.42088"><ele>500</ele></trkpt>
<trkpt lat="-35.37374" lon="148.42069"><ele>491</ele></trkpt>
<trkpt lat="-35.3738" lon="148.42045"><ele>485</ele></trkpt>
<trkpt lat="-35.37376" lon="148.42023"><ele>481</ele></trkpt>
<trkpt lat="-35.37354" lon="148.41985"><ele>473</ele></trkpt>
<trkpt lat="-35.37347" lon="148.41955"><ele>464</ele></trkpt>
<trkpt lat="-35.37324" lon="148.41954"><ele>465</ele></trkpt>
<trkpt lat="-35.3732" lon="148.41942"><ele>460</ele></trkpt>
<trkpt lat="-35.37325" lon="148.41919"><ele>454</ele></trkpt>
<trkpt lat="-35.37352" lon="148.41901"><ele>445</ele></trkpt>
<trkpt lat="-35.3732" lon="148.41884"><ele>441</ele></trkpt>
<trkpt lat="-35.3734" lon="148.41871"><ele>436</ele></trkpt>
<trkpt lat="-35.37339" lon="148.41867"><ele>435</ele></trkpt>
<trkpt lat="-35.37283" lon="148.41849"><ele>424</ele></trkpt>
<trkpt lat="-35.37248" lon="148.41852"><ele>422</ele></trkpt>
<trkpt lat="-35.37242" lon="148.41851"><ele>422</ele></trkpt>
<trkpt lat="-35.37237" lon="148.41838"><ele>418</ele></trkpt>
<trkpt lat="-35.37242" lon="148.41825"><ele>414</ele></trkpt>
<trkpt lat="-35.37241" lon="148.41801"><ele>406</ele></trkpt>
<trkpt lat="-35.3725" lon="148.41791"><ele>401</ele></trkpt>
<trkpt lat="-35.37286" lon="148.41772"><ele>394</ele></trkpt>
<trkpt lat="-35.37328" lon="148.41761"><ele>389</ele></trkpt>
<trkpt lat="-35.37321" lon="148.41747"><ele>383</ele></trkpt>
<trkpt lat="-35.37334" lon="148.41753"><ele>385</ele></trkpt>
<trkpt lat="-35.37284" lon="148.41705"><ele>374</ele></trkpt>
<trkpt lat="-35.37263" lon="148.41669"><ele>366</ele></trkpt>
<trkpt lat="-35.37272" lon="148.4165"><ele>364</ele></trkpt>
<trkpt lat="-35.37288" lon="148.4165"><ele>364</ele></trkpt>
<trkpt lat="-35.37307" lon="148.41634"><ele>363</ele></trkpt>
<trkpt lat="-35.37298" lon="148.41532"><ele>365</ele></trkpt>
<trkpt lat="-35.37275" lon="148.41519"><ele>365</ele></trkpt>
<trkpt lat="-35.37195" lon="148.41515"><ele>361</ele></trkpt>
<trkpt lat="-35.37185" lon="148.41523"><ele>360</ele></trkpt>
<trkpt lat="-35.36998" lon="148.41488"><ele>361</ele></trkpt>
<trkpt lat="-35.36896" lon="148.41484"><ele>369</ele></trkpt>
<trkpt lat="-35.3684" lon="148.41442"><ele>363</ele></trkpt>
<trkpt lat="-35.3681" lon="148.4143"><ele>360</ele></trkpt>
<trkpt lat="-35.36779" lon="148.4141"><ele>357</ele></trkpt>
<trkpt lat="-35.36707" lon="148.41389"><ele>358</ele></trkpt>
<trkpt lat="-35.36687" lon="148.41375"><ele>358</ele></trkpt>
<trkpt lat="-35.36668" lon="148.41354"><ele>356</ele></trkpt>
<trkpt lat="-35.36631" lon="148.41281"><ele>357</ele></trkpt>
<trkpt lat="-35.36575" lon="148.41242"><ele>356</ele></trkpt>
<trkpt lat="-35.3652" lon="148.41143"><ele>360</ele></trkpt>
<trkpt lat="-35.36476" lon="148.41084"><ele>360</ele></trkpt>
<trkpt lat="-35.36378" lon="148.41023"><ele>359</ele></trkpt>
<trkpt lat="-35.36313" lon="148.40976"><ele>357</ele></trkpt>
<trkpt lat="-35.36264" lon="148.40931"><ele>357</ele></trkpt>
<trkpt lat="-35.36216" lon="148.40878"><ele>359</ele></trkpt>
<trkpt lat="-35.36195" lon="148.40798"><ele>364</ele></trkpt>
<trkpt lat="-35.36157" lon="148.40773"><ele>362</ele></trkpt>
<trkpt lat="-35.36142" lon="148.40751"><ele>362</ele></trkpt>
<trkpt lat="-35.36118" lon="148.40747"><ele>360</ele></trkpt>
<trkpt lat="-35.35985" lon="148.40646"><ele>359</ele></trkpt>
<trkpt lat="-35.3596" lon="148.40615"><ele>361</ele></trkpt>
<trkpt lat="-35.35898" lon="148.40577"><ele>358</ele></trkpt>
<trkpt lat="-35.35865" lon="148.40569"><ele>356</ele></trkpt>
<trkpt lat="-35.35768" lon="148.40487"><ele>357</ele></trkpt>
<trkpt lat="-35.3548" lon="148.40334"><ele>354</ele></trkpt>
<trkpt lat="-35.35462" lon="148.40338"><ele>353</ele></trkpt>
<trkpt lat="-35.35446" lon="148.40349"><ele>353</ele></trkpt>
<trkpt lat="-35.3533" lon="148.4031"><ele>350</ele></trkpt>
<trkpt lat="-35.35289" lon="148.40266"><ele>353</ele></trkpt>
<trkpt lat="-35.35266" lon="148.4023"><ele>352</ele></trkpt>
<trkpt lat="-35.3525" lon="148.40192"><ele>351</ele></trkpt>
<trkpt lat="-35.35224" lon="148.40088"><ele>355</ele></trkpt>
<trkpt lat="-35.35209" lon="148.40062"><ele>356</ele></trkpt>
<trkpt lat="-35.35142" lon="148.39986"><ele>356</ele></trkpt>
<trkpt lat="-35.35084" lon="148.39942"><ele>358</ele></trkpt>
<trkpt lat="-35.35036" lon="148.39917"><ele>355</ele></trkpt>
<trkpt lat="-35.34934" lon="148.39847"><ele>355</ele></trkpt>
<trkpt lat="-35.34893" lon="148.39853"><ele>351</ele></trkpt>
<trkpt lat="-35.34865" lon="148.39851"><ele>350</ele></trkpt>
<trkpt lat="-35.34774" lon="148.39809"><ele>347</ele></trkpt>
<trkpt lat="-35.34705" lon="148.3976"><ele>346</ele></trkpt>
<trkpt lat="-35.34673" lon="148.39743"><ele>345</ele></trkpt>
<trkpt lat="-35.34665" lon="148.39718"><ele>345</ele></trkpt>
<trkpt lat="-35.34708" lon="148.39647"><ele>349</ele></trkpt>
<trkpt lat="-35.34707" lon="148.39606"><ele>350</ele></trkpt>
<trkpt lat="-35.34717" lon="148.39567"><ele>352</ele></trkpt>
<trkpt lat="-35.34738" lon="148.39514"><ele>355</ele></trkpt>
<trkpt lat="-35.34748" lon="148.3944"><ele>355</ele></trkpt>
<trkpt lat="-35.34679" lon="148.39422"><ele>353</ele></trkpt>
<trkpt lat="-35.34668" lon="148.39409"><ele>353</ele></trkpt>
<trkpt lat="-35.34669" lon="148.39353"><ele>351</ele></trkpt>
<trkpt lat="-35.346" lon="148.39204"><ele>352</ele></trkpt>
<trkpt lat="-35.3459" lon="148.39163"><ele>351</ele></trkpt>
<trkpt lat="-35.34575" lon="148.39056"><ele>346</ele></trkpt>
<trkpt lat="-35.34567" lon="148.39038"><ele>345</ele></trkpt>
<trkpt lat="-35.3453" lon="148.39008"><ele>347</ele></trkpt>
<trkpt lat="-35.34494" lon="148.38991"><ele>348</ele></trkpt>
<trkpt lat="-35.34419" lon="148.38997"><ele>354</ele></trkpt>
<trkpt lat="-35.34317" lon="148.38905"><ele>349</ele></trkpt>
<trkpt lat="-35.34291" lon="148.38873"><ele>350</ele></trkpt>
<trkpt lat="-35.34261" lon="148.38821"><ele>349</ele></trkpt>
<trkpt lat="-35.34265" lon="148.38796"><ele>347</ele></trkpt>
<trkpt lat="-35.34253" lon="148.38764"><ele>346</ele></trkpt>
<trkpt lat="-35.34241" lon="148.38715"><ele>346</ele></trkpt>
<trkpt lat="-35.34249" lon="148.38666"><ele>341</ele></trkpt>
<trkpt lat="-35.34274" lon="148.38657"><ele>343</ele></trkpt>
<trkpt lat="-35.34284" lon="148.38662"><ele>344</ele></trkpt>
<trkpt lat="-35.34311" lon="148.38709"><ele>345</ele></trkpt>
<trkpt lat="-35.34344" lon="148.38753"><ele>345</ele></trkpt>
<trkpt lat="-35.34372" lon="148.3876"><ele>347</ele></trkpt>
<trkpt lat="-35.34387" lon="148.38751"><ele>349</ele></trkpt>
<trkpt lat="-35.34397" lon="148.38737"><ele>351</ele></trkpt>
<trkpt lat="-35.34398" lon="148.38704"><ele>353</ele></trkpt>
<trkpt lat="-35.34361" lon="148.38648"><ele>351</ele></trkpt>
<trkpt lat="-35.34348" lon="148.38615"><ele>351</ele></trkpt>
<trkpt lat="-35.34355" lon="148.3858"><ele>351</ele></trkpt>
<trkpt lat="-35.34386" lon="148.38516"><ele>343</ele></trkpt>
<trkpt lat="-35.34403" lon="148.38498"><ele>341</ele></trkpt>
<trkpt lat="-35.3446" lon="148.38491"><ele>344</ele></trkpt>
<trkpt lat="-35.34472" lon="148.38485"><ele>345</ele></trkpt>
<trkpt lat="-35.34479" lon="148.3847"><ele>346</ele></trkpt>
<trkpt lat="-35.3444" lon="148.38373"><ele>344</ele></trkpt>
<trkpt lat="-35.34437" lon="148.38356"><ele>343</ele></trkpt>
<trkpt lat="-35.34441" lon="148.38337"><ele>343</ele></trkpt>
<trkpt lat="-35.34467" lon="148.38292"><ele>346</ele></trkpt>
<trkpt lat="-35.34464" lon="148.38279"><ele>346</ele></trkpt>
<trkpt lat="-35.34438" lon="148.38241"><ele>343</ele></trkpt>
<trkpt lat="-35.34433" lon="148.38148"><ele>348</ele></trkpt>
<trkpt lat="-35.34427" lon="148.3813"><ele>351</ele></trkpt>
<trkpt lat="-35.34396" lon="148.38106"><ele>349</ele></trkpt>
<trkpt lat="-35.34346" lon="148.38035"><ele>359</ele></trkpt>
<trkpt lat="-35.3422" lon="148.3797"><ele>349</ele></trkpt>
<trkpt lat="-35.34183" lon="148.37933"><ele>345</ele></trkpt>
<trkpt lat="-35.34166" lon="148.37903"><ele>344</ele></trkpt>
<trkpt lat="-35.34159" lon="148.37866"><ele>347</ele></trkpt>
<trkpt lat="-35.34151" lon="148.37746"><ele>348</ele></trkpt>
<trkpt lat="-35.34152" lon="148.37736"><ele>348</ele></trkpt>
<trkpt lat="-35.34183" lon="148.37689"><ele>352</ele></trkpt>
<trkpt lat="-35.34235" lon="148.37552"><ele>350</ele></trkpt>
<trkpt lat="-35.34253" lon="148.37527"><ele>351</ele></trkpt>
<trkpt lat="-35.34266" lon="148.37497"><ele>348</ele></trkpt>
<trkpt lat="-35.34267" lon="148.37447"><ele>345</ele></trkpt>
<trkpt lat="-35.3429" lon="148.37341"><ele>343</ele></trkpt>
<trkpt lat="-35.34284" lon="148.37248"><ele>340</ele></trkpt>
<trkpt lat="-35.34284" lon="148.37147"><ele>338</ele></trkpt>
<trkpt lat="-35.343" lon="148.3706"><ele>337</ele></trkpt>
<trkpt lat="-35.34311" lon="148.37033"><ele>337</ele></trkpt>
<trkpt lat="-35.34328" lon="148.37016"><ele>337</ele></trkpt>
<trkpt lat="-35.34357" lon="148.37"><ele>337</ele></trkpt>
<trkpt lat="-35.34419" lon="148.36976"><ele>339</ele></trkpt>
<trkpt lat="-35.34458" lon="148.3698"><ele>342</ele></trkpt>
<trkpt lat="-35.34467" lon="148.36976"><ele>343</ele></trkpt>
<trkpt lat="-35.34494" lon="148.36932"><ele>343</ele></trkpt>
<trkpt lat="-35.34529" lon="148.3692"><ele>344</ele></trkpt>
<trkpt lat="-35.34613" lon="148.36918"><ele>344</ele></trkpt>
<trkpt lat="-35.34678" lon="148.36944"><ele>349</ele></trkpt>
<trkpt lat="-35.34712" lon="148.3697"><ele>355</ele></trkpt>
<trkpt lat="-35.34771" lon="148.36992"><ele>359</ele></trkpt>
<trkpt lat="-35.34865" lon="148.36991"><ele>362</ele></trkpt>
<trkpt lat="-35.34929" lon="148.36968"><ele>361</ele></trkpt>
<trkpt lat="-35.34986" lon="148.36968"><ele>360</ele></trkpt>
<trkpt lat="-35.35001" lon="148.36963"><ele>359</ele></trkpt>
<trkpt lat="-35.35071" lon="148.3696"><ele>360</ele></trkpt>
<trkpt lat="-35.35109" lon="148.36953"><ele>362</ele></trkpt>
<trkpt lat="-35.35176" lon="148.36914"><ele>360</ele></trkpt>
<trkpt lat="-35.35228" lon="148.369"><ele>365</ele></trkpt>
<trkpt lat="-35.3527" lon="148.36883"><ele>365</ele></trkpt>
<trkpt lat="-35.35318" lon="148.36846"><ele>359</ele></trkpt>
<trkpt lat="-35.3539" lon="148.36833"><ele>358</ele></trkpt>
<trkpt lat="-35.35428" lon="148.36809"><ele>359</ele></trkpt>
<trkpt lat="-35.35479" lon="148.3681"><ele>361</ele></trkpt>
<trkpt lat="-35.35511" lon="148.36801"><ele>362</ele></trkpt>
<trkpt lat="-35.35565" lon="148.36807"><ele>365</ele></trkpt>
<trkpt lat="-35.35585" lon="148.368"><ele>366</ele></trkpt>
<trkpt lat="-35.35627" lon="148.36725"><ele>371</ele></trkpt>
<trkpt lat="-35.35662" lon="148.36678"><ele>369</ele></trkpt>
<trkpt lat="-35.35754" lon="148.3659"><ele>363</ele></trkpt>
<trkpt lat="-35.35825" lon="148.36554"><ele>366</ele></trkpt>
<trkpt lat="-35.35847" lon="148.36537"><ele>366</ele></trkpt>
<trkpt lat="-35.359" lon="148.36449"><ele>364</ele></trkpt>
<trkpt lat="-35.35928" lon="148.36393"><ele>363</ele></trkpt>
<trkpt lat="-35.35938" lon="148.36358"><ele>362</ele></trkpt>
<trkpt lat="-35.35963" lon="148.3632"><ele>364</ele></trkpt>
<trkpt lat="-35.35994" lon="148.36223"><ele>366</ele></trkpt>
<trkpt lat="-35.35998" lon="148.36128"><ele>364</ele></trkpt>
<trkpt lat="-35.36008" lon="148.36052"><ele>366</ele></trkpt>
<trkpt lat="-35.36029" lon="148.35977"><ele>369</ele></trkpt>
<trkpt lat="-35.36053" lon="148.35933"><ele>373</ele></trkpt>
<trkpt lat="-35.36109" lon="148.35856"><ele>383</ele></trkpt>
<trkpt lat="-35.36162" lon="148.35753"><ele>393</ele></trkpt>
<trkpt lat="-35.36174" lon="148.35665"><ele>397</ele></trkpt>
<trkpt lat="-35.36165" lon="148.35646"><ele>397</ele></trkpt>
<trkpt lat="-35.36166" lon="148.35623"><ele>399</ele></trkpt>
<trkpt lat="-35.36172" lon="148.35566"><ele>402</ele></trkpt>
<trkpt lat="-35.36194" lon="148.35485"><ele>402</ele></trkpt>
<trkpt lat="-35.36192" lon="148.35463"><ele>402</ele></trkpt>
<trkpt lat="-35.36243" lon="148.35448"><ele>402</ele></trkpt>
<trkpt lat="-35.36251" lon="148.35433"><ele>402</ele></trkpt>
<trkpt lat="-35.3626" lon="148.354"><ele>400</ele></trkpt>
<trkpt lat="-35.3627" lon="148.35391"><ele>400</ele></trkpt>
<trkpt lat="-35.36311" lon="148.3538"><ele>400</ele></trkpt>
<trkpt lat="-35.36328" lon="148.35369"><ele>400</ele></trkpt>
<trkpt lat="-35.36355" lon="148.35329"><ele>402</ele></trkpt>
<trkpt lat="-35.36358" lon="148.35264"><ele>404</ele></trkpt>
<trkpt lat="-35.36346" lon="148.35185"><ele>403</ele></trkpt>
<trkpt lat="-35.36363" lon="148.35132"><ele>408</ele></trkpt>
<trkpt lat="-35.36372" lon="148.35061"><ele>409</ele></trkpt>
<trkpt lat="-35.36397" lon="148.34991"><ele>409</ele></trkpt>
<trkpt lat="-35.36409" lon="148.34974"><ele>409</ele></trkpt>
<trkpt lat="-35.36422" lon="148.34963"><ele>409</ele></trkpt>
<trkpt lat="-35.36463" lon="148.34944"><ele>412</ele></trkpt>
<trkpt lat="-35.36543" lon="148.34877"><ele>413</ele></trkpt>
<trkpt lat="-35.36574" lon="148.34915"><ele>414</ele></trkpt>
<trkpt lat="-35.36652" lon="148.34893"><ele>434</ele></trkpt>
<trkpt lat="-35.36666" lon="148.34918"><ele>436</ele></trkpt>
<trkpt lat="-35.36687" lon="148.34915"><ele>446</ele></trkpt>
<trkpt lat="-35.36706" lon="148.34905"><ele>456</ele></trkpt>
<trkpt lat="-35.36766" lon="148.34978"><ele>475</ele></trkpt>
<trkpt lat="-35.36785" lon="148.34992"><ele>483</ele></trkpt>
<trkpt lat="-35.36798" lon="148.34955"><ele>494</ele></trkpt>
<trkpt lat="-35.36802" lon="148.34918"><ele>500</ele></trkpt>
<trkpt lat="-35.36819" lon="148.34896"><ele>506</ele></trkpt>
<trkpt lat="-35.36849" lon="148.34934"><ele>516</ele></trkpt>
<trkpt lat="-35.36871" lon="148.34947"><ele>522</ele></trkpt>
<trkpt lat="-35.36893" lon="148.34968"><ele>526</ele></trkpt>
<trkpt lat="-35.36924" lon="148.35021"><ele>530</ele></trkpt>
<trkpt lat="-35.36965" lon="148.35106"><ele>537</ele></trkpt>
<trkpt lat="-35.36998" lon="148.3511"><ele>550</ele></trkpt>
<trkpt lat="-35.3701" lon="148.35095"><ele>555</ele></trkpt>
<trkpt lat="-35.37021" lon="148.35036"><ele>560</ele></trkpt>
<trkpt lat="-35.36966" lon="148.3487"><ele>552</ele></trkpt>
<trkpt lat="-35.36969" lon="148.34812"><ele>548</ele></trkpt>
<trkpt lat="-35.36962" lon="148.34719"><ele>527</ele></trkpt>
<trkpt lat="-35.36967" lon="148.34667"><ele>517</ele></trkpt>
<trkpt lat="-35.37014" lon="148.34661"><ele>528</ele></trkpt>
<trkpt lat="-35.37003" lon="148.3462"><ele>521</ele></trkpt>
<trkpt lat="-35.36962" lon="148.34604"><ele>509</ele></trkpt>
<trkpt lat="-35.36973" lon="148.34563"><ele>510</ele></trkpt>
<trkpt lat="-35.36931" lon="148.34478"><ele>503</ele></trkpt>
<trkpt lat="-35.36913" lon="148.34363"><ele>510</ele></trkpt>
<trkpt lat="-35.36914" lon="148.34291"><ele>514</ele></trkpt>
<trkpt lat="-35.369" lon="148.3418"><ele>515</ele></trkpt>
<trkpt lat="-35.36886" lon="148.34138"><ele>510</ele></trkpt>
<trkpt lat="-35.36869" lon="148.34029"><ele>499</ele></trkpt>
<trkpt lat="-35.3688" lon="148.33953"><ele>485</ele></trkpt>
<trkpt lat="-35.36822" lon="148.33949"><ele>471</ele></trkpt>
<trkpt lat="-35.36791" lon="148.33939"><ele>461</ele></trkpt>
<trkpt lat="-35.36749" lon="148.33949"><ele>451</ele></trkpt>
<trkpt lat="-35.3673" lon="148.33946"><ele>452</ele></trkpt>
<trkpt lat="-35.36724" lon="148.33939"><ele>451</ele></trkpt>
<trkpt lat="-35.36756" lon="148.33693"><ele>462</ele></trkpt>
<trkpt lat="-35.36726" lon="148.33609"><ele>476</ele></trkpt>
<trkpt lat="-35.36715" lon="148.33563"><ele>483</ele></trkpt>
<trkpt lat="-35.36715" lon="148.33467"><ele>497</ele></trkpt>
<trkpt lat="-35.36743" lon="148.33399"><ele>513</ele></trkpt>
<trkpt lat="-35.36772" lon="148.33357"><ele>527</ele></trkpt>
<trkpt lat="-35.36857" lon="148.33289"><ele>548</ele></trkpt>
<trkpt lat="-35.36893" lon="148.33252"><ele>553</ele></trkpt>
<trkpt lat="-35.36943" lon="148.3318"><ele>555</ele></trkpt>
<trkpt lat="-35.36961" lon="148.33135"><ele>558</ele></trkpt>
<trkpt lat="-35.3698" lon="148.33041"><ele>563</ele></trkpt>
<trkpt lat="-35.36982" lon="148.32988"><ele>563</ele></trkpt>
<trkpt lat="-35.3697" lon="148.32863"><ele>568</ele></trkpt>
<trkpt lat="-35.3697" lon="148.32673"><ele>580</ele></trkpt>
<trkpt lat="-35.36992" lon="148.32562"><ele>573</ele></trkpt>
<trkpt lat="-35.36998" lon="148.32545"><ele>571</ele></trkpt>
<trkpt lat="-35.37042" lon="148.32494"><ele>571</ele></trkpt>
<trkpt lat="-35.37061" lon="148.32381"><ele>563</ele></trkpt>
<trkpt lat="-35.37073" lon="148.32351"><ele>558</ele></trkpt>
<trkpt lat="-35.37084" lon="148.32327"><ele>553</ele></trkpt>
<trkpt lat="-35.37113" lon="148.3229"><ele>554</ele></trkpt>
<trkpt lat="-35.37143" lon="148.32222"><ele>542</ele></trkpt>
<trkpt lat="-35.37165" lon="148.32187"><ele>531</ele></trkpt>
<trkpt lat="-35.37194" lon="148.32107"><ele>521</ele></trkpt>
<trkpt lat="-35.37215" lon="148.31966"><ele>498</ele></trkpt>
<trkpt lat="-35.37256" lon="148.31783"><ele>473</ele></trkpt>
<trkpt lat="-35.37249" lon="148.31677"><ele>469</ele></trkpt>
<trkpt lat="-35.37269" lon="148.3161"><ele>465</ele></trkpt>
<trkpt lat="-35.37279" lon="148.31587"><ele>463</ele></trkpt>
<trkpt lat="-35.37295" lon="148.3157"><ele>462</ele></trkpt>
<trkpt lat="-35.37302" lon="148.3154"><ele>460</ele></trkpt>
<trkpt lat="-35.37316" lon="148.3152"><ele>458</ele></trkpt>
<trkpt lat="-35.37337" lon="148.31503"><ele>456</ele></trkpt>
<trkpt lat="-35.37344" lon="148.31483"><ele>456</ele></trkpt>
<trkpt lat="-35.37343" lon="148.31464"><ele>454</ele></trkpt>
<trkpt lat="-35.37354" lon="148.31416"><ele>452</ele></trkpt>
<trkpt lat="-35.37349" lon="148.31302"><ele>439</ele></trkpt>
<trkpt lat="-35.37331" lon="148.31176"><ele>437</ele></trkpt>
<trkpt lat="-35.37318" lon="148.31153"><ele>433</ele></trkpt>
<trkpt lat="-35.37284" lon="148.31118"><ele>426</ele></trkpt>
<trkpt lat="-35.37262" lon="148.31085"><ele>423</ele></trkpt>
<trkpt lat="-35.37256" lon="148.31064"><ele>421</ele></trkpt>
<trkpt lat="-35.37235" lon="148.31041"><ele>418</ele></trkpt>
<trkpt lat="-35.37223" lon="148.3104"><ele>418</ele></trkpt>
<trkpt lat="-35.37203" lon="148.31055"><ele>419</ele></trkpt>
<trkpt lat="-35.37177" lon="148.31067"><ele>418</ele></trkpt>
<trkpt lat="-35.37166" lon="148.31064"><ele>418</ele></trkpt>
<trkpt lat="-35.37159" lon="148.31056"><ele>419</ele></trkpt>
<trkpt lat="-35.37145" lon="148.31055"><ele>420</ele></trkpt>
<trkpt lat="-35.37115" lon="148.31043"><ele>424</ele></trkpt>
<trkpt lat="-35.37055" lon="148.31043"><ele>430</ele></trkpt>
<trkpt lat="-35.37015" lon="148.31029"><ele>434</ele></trkpt>
<trkpt lat="-35.36939" lon="148.30981"><ele>434</ele></trkpt>
<trkpt lat="-35.36899" lon="148.30967"><ele>433</ele></trkpt>
<trkpt lat="-35.36792" lon="148.30944"><ele>434</ele></trkpt>
<trkpt lat="-35.36771" lon="148.30933"><ele>434</ele></trkpt>
<trkpt lat="-35.3675" lon="148.30907"><ele>433</ele></trkpt>
<trkpt lat="-35.36734" lon="148.30875"><ele>431</ele></trkpt>
<trkpt lat="-35.36672" lon="148.30653"><ele>418</ele></trkpt>
<trkpt lat="-35.36584" lon="148.30526"><ele>404</ele></trkpt>
<trkpt lat="-35.36575" lon="148.30507"><ele>402</ele></trkpt>
<trkpt lat="-35.3657" lon="148.30484"><ele>400</ele></trkpt>
<trkpt lat="-35.3658" lon="148.30406"><ele>396</ele></trkpt>
<trkpt lat="-35.36579" lon="148.30363"><ele>391</ele></trkpt>
<trkpt lat="-35.36516" lon="148.30203"><ele>381</ele></trkpt>
<trkpt lat="-35.36482" lon="148.30138"><ele>375</ele></trkpt>
<trkpt lat="-35.36474" lon="148.30077"><ele>372</ele></trkpt>
<trkpt lat="-35.36394" lon="148.29827"><ele>384</ele></trkpt>
<trkpt lat="-35.36336" lon="148.29699"><ele>393</ele></trkpt>
<trkpt lat="-35.36324" lon="148.29634"><ele>394</ele></trkpt>
<trkpt lat="-35.36356" lon="148.29445"><ele>379</ele></trkpt>
<trkpt lat="-35.36358" lon="148.29342"><ele>385</ele></trkpt>
<trkpt lat="-35.36373" lon="148.293"><ele>391</ele></trkpt>
<trkpt lat="-35.36489" lon="148.2919"><ele>384</ele></trkpt>
<trkpt lat="-35.36547" lon="148.29097"><ele>370</ele></trkpt>
<trkpt lat="-35.36567" lon="148.29053"><ele>364</ele></trkpt>
<trkpt lat="-35.36577" lon="148.28982"><ele>354</ele></trkpt>
<trkpt lat="-35.36536" lon="148.28692"><ele>306</ele></trkpt>
<trkpt lat="-35.36514" lon="148.28465"><ele>316</ele></trkpt>
<trkpt lat="-35.36519" lon="148.28436"><ele>319</ele></trkpt>
<trkpt lat="-35.36447" lon="148.28307"><ele>325</ele></trkpt>
<trkpt lat="-35.36431" lon="148.28256"><ele>324</ele></trkpt>
<trkpt lat="-35.36416" lon="148.28168"><ele>321</ele></trkpt>
<trkpt lat="-35.36417" lon="148.28077"><ele>314</ele></trkpt>
<trkpt lat="-35.3644" lon="148.27971"><ele>312</ele></trkpt>
<trkpt lat="-35.36579" lon="148.2749"><ele>283</ele></trkpt>
<trkpt lat="-35.36619" lon="148.27464"><ele>284</ele></trkpt>
<trkpt lat="-35.36763" lon="148.27329"><ele>282</ele></trkpt>
<trkpt lat="-35.3679" lon="148.27292"><ele>282</ele></trkpt>
<trkpt lat="-35.36827" lon="148.2722"><ele>281</ele></trkpt>
<trkpt lat="-35.36912" lon="148.27029"><ele>288</ele></trkpt>
<trkpt lat="-35.3695" lon="148.26933"><ele>286</ele></trkpt>
<trkpt lat="-35.36995" lon="148.26715"><ele>288</ele></trkpt>
<trkpt lat="-35.37009" lon="148.26672"><ele>288</ele></trkpt>
<trkpt lat="-35.37056" lon="148.26589"><ele>285</ele></trkpt>
<trkpt lat="-35.37084" lon="148.26554"><ele>284</ele></trkpt>
<trkpt lat="-35.37123" lon="148.26524"><ele>285</ele></trkpt>
<trkpt lat="-35.37148" lon="148.26497"><ele>285</ele></trkpt>
<trkpt lat="-35.37177" lon="148.26452"><ele>285</ele></trkpt>
<trkpt lat="-35.37248" lon="148.26289"><ele>288</ele></trkpt>
<trkpt lat="-35.37266" lon="148.26217"><ele>289</ele></trkpt>
<trkpt lat="-35.37285" lon="148.26105"><ele>294</ele></trkpt>
<trkpt lat="-35.37323" lon="148.2598"><ele>291</ele></trkpt>
<trkpt lat="-35.37418" lon="148.25812"><ele>288</ele></trkpt>
<trkpt lat="-35.37443" lon="148.25741"><ele>290</ele></trkpt>
<trkpt lat="-35.37457" lon="148.25724"><ele>289</ele></trkpt>
<trkpt lat="-35.37476" lon="148.2572"><ele>288</ele></trkpt>
<trkpt lat="-35.3752" lon="148.25732"><ele>287</ele></trkpt>
<trkpt lat="-35.37553" lon="148.25728"><ele>288</ele></trkpt>
<trkpt lat="-35.37678" lon="148.25665"><ele>291</ele></trkpt>
<trkpt lat="-35.37727" lon="148.25649"><ele>290</ele></trkpt>
<trkpt lat="-35.37795" lon="148.25635"><ele>289</ele></trkpt>
<trkpt lat="-35.37822" lon="148.25621"><ele>288</ele></trkpt>
<trkpt lat="-35.37848" lon="148.25593"><ele>293</ele></trkpt>
<trkpt lat="-35.37961" lon="148.25356"><ele>308</ele></trkpt>
<trkpt lat="-35.38147" lon="148.25063"><ele>310</ele></trkpt>
<trkpt lat="-35.38176" lon="148.2503"><ele>307</ele></trkpt>
<trkpt lat="-35.38219" lon="148.25005"><ele>305</ele></trkpt>
<trkpt lat="-35.38285" lon="148.2498"><ele>308</ele></trkpt>
<trkpt lat="-35.38374" lon="148.24959"><ele>309</ele></trkpt>
<trkpt lat="-35.385" lon="148.24911"><ele>296</ele></trkpt>
<trkpt lat="-35.38602" lon="148.24884"><ele>296</ele></trkpt>
<trkpt lat="-35.38878" lon="148.24863"><ele>302</ele></trkpt>
<trkpt lat="-35.38896" lon="148.24842"><ele>299</ele></trkpt>
<trkpt lat="-35.38919" lon="148.24769"><ele>294</ele></trkpt>
<trkpt lat="-35.3909" lon="148.24764"><ele>293</ele></trkpt>
<trkpt lat="-35.39206" lon="148.24752"><ele>294</ele></trkpt>
<trkpt lat="-35.39383" lon="148.24753"><ele>302</ele></trkpt>
<trkpt lat="-35.39532" lon="148.24802"><ele>301</ele></trkpt>
<trkpt lat="-35.39576" lon="148.24807"><ele>300</ele></trkpt>
<trkpt lat="-35.397" lon="148.2477"><ele>300</ele></trkpt>
<trkpt lat="-35.39715" lon="148.24771"><ele>299</ele></trkpt>
<trkpt lat="-35.3972" lon="148.2478"><ele>298</ele></trkpt>
<trkpt lat="-35.39732" lon="148.24772"><ele>298</ele></trkpt>
<trkpt lat="-35.39746" lon="148.24748"><ele>299</ele></trkpt>
<trkpt lat="-35.39836" lon="148.24583"><ele>305</ele></trkpt>
<trkpt lat="-35.39802" lon="148.24552"><ele>314</ele></trkpt>
<trkpt lat="-35.39839" lon="148.24473"><ele>321</ele></trkpt>
<trkpt lat="-35.3985" lon="148.2451"><ele>322</ele></trkpt>
<trkpt lat="-35.39858" lon="148.2452"><ele>322</ele></trkpt>
<trkpt lat="-35.39971" lon="148.24613"><ele>337</ele></trkpt>
<trkpt lat="-35.39984" lon="148.24556"><ele>351</ele></trkpt>
<trkpt lat="-35.39953" lon="148.24489"><ele>355</ele></trkpt>
<trkpt lat="-35.39956" lon="148.24443"><ele>361</ele></trkpt>
<trkpt lat="-35.39949" lon="148.24413"><ele>363</ele></trkpt>
<trkpt lat="-35.39968" lon="148.24355"><ele>375</ele></trkpt>
<trkpt lat="-35.39988" lon="148.24331"><ele>385</ele></trkpt>
<trkpt lat="-35.40027" lon="148.24347"><ele>381</ele></trkpt>
<trkpt lat="-35.40079" lon="148.24269"><ele>382</ele></trkpt>
<trkpt lat="-35.40111" lon="148.24211"><ele>381</ele></trkpt>
<trkpt lat="-35.40129" lon="148.24156"><ele>383</ele></trkpt>
<trkpt lat="-35.40143" lon="148.2413"><ele>384</ele></trkpt>
<trkpt lat="-35.40183" lon="148.24081"><ele>383</ele></trkpt>
<trkpt lat="-35.40198" lon="148.24023"><ele>383</ele></trkpt>
<trkpt lat="-35.40197" lon="148.23968"><ele>391</ele></trkpt>
</trkseg></trk>
</gpx>
