<?xml version="1.0" encoding="UTF-8"?>
<gpx xmlns="http://www.topografix.com/GPX/1/1" version="1.1" creator="Split from the Hume and Hovell Full Track Alignment GPX (NSW Crown Lands)">
<metadata><name>Hume and Hovell Track, Section 5 - Tin Mines Campground to Hovell Tree</name></metadata>
<trk><name>Section 5 - Tin Mines Campground to Hovell Tree</name><trkseg>
<trkpt lat="-35.86067" lon="147.4753"><ele>509</ele></trkpt>
<trkpt lat="-35.86065" lon="147.47508"><ele>509</ele></trkpt>
<trkpt lat="-35.86046" lon="147.47446"><ele>512</ele></trkpt>
<trkpt lat="-35.86037" lon="147.47351"><ele>516</ele></trkpt>
<trkpt lat="-35.86017" lon="147.47323"><ele>519</ele></trkpt>
<trkpt lat="-35.86014" lon="147.47275"><ele>523</ele></trkpt>
<trkpt lat="-35.86017" lon="147.47194"><ele>528</ele></trkpt>
<trkpt lat="-35.85985" lon="147.47129"><ele>532</ele></trkpt>
<trkpt lat="-35.85959" lon="147.47009"><ele>538</ele></trkpt>
<trkpt lat="-35.85956" lon="147.46948"><ele>539</ele></trkpt>
<trkpt lat="-35.85934" lon="147.46845"><ele>540</ele></trkpt>
<trkpt lat="-35.8594" lon="147.46766"><ele>541</ele></trkpt>
<trkpt lat="-35.85939" lon="147.46743"><ele>541</ele></trkpt>
<trkpt lat="-35.8593" lon="147.46717"><ele>542</ele></trkpt>
<trkpt lat="-35.85901" lon="147.46692"><ele>545</ele></trkpt>
<trkpt lat="-35.85844" lon="147.46676"><ele>550</ele></trkpt>
<trkpt lat="-35.85767" lon="147.46701"><ele>556</ele></trkpt>
<trkpt lat="-35.85733" lon="147.46696"><ele>559</ele></trkpt>
<trkpt lat="-35.85709" lon="147.46686"><ele>562</ele></trkpt>
<trkpt lat="-35.85653" lon="147.46683"><ele>565</ele></trkpt>
<trkpt lat="-35.85455" lon="147.46613"><ele>567</ele></trkpt>
<trkpt lat="-35.8541" lon="147.4658"><ele>568</ele></trkpt>
<trkpt lat="-35.85393" lon="147.46561"><ele>570</ele></trkpt>
<trkpt lat="-35.85358" lon="147.46467"><ele>575</ele></trkpt>
<trkpt lat="-35.85324" lon="147.46405"><ele>576</ele></trkpt>
<trkpt lat="-35.85272" lon="147.46381"><ele>578</ele></trkpt>
<trkpt lat="-35.85192" lon="147.46361"><ele>578</ele></trkpt>
<trkpt lat="-35.85141" lon="147.46354"><ele>576</ele></trkpt>
<trkpt lat="-35.85133" lon="147.46346"><ele>575</ele></trkpt>
<trkpt lat="-35.85133" lon="147.46323"><ele>575</ele></trkpt>
<trkpt lat="-35.85143" lon="147.46297"><ele>575</ele></trkpt>
<trkpt lat="-35.85153" lon="147.46251"><ele>575</ele></trkpt>
<trkpt lat="-35.8516" lon="147.46163"><ele>575</ele></trkpt>
<trkpt lat="-35.85201" lon="147.46103"><ele>579</ele></trkpt>
<trkpt lat="-35.85203" lon="147.46082"><ele>580</ele></trkpt>
<trkpt lat="-35.85198" lon="147.46065"><ele>580</ele></trkpt>
<trkpt lat="-35.85216" lon="147.46044"><ele>582</ele></trkpt>
<trkpt lat="-35.85245" lon="147.45998"><ele>586</ele></trkpt>
<trkpt lat="-35.85303" lon="147.4594"><ele>587</ele></trkpt>
<trkpt lat="-35.85318" lon="147.45934"><ele>588</ele></trkpt>
<trkpt lat="-35.85349" lon="147.45933"><ele>590</ele></trkpt>
<trkpt lat="-35.85362" lon="147.45924"><ele>591</ele></trkpt>
<trkpt lat="-35.85424" lon="147.45806"><ele>592</ele></trkpt>
<trkpt lat="-35.85478" lon="147.45732"><ele>593</ele></trkpt>
<trkpt lat="-35.85498" lon="147.4571"><ele>593</ele></trkpt>
<trkpt lat="-35.85518" lon="147.457"><ele>594</ele></trkpt>
<trkpt lat="-35.85577" lon="147.45687"><ele>600</ele></trkpt>
<trkpt lat="-35.85629" lon="147.45669"><ele>602</ele></trkpt>
<trkpt lat="-35.85728" lon="147.45625"><ele>606</ele></trkpt>
<trkpt lat="-35.85789" lon="147.4559"><ele>609</ele></trkpt>
<trkpt lat="-35.85815" lon="147.4559"><ele>612</ele></trkpt>
<trkpt lat="-35.85827" lon="147.45582"><ele>613</ele></trkpt>
<trkpt lat="-35.8584" lon="147.45561"><ele>613</ele></trkpt>
<trkpt lat="-35.85876" lon="147.45525"><ele>614</ele></trkpt>
<trkpt lat="-35.85902" lon="147.45475"><ele>616</ele></trkpt>
<trkpt lat="-35.85936" lon="147.45445"><ele>618</ele></trkpt>
<trkpt lat="-35.86025" lon="147.45387"><ele>623</ele></trkpt>
<trkpt lat="-35.86062" lon="147.45337"><ele>626</ele></trkpt>
<trkpt lat="-35.86083" lon="147.45281"><ele>629</ele></trkpt>
<trkpt lat="-35.86135" lon="147.45208"><ele>635</ele></trkpt>
<trkpt lat="-35.86174" lon="147.4517"><ele>638</ele></trkpt>
<trkpt lat="-35.8618" lon="147.45155"><ele>637</ele></trkpt>
<trkpt lat="-35.86204" lon="147.45142"><ele>638</ele></trkpt>
<trkpt lat="-35.86224" lon="147.4511"><ele>637</ele></trkpt>
<trkpt lat="-35.86253" lon="147.45077"><ele>638</ele></trkpt>
<trkpt lat="-35.86325" lon="147.4506"><ele>646</ele></trkpt>
<trkpt lat="-35.86388" lon="147.45016"><ele>648</ele></trkpt>
<trkpt lat="-35.86447" lon="147.44955"><ele>650</ele></trkpt>
<trkpt lat="-35.865" lon="147.44915"><ele>652</ele></trkpt>
<trkpt lat="-35.86522" lon="147.44859"><ele>656</ele></trkpt>
<trkpt lat="-35.86533" lon="147.44797"><ele>660</ele></trkpt>
<trkpt lat="-35.86534" lon="147.44727"><ele>664</ele></trkpt>
<trkpt lat="-35.865" lon="147.44584"><ele>672</ele></trkpt>
<trkpt lat="-35.86475" lon="147.44555"><ele>673</ele></trkpt>
<trkpt lat="-35.86434" lon="147.44533"><ele>674</ele></trkpt>
<trkpt lat="-35.86371" lon="147.4454"><ele>674</ele></trkpt>
<trkpt lat="-35.86334" lon="147.44519"><ele>677</ele></trkpt>
<trkpt lat="-35.863" lon="147.44488"><ele>675</ele></trkpt>
<trkpt lat="-35.8629" lon="147.44392"><ele>682</ele></trkpt>
<trkpt lat="-35.8625" lon="147.44276"><ele>687</ele></trkpt>
<trkpt lat="-35.86266" lon="147.44204"><ele>692</ele></trkpt>
<trkpt lat="-35.86253" lon="147.44178"><ele>693</ele></trkpt>
<trkpt lat="-35.86223" lon="147.44156"><ele>691</ele></trkpt>
<trkpt lat="-35.86192" lon="147.44119"><ele>690</ele></trkpt>
<trkpt lat="-35.86177" lon="147.44095"><ele>691</ele></trkpt>
<trkpt lat="-35.86163" lon="147.44056"><ele>692</ele></trkpt>
<trkpt lat="-35.86149" lon="147.43923"><ele>700</ele></trkpt>
<trkpt lat="-35.86124" lon="147.43858"><ele>702</ele></trkpt>
<trkpt lat="-35.8612" lon="147.43834"><ele>703</ele></trkpt>
<trkpt lat="-35.86117" lon="147.4365"><ele>709</ele></trkpt>
<trkpt lat="-35.86121" lon="147.43501"><ele>718</ele></trkpt>
<trkpt lat="-35.86112" lon="147.43456"><ele>720</ele></trkpt>
<trkpt lat="-35.86121" lon="147.43394"><ele>721</ele></trkpt>
<trkpt lat="-35.86116" lon="147.43373"><ele>721</ele></trkpt>
<trkpt lat="-35.86064" lon="147.43298"><ele>723</ele></trkpt>
<trkpt lat="-35.86046" lon="147.4326"><ele>724</ele></trkpt>
<trkpt lat="-35.86035" lon="147.43205"><ele>725</ele></trkpt>
<trkpt lat="-35.86028" lon="147.43108"><ele>726</ele></trkpt>
<trkpt lat="-35.86018" lon="147.4308"><ele>726</ele></trkpt>
<trkpt lat="-35.86015" lon="147.43053"><ele>727</ele></trkpt>
<trkpt lat="-35.8602" lon="147.43013"><ele>729</ele></trkpt>
<trkpt lat="-35.86014" lon="147.42905"><ele>732</ele></trkpt>
<trkpt lat="-35.86008" lon="147.42883"><ele>732</ele></trkpt>
<trkpt lat="-35.86007" lon="147.42801"><ele>734</ele></trkpt>
<trkpt lat="-35.86016" lon="147.42771"><ele>736</ele></trkpt>
<trkpt lat="-35.86035" lon="147.42741"><ele>739</ele></trkpt>
<trkpt lat="-35.86056" lon="147.42621"><ele>748</ele></trkpt>
<trkpt lat="-35.86081" lon="147.42534"><ele>753</ele></trkpt>
<trkpt lat="-35.86089" lon="147.42483"><ele>755</ele></trkpt>
<trkpt lat="-35.86076" lon="147.42395"><ele>762</ele></trkpt>
<trkpt lat="-35.86078" lon="147.42364"><ele>764</ele></trkpt>
<trkpt lat="-35.86091" lon="147.42336"><ele>766</ele></trkpt>
<trkpt lat="-35.86086" lon="147.42277"><ele>771</ele></trkpt>
<trkpt lat="-35.86044" lon="147.42174"><ele>781</ele></trkpt>
<trkpt lat="-35.86002" lon="147.42012"><ele>793</ele></trkpt>
<trkpt lat="-35.86008" lon="147.41988"><ele>796</ele></trkpt>
<trkpt lat="-35.8602" lon="147.41981"><ele>798</ele></trkpt>
<trkpt lat="-35.86032" lon="147.41982"><ele>800</ele></trkpt>
<trkpt lat="-35.86081" lon="147.42021"><ele>801</ele></trkpt>
<trkpt lat="-35.86141" lon="147.42046"><ele>798</ele></trkpt>
<trkpt lat="-35.86155" lon="147.42036"><ele>799</ele></trkpt>
<trkpt lat="-35.86151" lon="147.42009"><ele>804</ele></trkpt>
<trkpt lat="-35.86136" lon="147.41982"><ele>806</ele></trkpt>
<trkpt lat="-35.86114" lon="147.41959"><ele>808</ele></trkpt>
<trkpt lat="-35.86061" lon="147.41822"><ele>820</ele></trkpt>
<trkpt lat="-35.86056" lon="147.41774"><ele>824</ele></trkpt>
<trkpt lat="-35.86075" lon="147.41722"><ele>830</ele></trkpt>
<trkpt lat="-35.86118" lon="147.41666"><ele>839</ele></trkpt>
<trkpt lat="-35.86137" lon="147.41646"><ele>840</ele></trkpt>
<trkpt lat="-35.86162" lon="147.4163"><ele>842</ele></trkpt>
<trkpt lat="-35.86217" lon="147.41611"><ele>843</ele></trkpt>
<trkpt lat="-35.86221" lon="147.41578"><ele>848</ele></trkpt>
<trkpt lat="-35.8618" lon="147.41467"><ele>858</ele></trkpt>
<trkpt lat="-35.86151" lon="147.41419"><ele>863</ele></trkpt>
<trkpt lat="-35.86131" lon="147.4136"><ele>870</ele></trkpt>
<trkpt lat="-35.86118" lon="147.41338"><ele>872</ele></trkpt>
<trkpt lat="-35.86056" lon="147.41286"><ele>870</ele></trkpt>
<trkpt lat="-35.86053" lon="147.41244"><ele>873</ele></trkpt>
<trkpt lat="-35.86104" lon="147.4121"><ele>879</ele></trkpt>
<trkpt lat="-35.86136" lon="147.41172"><ele>882</ele></trkpt>
<trkpt lat="-35.86145" lon="147.41126"><ele>882</ele></trkpt>
<trkpt lat="-35.86153" lon="147.41117"><ele>882</ele></trkpt>
<trkpt lat="-35.86217" lon="147.41082"><ele>885</ele></trkpt>
<trkpt lat="-35.86238" lon="147.41076"><ele>885</ele></trkpt>
<trkpt lat="-35.86257" lon="147.41081"><ele>886</ele></trkpt>
<trkpt lat="-35.86288" lon="147.41103"><ele>886</ele></trkpt>
<trkpt lat="-35.86333" lon="147.41119"><ele>885</ele></trkpt>
<trkpt lat="-35.86364" lon="147.41124"><ele>885</ele></trkpt>
<trkpt lat="-35.86374" lon="147.41117"><ele>884</ele></trkpt>
<trkpt lat="-35.86379" lon="147.41108"><ele>884</ele></trkpt>
<trkpt lat="-35.86378" lon="147.41086"><ele>883</ele></trkpt>
<trkpt lat="-35.86369" lon="147.41031"><ele>881</ele></trkpt>
<trkpt lat="-35.86368" lon="147.40993"><ele>879</ele></trkpt>
<trkpt lat="-35.8638" lon="147.4096"><ele>877</ele></trkpt>
<trkpt lat="-35.86394" lon="147.40942"><ele>875</ele></trkpt>
<trkpt lat="-35.86394" lon="147.40925"><ele>874</ele></trkpt>
<trkpt lat="-35.8639" lon="147.40904"><ele>874</ele></trkpt>
<trkpt lat="-35.86381" lon="147.40891"><ele>873</ele></trkpt>
<trkpt lat="-35.86373" lon="147.40775"><ele>869</ele></trkpt>
<trkpt lat="-35.86365" lon="147.40748"><ele>868</ele></trkpt>
<trkpt lat="-35.863" lon="147.40626"><ele>857</ele></trkpt>
<trkpt lat="-35.86269" lon="147.40588"><ele>855</ele></trkpt>
<trkpt lat="-35.86251" lon="147.40539"><ele>855</ele></trkpt>
<trkpt lat="-35.86234" lon="147.40512"><ele>855</ele></trkpt>
<trkpt lat="-35.86227" lon="147.40475"><ele>857</ele></trkpt>
<trkpt lat="-35.86198" lon="147.4039"><ele>860</ele></trkpt>
<trkpt lat="-35.86196" lon="147.40347"><ele>860</ele></trkpt>
<trkpt lat="-35.86175" lon="147.40323"><ele>860</ele></trkpt>
<trkpt lat="-35.86158" lon="147.40322"><ele>861</ele></trkpt>
<trkpt lat="-35.86143" lon="147.40313"><ele>861</ele></trkpt>
<trkpt lat="-35.86113" lon="147.40234"><ele>861</ele></trkpt>
<trkpt lat="-35.86109" lon="147.40184"><ele>860</ele></trkpt>
<trkpt lat="-35.86123" lon="147.40104"><ele>855</ele></trkpt>
<trkpt lat="-35.86187" lon="147.40038"><ele>846</ele></trkpt>
<trkpt lat="-35.86191" lon="147.40027"><ele>845</ele></trkpt>
<trkpt lat="-35.86195" lon="147.39939"><ele>843</ele></trkpt>
<trkpt lat="-35.86216" lon="147.39912"><ele>841</ele></trkpt>
<trkpt lat="-35.86271" lon="147.39887"><ele>838</ele></trkpt>
<trkpt lat="-35.86318" lon="147.39853"><ele>834</ele></trkpt>
<trkpt lat="-35.8633" lon="147.39803"><ele>831</ele></trkpt>
<trkpt lat="-35.86329" lon="147.39747"><ele>826</ele></trkpt>
<trkpt lat="-35.86322" lon="147.39715"><ele>821</ele></trkpt>
<trkpt lat="-35.86312" lon="147.39695"><ele>818</ele></trkpt>
<trkpt lat="-35.86276" lon="147.39653"><ele>813</ele></trkpt>
<trkpt lat="-35.86236" lon="147.39593"><ele>805</ele></trkpt>
<trkpt lat="-35.86218" lon="147.39525"><ele>800</ele></trkpt>
<trkpt lat="-35.86201" lon="147.395"><ele>797</ele></trkpt>
<trkpt lat="-35.86178" lon="147.39478"><ele>796</ele></trkpt>
<trkpt lat="-35.86161" lon="147.39442"><ele>797</ele></trkpt>
<trkpt lat="-35.86138" lon="147.39379"><ele>797</ele></trkpt>
<trkpt lat="-35.86147" lon="147.39345"><ele>799</ele></trkpt>
<trkpt lat="-35.86148" lon="147.39265"><ele>795</ele></trkpt>
<trkpt lat="-35.86059" lon="147.391"><ele>787</ele></trkpt>
<trkpt lat="-35.8603" lon="147.39024"><ele>783</ele></trkpt>
<trkpt lat="-35.86003" lon="147.38928"><ele>776</ele></trkpt>
<trkpt lat="-35.86014" lon="147.38839"><ele>775</ele></trkpt>
<trkpt lat="-35.86052" lon="147.38709"><ele>777</ele></trkpt>
<trkpt lat="-35.86053" lon="147.38662"><ele>775</ele></trkpt>
<trkpt lat="-35.86033" lon="147.38628"><ele>772</ele></trkpt>
<trkpt lat="-35.85981" lon="147.38579"><ele>765</ele></trkpt>
<trkpt lat="-35.85974" lon="147.38532"><ele>762</ele></trkpt>
<trkpt lat="-35.85991" lon="147.38462"><ele>759</ele></trkpt>
<trkpt lat="-35.86016" lon="147.38414"><ele>753</ele></trkpt>
<trkpt lat="-35.86061" lon="147.38353"><ele>745</ele></trkpt>
<trkpt lat="-35.86052" lon="147.38306"><ele>742</ele></trkpt>
<trkpt lat="-35.86059" lon="147.38254"><ele>739</ele></trkpt>
<trkpt lat="-35.86057" lon="147.38213"><ele>737</ele></trkpt>
<trkpt lat="-35.86049" lon="147.38198"><ele>737</ele></trkpt>
<trkpt lat="-35.85954" lon="147.3812"><ele>740</ele></trkpt>
<trkpt lat="-35.85923" lon="147.38079"><ele>741</ele></trkpt>
<trkpt lat="-35.85948" lon="147.37984"><ele>727</ele></trkpt>
<trkpt lat="-35.86009" lon="147.37867"><ele>711</ele></trkpt>
<trkpt lat="-35.86044" lon="147.37841"><ele>707</ele></trkpt>
<trkpt lat="-35.86138" lon="147.37754"><ele>701</ele></trkpt>
<trkpt lat="-35.86221" lon="147.37614"><ele>687</ele></trkpt>
<trkpt lat="-35.86304" lon="147.37511"><ele>682</ele></trkpt>
<trkpt lat="-35.8633" lon="147.37471"><ele>681</ele></trkpt>
<trkpt lat="-35.86342" lon="147.3744"><ele>678</ele></trkpt>
<trkpt lat="-35.86436" lon="147.37339"><ele>666</ele></trkpt>
<trkpt lat="-35.86531" lon="147.3726"><ele>661</ele></trkpt>
<trkpt lat="-35.86597" lon="147.37214"><ele>660</ele></trkpt>
<trkpt lat="-35.8674" lon="147.37033"><ele>659</ele></trkpt>
<trkpt lat="-35.86801" lon="147.36986"><ele>655</ele></trkpt>
<trkpt lat="-35.86871" lon="147.36913"><ele>646</ele></trkpt>
<trkpt lat="-35.86992" lon="147.36716"><ele>643</ele></trkpt>
<trkpt lat="-35.87039" lon="147.36666"><ele>644</ele></trkpt>
<trkpt lat="-35.87055" lon="147.36662"><ele>643</ele></trkpt>
<trkpt lat="-35.87098" lon="147.36636"><ele>639</ele></trkpt>
<trkpt lat="-35.87174" lon="147.3661"><ele>637</ele></trkpt>
<trkpt lat="-35.87208" lon="147.36585"><ele>639</ele></trkpt>
<trkpt lat="-35.87287" lon="147.3655"><ele>645</ele></trkpt>
<trkpt lat="-35.8732" lon="147.36527"><ele>647</ele></trkpt>
<trkpt lat="-35.87378" lon="147.36431"><ele>644</ele></trkpt>
<trkpt lat="-35.87446" lon="147.36365"><ele>640</ele></trkpt>
<trkpt lat="-35.87472" lon="147.36311"><ele>641</ele></trkpt>
<trkpt lat="-35.87501" lon="147.3627"><ele>644</ele></trkpt>
<trkpt lat="-35.87528" lon="147.36261"><ele>645</ele></trkpt>
<trkpt lat="-35.87579" lon="147.36272"><ele>644</ele></trkpt>
<trkpt lat="-35.87624" lon="147.3629"><ele>641</ele></trkpt>
<trkpt lat="-35.87759" lon="147.3639"><ele>631</ele></trkpt>
<trkpt lat="-35.8784" lon="147.36441"><ele>625</ele></trkpt>
<trkpt lat="-35.87901" lon="147.36444"><ele>621</ele></trkpt>
<trkpt lat="-35.87915" lon="147.3645"><ele>620</ele></trkpt>
<trkpt lat="-35.8802" lon="147.36438"><ele>623</ele></trkpt>
<trkpt lat="-35.88249" lon="147.3638"><ele>628</ele></trkpt>
<trkpt lat="-35.88368" lon="147.36363"><ele>636</ele></trkpt>
<trkpt lat="-35.884" lon="147.36379"><ele>639</ele></trkpt>
<trkpt lat="-35.88439" lon="147.36411"><ele>640</ele></trkpt>
<trkpt lat="-35.88487" lon="147.36396"><ele>645</ele></trkpt>
<trkpt lat="-35.88514" lon="147.36381"><ele>647</ele></trkpt>
<trkpt lat="-35.88535" lon="147.36354"><ele>650</ele></trkpt>
<trkpt lat="-35.88571" lon="147.36261"><ele>654</ele></trkpt>
<trkpt lat="-35.88582" lon="147.36219"><ele>656</ele></trkpt>
<trkpt lat="-35.88595" lon="147.36199"><ele>656</ele></trkpt>
<trkpt lat="-35.88631" lon="147.36164"><ele>656</ele></trkpt>
<trkpt lat="-35.88646" lon="147.36128"><ele>656</ele></trkpt>
<trkpt lat="-35.88655" lon="147.36051"><ele>658</ele></trkpt>
<trkpt lat="-35.88667" lon="147.36026"><ele>658</ele></trkpt>
<trkpt lat="-35.88695" lon="147.35996"><ele>659</ele></trkpt>
<trkpt lat="-35.88734" lon="147.35972"><ele>660</ele></trkpt>
<trkpt lat="-35.88809" lon="147.35963"><ele>666</ele></trkpt>
<trkpt lat="-35.88851" lon="147.35987"><ele>668</ele></trkpt>
<trkpt lat="-35.88899" lon="147.35987"><ele>674</ele></trkpt>
<trkpt lat="-35.88984" lon="147.35997"><ele>683</ele></trkpt>
<trkpt lat="-35.8908" lon="147.36029"><ele>687</ele></trkpt>
<trkpt lat="-35.89098" lon="147.36021"><ele>686</ele></trkpt>
<trkpt lat="-35.89112" lon="147.3599"><ele>686</ele></trkpt>
<trkpt lat="-35.89112" lon="147.35964"><ele>687</ele></trkpt>
<trkpt lat="-35.89106" lon="147.35936"><ele>689</ele></trkpt>
<trkpt lat="-35.89065" lon="147.35843"><ele>697</ele></trkpt>
<trkpt lat="-35.89053" lon="147.35796"><ele>700</ele></trkpt>
<trkpt lat="-35.89052" lon="147.35689"><ele>701</ele></trkpt>
<trkpt lat="-35.8908" lon="147.35583"><ele>701</ele></trkpt>
<trkpt lat="-35.89082" lon="147.35526"><ele>703</ele></trkpt>
<trkpt lat="-35.89088" lon="147.35501"><ele>703</ele></trkpt>
<trkpt lat="-35.8913" lon="147.35452"><ele>695</ele></trkpt>
<trkpt lat="-35.89139" lon="147.35431"><ele>694</ele></trkpt>
<trkpt lat="-35.8916" lon="147.35338"><ele>683</ele></trkpt>
<trkpt lat="-35.89169" lon="147.35319"><ele>680</ele></trkpt>
<trkpt lat="-35.89187" lon="147.35298"><ele>676</ele></trkpt>
<trkpt lat="-35.89236" lon="147.35281"><ele>671</ele></trkpt>
<trkpt lat="-35.89302" lon="147.35238"><ele>672</ele></trkpt>
<trkpt lat="-35.89321" lon="147.3522"><ele>673</ele></trkpt>
<trkpt lat="-35.89332" lon="147.35202"><ele>673</ele></trkpt>
<trkpt lat="-35.89336" lon="147.35171"><ele>674</ele></trkpt>
<trkpt lat="-35.8933" lon="147.35125"><ele>676</ele></trkpt>
<trkpt lat="-35.89333" lon="147.35056"><ele>680</ele></trkpt>
<trkpt lat="-35.89366" lon="147.34999"><ele>681</ele></trkpt>
<trkpt lat="-35.89389" lon="147.3498"><ele>677</ele></trkpt>
<trkpt lat="-35.89451" lon="147.34895"><ele>662</ele></trkpt>
<trkpt lat="-35.89466" lon="147.34885"><ele>659</ele></trkpt>
<trkpt lat="-35.89564" lon="147.34876"><ele>652</ele></trkpt>
<trkpt lat="-35.89618" lon="147.34846"><ele>649</ele></trkpt>
<trkpt lat="-35.89649" lon="147.3482"><ele>649</ele></trkpt>
<trkpt lat="-35.89668" lon="147.34795"><ele>649</ele></trkpt>
<trkpt lat="-35.89686" lon="147.3478"><ele>648</ele></trkpt>
<trkpt lat="-35.89727" lon="147.34771"><ele>647</ele></trkpt>
<trkpt lat="-35.89745" lon="147.34763"><ele>646</ele></trkpt>
<trkpt lat="-35.89791" lon="147.34723"><ele>642</ele></trkpt>
<trkpt lat="-35.89805" lon="147.34704"><ele>641</ele></trkpt>
<trkpt lat="-35.8981" lon="147.34679"><ele>639</ele></trkpt>
<trkpt lat="-35.89803" lon="147.34496"><ele>636</ele></trkpt>
<trkpt lat="-35.8982" lon="147.34368"><ele>638</ele></trkpt>
<trkpt lat="-35.89839" lon="147.34282"><ele>643</ele></trkpt>
<trkpt lat="-35.89839" lon="147.34259"><ele>645</ele></trkpt>
<trkpt lat="-35.89836" lon="147.34233"><ele>646</ele></trkpt>
<trkpt lat="-35.89824" lon="147.34208"><ele>646</ele></trkpt>
<trkpt lat="-35.89747" lon="147.34092"><ele>651</ele></trkpt>
<trkpt lat="-35.89748" lon="147.34038"><ele>650</ele></trkpt>
<trkpt lat="-35.89763" lon="147.33962"><ele>644</ele></trkpt>
<trkpt lat="-35.89765" lon="147.33875"><ele>643</ele></trkpt>
<trkpt lat="-35.89763" lon="147.33848"><ele>644</ele></trkpt>
<trkpt lat="-35.8974" lon="147.33793"><ele>643</ele></trkpt>
<trkpt lat="-35.89739" lon="147.33768"><ele>642</ele></trkpt>
<trkpt lat="-35.89741" lon="147.33745"><ele>640</ele></trkpt>
<trkpt lat="-35.89752" lon="147.33722"><ele>638</ele></trkpt>
<trkpt lat="-35.89806" lon="147.33664"><ele>632</ele></trkpt>
<trkpt lat="-35.89824" lon="147.3362"><ele>633</ele></trkpt>
<trkpt lat="-35.89822" lon="147.33599"><ele>633</ele></trkpt>
<trkpt lat="-35.89803" lon="147.33551"><ele>634</ele></trkpt>
<trkpt lat="-35.89803" lon="147.33514"><ele>637</ele></trkpt>
<trkpt lat="-35.89823" lon="147.33427"><ele>642</ele></trkpt>
<trkpt lat="-35.89836" lon="147.3331"><ele>654</ele></trkpt>
<trkpt lat="-35.89854" lon="147.33256"><ele>659</ele></trkpt>
<trkpt lat="-35.89873" lon="147.33148"><ele>673</ele></trkpt>
<trkpt lat="-35.89915" lon="147.33035"><ele>689</ele></trkpt>
<trkpt lat="-35.89916" lon="147.32997"><ele>693</ele></trkpt>
<trkpt lat="-35.89908" lon="147.32925"><ele>699</ele></trkpt>
<trkpt lat="-35.89892" lon="147.32871"><ele>700</ele></trkpt>
<trkpt lat="-35.89894" lon="147.32851"><ele>700</ele></trkpt>
<trkpt lat="-35.89877" lon="147.32797"><ele>701</ele></trkpt>
<trkpt lat="-35.89882" lon="147.32784"><ele>699</ele></trkpt>
<trkpt lat="-35.89889" lon="147.32782"><ele>698</ele></trkpt>
<trkpt lat="-35.8992" lon="147.32796"><ele>692</ele></trkpt>
<trkpt lat="-35.89957" lon="147.328"><ele>684</ele></trkpt>
<trkpt lat="-35.90042" lon="147.32849"><ele>672</ele></trkpt>
<trkpt lat="-35.90079" lon="147.32855"><ele>664</ele></trkpt>
<trkpt lat="-35.90144" lon="147.32838"><ele>663</ele></trkpt>
<trkpt lat="-35.90174" lon="147.32845"><ele>663</ele></trkpt>
<trkpt lat="-35.90231" lon="147.32789"><ele>664</ele></trkpt>
<trkpt lat="-35.9028" lon="147.3275"><ele>670</ele></trkpt>
<trkpt lat="-35.90278" lon="147.32654"><ele>672</ele></trkpt>
<trkpt lat="-35.90309" lon="147.3254"><ele>684</ele></trkpt>
<trkpt lat="-35.90297" lon="147.32489"><ele>679</ele></trkpt>
<trkpt lat="-35.90314" lon="147.32439"><ele>677</ele></trkpt>
<trkpt lat="-35.90383" lon="147.32349"><ele>669</ele></trkpt>
<trkpt lat="-35.90462" lon="147.32274"><ele>666</ele></trkpt>
<trkpt lat="-35.90505" lon="147.32177"><ele>665</ele></trkpt>
<trkpt lat="-35.90505" lon="147.32051"><ele>662</ele></trkpt>
<trkpt lat="-35.90523" lon="147.31942"><ele>659</ele></trkpt>
<trkpt lat="-35.90548" lon="147.31695"><ele>658</ele></trkpt>
<trkpt lat="-35.90549" lon="147.31519"><ele>675</ele></trkpt>
<trkpt lat="-35.90561" lon="147.31471"><ele>679</ele></trkpt>
<trkpt lat="-35.90577" lon="147.31437"><ele>683</ele></trkpt>
<trkpt lat="-35.90648" lon="147.31304"><ele>673</ele></trkpt>
<trkpt lat="-35.90693" lon="147.31278"><ele>667</ele></trkpt>
<trkpt lat="-35.90723" lon="147.31249"><ele>661</ele></trkpt>
<trkpt lat="-35.90774" lon="147.31232"><ele>663</ele></trkpt>
<trkpt lat="-35.90801" lon="147.31187"><ele>660</ele></trkpt>
<trkpt lat="-35.90798" lon="147.3115"><ele>653</ele></trkpt>
<trkpt lat="-35.90816" lon="147.31106"><ele>652</ele></trkpt>
<trkpt lat="-35.90879" lon="147.31027"><ele>654</ele></trkpt>
<trkpt lat="-35.90912" lon="147.31029"><ele>660</ele></trkpt>
<trkpt lat="-35.90976" lon="147.31093"><ele>669</ele></trkpt>
<trkpt lat="-35.91" lon="147.31097"><ele>668</ele></trkpt>
<trkpt lat="-35.91029" lon="147.31088"><ele>667</ele></trkpt>
<trkpt lat="-35.91061" lon="147.31015"><ele>662</ele></trkpt>
<trkpt lat="-35.91094" lon="147.30925"><ele>657</ele></trkpt>
<trkpt lat="-35.91163" lon="147.30856"><ele>656</ele></trkpt>
<trkpt lat="-35.91221" lon="147.30766"><ele>658</ele></trkpt>
<trkpt lat="-35.91293" lon="147.30614"><ele>665</ele></trkpt>
<trkpt lat="-35.91363" lon="147.30494"><ele>671</ele></trkpt>
<trkpt lat="-35.91386" lon="147.30419"><ele>673</ele></trkpt>
<trkpt lat="-35.91388" lon="147.30322"><ele>666</ele></trkpt>
<trkpt lat="-35.91367" lon="147.30158"><ele>648</ele></trkpt>
<trkpt lat="-35.91374" lon="147.30061"><ele>635</ele></trkpt>
<trkpt lat="-35.91354" lon="147.29961"><ele>624</ele></trkpt>
<trkpt lat="-35.91356" lon="147.29862"><ele>615</ele></trkpt>
<trkpt lat="-35.91416" lon="147.29787"><ele>603</ele></trkpt>
<trkpt lat="-35.91454" lon="147.29614"><ele>572</ele></trkpt>
<trkpt lat="-35.91515" lon="147.29569"><ele>562</ele></trkpt>
<trkpt lat="-35.91593" lon="147.29422"><ele>527</ele></trkpt>
<trkpt lat="-35.91589" lon="147.29307"><ele>510</ele></trkpt>
<trkpt lat="-35.91596" lon="147.29229"><ele>503</ele></trkpt>
<trkpt lat="-35.9162" lon="147.29201"><ele>500</ele></trkpt>
<trkpt lat="-35.91645" lon="147.29202"><ele>499</ele></trkpt>
<trkpt lat="-35.91659" lon="147.29223"><ele>498</ele></trkpt>
<trkpt lat="-35.91644" lon="147.29247"><ele>499</ele></trkpt>
<trkpt lat="-35.91683" lon="147.29289"><ele>498</ele></trkpt>
<trkpt lat="-35.9173" lon="147.29386"><ele>512</ele></trkpt>
<trkpt lat="-35.91939" lon="147.29381"><ele>543</ele></trkpt>
<trkpt lat="-35.92018" lon="147.29287"><ele>558</ele></trkpt>
<trkpt lat="-35.92087" lon="147.29304"><ele>564</ele></trkpt>
<trkpt lat="-35.92157" lon="147.29286"><ele>574</ele></trkpt>
<trkpt lat="-35.92314" lon="147.29335"><ele>599</ele></trkpt>
<trkpt lat="-35.92352" lon="147.29333"><ele>602</ele></trkpt>
<trkpt lat="-35.92421" lon="147.29273"><ele>608</ele></trkpt>
<trkpt lat="-35.92487" lon="147.29233"><ele>613</ele></trkpt>
<trkpt lat="-35.92597" lon="147.29073"><ele>628</ele></trkpt>
<trkpt lat="-35.92709" lon="147.28928"><ele>653</ele></trkpt>
<trkpt lat="-35.92753" lon="147.2889"><ele>658</ele></trkpt>
<trkpt lat="-35.92819" lon="147.28881"><ele>664</ele></trkpt>
<trkpt lat="-35.92869" lon="147.28803"><ele>667</ele></trkpt>
<trkpt lat="-35.92947" lon="147.28773"><ele>670</ele></trkpt>
<trkpt lat="-35.93021" lon="147.28701"><ele>671</ele></trkpt>
<trkpt lat="-35.92997" lon="147.28654"><ele>673</ele></trkpt>
<trkpt lat="-35.92948" lon="147.28584"><ele>665</ele></trkpt>
<trkpt lat="-35.92951" lon="147.28502"><ele>660</ele></trkpt>
<trkpt lat="-35.92913" lon="147.28348"><ele>657</ele></trkpt>
<trkpt lat="-35.92886" lon="147.28301"><ele>654</ele></trkpt>
<trkpt lat="-35.92873" lon="147.28206"><ele>651</ele></trkpt>
<trkpt lat="-35.92857" lon="147.28168"><ele>650</ele></trkpt>
<trkpt lat="-35.92856" lon="147.28072"><ele>650</ele></trkpt>
<trkpt lat="-35.92873" lon="147.27989"><ele>649</ele></trkpt>
<trkpt lat="-35.92951" lon="147.27823"><ele>644</ele></trkpt>
<trkpt lat="-35.93002" lon="147.27666"><ele>642</ele></trkpt>
<trkpt lat="-35.93" lon="147.27547"><ele>642</ele></trkpt>
<trkpt lat="-35.93011" lon="147.27358"><ele>645</ele></trkpt>
<trkpt lat="-35.93017" lon="147.27332"><ele>646</ele></trkpt>
<trkpt lat="-35.93017" lon="147.27284"><ele>648</ele></trkpt>
<trkpt lat="-35.92997" lon="147.27208"><ele>652</ele></trkpt>
<trkpt lat="-35.9298" lon="147.27177"><ele>652</ele></trkpt>
<trkpt lat="-35.92959" lon="147.27099"><ele>654</ele></trkpt>
<trkpt lat="-35.92945" lon="147.27081"><ele>654</ele></trkpt>
<trkpt lat="-35.92915" lon="147.26853"><ele>655</ele></trkpt>
<trkpt lat="-35.9288" lon="147.26806"><ele>651</ele></trkpt>
<trkpt lat="-35.92835" lon="147.26706"><ele>647</ele></trkpt>
<trkpt lat="-35.92815" lon="147.26686"><ele>646</ele></trkpt>
<trkpt lat="-35.92746" lon="147.26674"><ele>642</ele></trkpt>
<trkpt lat="-35.92705" lon="147.26658"><ele>640</ele></trkpt>
<trkpt lat="-35.92665" lon="147.26604"><ele>639</ele></trkpt>
<trkpt lat="-35.92663" lon="147.26569"><ele>639</ele></trkpt>
<trkpt lat="-35.92648" lon="147.26518"><ele>637</ele></trkpt>
<trkpt lat="-35.92636" lon="147.26315"><ele>625</ele></trkpt>
<trkpt lat="-35.92628" lon="147.26282"><ele>622</ele></trkpt>
<trkpt lat="-35.92628" lon="147.26251"><ele>617</ele></trkpt>
<trkpt lat="-35.92643" lon="147.26228"><ele>613</ele></trkpt>
<trkpt lat="-35.93207" lon="147.2611"><ele>597</ele></trkpt>
<trkpt lat="-35.933" lon="147.26093"><ele>585</ele></trkpt>
<trkpt lat="-35.93358" lon="147.2609"><ele>575</ele></trkpt>
<trkpt lat="-35.93481" lon="147.26055"><ele>547</ele></trkpt>
<trkpt lat="-35.93534" lon="147.26048"><ele>531</ele></trkpt>
<trkpt lat="-35.9357" lon="147.2603"><ele>523</ele></trkpt>
<trkpt lat="-35.93598" lon="147.26003"><ele>522</ele></trkpt>
<trkpt lat="-35.93599" lon="147.25954"><ele>530</ele></trkpt>
<trkpt lat="-35.93662" lon="147.25657"><ele>543</ele></trkpt>
<trkpt lat="-35.93766" lon="147.25518"><ele>525</ele></trkpt>
<trkpt lat="-35.93772" lon="147.25502"><ele>525</ele></trkpt>
<trkpt lat="-35.93782" lon="147.2547"><ele>523</ele></trkpt>
<trkpt lat="-35.93792" lon="147.25349"><ele>531</ele></trkpt>
<trkpt lat="-35.93804" lon="147.25308"><ele>533</ele></trkpt>
<trkpt lat="-35.93821" lon="147.25295"><ele>532</ele></trkpt>
<trkpt lat="-35.93856" lon="147.25283"><ele>530</ele></trkpt>
<trkpt lat="-35.93991" lon="147.25251"><ele>534</ele></trkpt>
<trkpt lat="-35.94075" lon="147.2524"><ele>537</ele></trkpt>
<trkpt lat="-35.94218" lon="147.25246"><ele>547</ele></trkpt>
<trkpt lat="-35.94289" lon="147.2524"><ele>548</ele></trkpt>
<trkpt lat="-35.94369" lon="147.25145"><ele>549</ele></trkpt>
<trkpt lat="-35.94452" lon="147.25075"><ele>553</ele></trkpt>
<trkpt lat="-35.94743" lon="147.24776"><ele>552</ele></trkpt>
<trkpt lat="-35.94915" lon="147.24631"><ele>576</ele></trkpt>
<trkpt lat="-35.94892" lon="147.24546"><ele>575</ele></trkpt>
<trkpt lat="-35.94869" lon="147.24432"><ele>559</ele></trkpt>
<trkpt lat="-35.94841" lon="147.24187"><ele>514</ele></trkpt>
<trkpt lat="-35.94836" lon="147.24094"><ele>502</ele></trkpt>
<trkpt lat="-35.94879" lon="147.23895"><ele>500</ele></trkpt>
<trkpt lat="-35.94909" lon="147.2368"><ele>485</ele></trkpt>
<trkpt lat="-35.94924" lon="147.23649"><ele>481</ele></trkpt>
<trkpt lat="-35.9499" lon="147.23601"><ele>478</ele></trkpt>
<trkpt lat="-35.95129" lon="147.23616"><ele>488</ele></trkpt>
<trkpt lat="-35.95196" lon="147.23583"><ele>494</ele></trkpt>
<trkpt lat="-35.95277" lon="147.23582"><ele>509</ele></trkpt>
<trkpt lat="-35.95286" lon="147.23593"><ele>511</ele></trkpt>
<trkpt lat="-35.95291" lon="147.23629"><ele>514</ele></trkpt>
<trkpt lat="-35.95318" lon="147.23655"><ele>519</ele></trkpt>
<trkpt lat="-35.95302" lon="147.23696"><ele>520</ele></trkpt>
<trkpt lat="-35.95326" lon="147.23833"><ele>531</ele></trkpt>
<trkpt lat="-35.95512" lon="147.23832"><ele>496</ele></trkpt>
<trkpt lat="-35.95552" lon="147.23842"><ele>488</ele></trkpt>
<trkpt lat="-35.95591" lon="147.23877"><ele>476</ele></trkpt>
<trkpt lat="-35.95627" lon="147.23822"><ele>474</ele></trkpt>
<trkpt lat="-35.95681" lon="147.23762"><ele>470</ele></trkpt>
<trkpt lat="-35.95751" lon="147.23708"><ele>457</ele></trkpt>
<trkpt lat="-35.95808" lon="147.23648"><ele>452</ele></trkpt>
<trkpt lat="-35.95956" lon="147.23458"><ele>437</ele></trkpt>
<trkpt lat="-35.9599" lon="147.23427"><ele>433</ele></trkpt>
<trkpt lat="-35.96011" lon="147.23394"><ele>430</ele></trkpt>
<trkpt lat="-35.95996" lon="147.23281"><ele>428</ele></trkpt>
<trkpt lat="-35.96009" lon="147.23213"><ele>424</ele></trkpt>
<trkpt lat="-35.95999" lon="147.23127"><ele>428</ele></trkpt>
<trkpt lat="-35.96121" lon="147.23104"><ele>426</ele></trkpt>
<trkpt lat="-35.96283" lon="147.2306"><ele>410</ele></trkpt>
<trkpt lat="-35.96338" lon="147.22992"><ele>398</ele></trkpt>
<trkpt lat="-35.96441" lon="147.22932"><ele>388</ele></trkpt>
<trkpt lat="-35.96547" lon="147.22902"><ele>380</ele></trkpt>
<trkpt lat="-35.96593" lon="147.22857"><ele>377</ele></trkpt>
<trkpt lat="-35.96626" lon="147.22861"><ele>376</ele></trkpt>
<trkpt lat="-35.96659" lon="147.22831"><ele>373</ele></trkpt>
<trkpt lat="-35.96721" lon="147.22786"><ele>371</ele></trkpt>
<trkpt lat="-35.96924" lon="147.22722"><ele>395</ele></trkpt>
<trkpt lat="-35.97134" lon="147.22538"><ele>365</ele></trkpt>
<trkpt lat="-35.97429" lon="147.22731"><ele>302</ele></trkpt>
<trkpt lat="-35.97655" lon="147.22868"><ele>324</ele></trkpt>
<trkpt lat="-35.9805" lon="147.22796"><ele>332</ele></trkpt>
<trkpt lat="-35.98358" lon="147.22795"><ele>308</ele></trkpt>
<trkpt lat="-35.98361" lon="147.22742"><ele>306</ele></trkpt>
<trkpt lat="-35.98349" lon="147.22515"><ele>300</ele></trkpt>
<trkpt lat="-35.9835" lon="147.2246"><ele>298</ele></trkpt>
<trkpt lat="-35.98364" lon="147.22322"><ele>296</ele></trkpt>
<trkpt lat="-35.9841" lon="147.2216"><ele>289</ele></trkpt>
<trkpt lat="-35.98481" lon="147.21942"><ele>276</ele></trkpt>
<trkpt lat="-35.98494" lon="147.2189"><ele>277</ele></trkpt>
<trkpt lat="-35.98508" lon="147.21776"><ele>279</ele></trkpt>
<trkpt lat="-35.98509" lon="147.21673"><ele>275</ele></trkpt>
<trkpt lat="-35.98495" lon="147.21556"><ele>268</ele></trkpt>
<trkpt lat="-35.98476" lon="147.21484"><ele>264</ele></trkpt>
<trkpt lat="-35.98384" lon="147.21197"><ele>269</ele></trkpt>
<trkpt lat="-35.98364" lon="147.21114"><ele>272</ele></trkpt>
<trkpt lat="-35.98351" lon="147.21001"><ele>275</ele></trkpt>
<trkpt lat="-35.98355" lon="147.209"><ele>268</ele></trkpt>
<trkpt lat="-35.98362" lon="147.20852"><ele>266</ele></trkpt>
<trkpt lat="-35.98486" lon="147.20297"><ele>246</ele></trkpt>
<trkpt lat="-35.98494" lon="147.20218"><ele>243</ele></trkpt>
<trkpt lat="-35.98489" lon="147.19056"><ele>235</ele></trkpt>
<trkpt lat="-35.98472" lon="147.18552"><ele>233</ele></trkpt>
<trkpt lat="-35.98459" lon="147.18438"><ele>230</ele></trkpt>
<trkpt lat="-35.98434" lon="147.18363"><ele>232</ele></trkpt>
<trkpt lat="-35.98407" lon="147.18305"><ele>234</ele></trkpt>
<trkpt lat="-35.98388" lon="147.1827"><ele>233</ele></trkpt>
<trkpt lat="-35.98344" lon="147.18207"><ele>234</ele></trkpt>
<trkpt lat="-35.98226" lon="147.18056"><ele>234</ele></trkpt>
<trkpt lat="-35.98198" lon="147.18011"><ele>234</ele></trkpt>
<trkpt lat="-35.98163" lon="147.1793"><ele>233</ele></trkpt>
<trkpt lat="-35.98137" lon="147.17837"><ele>228</ele></trkpt>
<trkpt lat="-35.98132" lon="147.17781"><ele>225</ele></trkpt>
<trkpt lat="-35.98134" lon="147.17722"><ele>223</ele></trkpt>
<trkpt lat="-35.98272" lon="147.17067"><ele>216</ele></trkpt>
<trkpt lat="-35.98483" lon="147.16339"><ele>206</ele></trkpt>
<trkpt lat="-35.98535" lon="147.16257"><ele>206</ele></trkpt>
<trkpt lat="-35.98584" lon="147.16201"><ele>205</ele></trkpt>
<trkpt lat="-35.98816" lon="147.15955"><ele>204</ele></trkpt>
<trkpt lat="-35.99059" lon="147.1568"><ele>205</ele></trkpt>
<trkpt lat="-35.99081" lon="147.15632"><ele>204</ele></trkpt>
<trkpt lat="-35.99095" lon="147.15586"><ele>204</ele></trkpt>
<trkpt lat="-35.99107" lon="147.15522"><ele>202</ele></trkpt>
<trkpt lat="-35.99112" lon="147.15454"><ele>200</ele></trkpt>
<trkpt lat="-35.99107" lon="147.15403"><ele>199</ele></trkpt>
<trkpt lat="-35.99098" lon="147.15362"><ele>197</ele></trkpt>
<trkpt lat="-35.99078" lon="147.15318"><ele>196</ele></trkpt>
<trkpt lat="-35.99061" lon="147.15286"><ele>196</ele></trkpt>
<trkpt lat="-35.99002" lon="147.15216"><ele>195</ele></trkpt>
<trkpt lat="-35.98867" lon="147.15082"><ele>192</ele></trkpt>
<trkpt lat="-35.98841" lon="147.15053"><ele>194</ele></trkpt>
<trkpt lat="-35.98794" lon="147.14986"><ele>198</ele></trkpt>
<trkpt lat="-35.98768" lon="147.14944"><ele>200</ele></trkpt>
<trkpt lat="-35.98748" lon="147.14896"><ele>201</ele></trkpt>
<trkpt lat="-35.98702" lon="147.14753"><ele>207</ele></trkpt>
<trkpt lat="-35.98721" lon="147.14719"><ele>205</ele></trkpt>
<trkpt lat="-35.98728" lon="147.14695"><ele>204</ele></trkpt>
<trkpt lat="-35.98727" lon="147.14634"><ele>203</ele></trkpt>
<trkpt lat="-35.98732" lon="147.14584"><ele>203</ele></trkpt>
<trkpt lat="-35.98796" lon="147.14435"><ele>200</ele></trkpt>
<trkpt lat="-35.98802" lon="147.14426"><ele>200</ele></trkpt>
<trkpt lat="-35.98926" lon="147.14354"><ele>206</ele></trkpt>
<trkpt lat="-35.99021" lon="147.14168"><ele>216</ele></trkpt>
<trkpt lat="-35.99047" lon="147.14129"><ele>218</ele></trkpt>
<trkpt lat="-35.99071" lon="147.14105"><ele>220</ele></trkpt>
<trkpt lat="-35.99089" lon="147.13964"><ele>220</ele></trkpt>
<trkpt lat="-35.9909" lon="147.13919"><ele>222</ele></trkpt>
<trkpt lat="-35.99" lon="147.13797"><ele>232</ele></trkpt>
<trkpt lat="-35.98938" lon="147.13747"><ele>230</ele></trkpt>
<trkpt lat="-35.98877" lon="147.13709"><ele>230</ele></trkpt>
<trkpt lat="-35.98776" lon="147.13579"><ele>230</ele></trkpt>
<trkpt lat="-35.98725" lon="147.13521"><ele>230</ele></trkpt>
<trkpt lat="-35.98644" lon="147.13452"><ele>229</ele></trkpt>
<trkpt lat="-35.98563" lon="147.13405"><ele>227</ele></trkpt>
<trkpt lat="-35.98526" lon="147.13368"><ele>229</ele></trkpt>
<trkpt lat="-35.98485" lon="147.13288"><ele>233</ele></trkpt>
<trkpt lat="-35.98431" lon="147.13253"><ele>239</ele></trkpt>
<trkpt lat="-35.98376" lon="147.13274"><ele>243</ele></trkpt>
<trkpt lat="-35.98318" lon="147.1326"><ele>249</ele></trkpt>
<trkpt lat="-35.98261" lon="147.13216"><ele>250</ele></trkpt>
<trkpt lat="-35.98192" lon="147.1307"><ele>257</ele></trkpt>
<trkpt lat="-35.98172" lon="147.12974"><ele>260</ele></trkpt>
<trkpt lat="-35.98071" lon="147.12845"><ele>262</ele></trkpt>
<trkpt lat="-35.98017" lon="147.12787"><ele>264</ele></trkpt>
<trkpt lat="-35.97971" lon="147.12766"><ele>266</ele></trkpt>
<trkpt lat="-35.97948" lon="147.12761"><ele>268</ele></trkpt>
<trkpt lat="-35.97935" lon="147.12724"><ele>270</ele></trkpt>
<trkpt lat="-35.97908" lon="147.12686"><ele>272</ele></trkpt>
<trkpt lat="-35.97878" lon="147.12675"><ele>277</ele></trkpt>
<trkpt lat="-35.97858" lon="147.12676"><ele>280</ele></trkpt>
<trkpt lat="-35.97804" lon="147.12704"><ele>286</ele></trkpt>
<trkpt lat="-35.97686" lon="147.12688"><ele>292</ele></trkpt>
<trkpt lat="-35.97396" lon="147.12422"><ele>297</ele></trkpt>
<trkpt lat="-35.97373" lon="147.12394"><ele>297</ele></trkpt>
<trkpt lat="-35.97342" lon="147.12367"><ele>297</ele></trkpt>
<trkpt lat="-35.97308" lon="147.12366"><ele>295</ele></trkpt>
<trkpt lat="-35.9717" lon="147.12253"><ele>297</ele></trkpt>
<trkpt lat="-35.97086" lon="147.12171"><ele>293</ele></trkpt>
<trkpt lat="-35.96971" lon="147.12011"><ele>284</ele></trkpt>
<trkpt lat="-35.96789" lon="147.11816"><ele>273</ele></trkpt>
<trkpt lat="-35.96631" lon="147.11682"><ele>266</ele></trkpt>
<trkpt lat="-35.96526" lon="147.11612"><ele>258</ele></trkpt>
<trkpt lat="-35.96471" lon="147.11568"><ele>252</ele></trkpt>
<trkpt lat="-35.96405" lon="147.11502"><ele>246</ele></trkpt>
<trkpt lat="-35.96355" lon="147.11482"><ele>245</ele></trkpt>
<trkpt lat="-35.96222" lon="147.11399"><ele>248</ele></trkpt>
<trkpt lat="-35.96168" lon="147.11331"><ele>254</ele></trkpt>
<trkpt lat="-35.96135" lon="147.1127"><ele>250</ele></trkpt>
<trkpt lat="-35.96128" lon="147.11231"><ele>247</ele></trkpt>
<trkpt lat="-35.96096" lon="147.11185"><ele>242</ele></trkpt>
<trkpt lat="-35.96058" lon="147.11151"><ele>239</ele></trkpt>
<trkpt lat="-35.96022" lon="147.11145"><ele>237</ele></trkpt>
<trkpt lat="-35.96006" lon="147.11115"><ele>234</ele></trkpt>
<trkpt lat="-35.95965" lon="147.11091"><ele>231</ele></trkpt>
<trkpt lat="-35.95921" lon="147.11083"><ele>229</ele></trkpt>
<trkpt lat="-35.95842" lon="147.11025"><ele>226</ele></trkpt>
<trkpt lat="-35.95787" lon="147.1101"><ele>226</ele></trkpt>
<trkpt lat="-35.95748" lon="147.10993"><ele>226</ele></trkpt>
<trkpt lat="-35.95716" lon="147.10961"><ele>225</ele></trkpt>
<trkpt lat="-35.95611" lon="147.10884"><ele>222</ele></trkpt>
<trkpt lat="-35.95488" lon="147.10813"><ele>218</ele></trkpt>
<trkpt lat="-35.95424" lon="147.10752"><ele>218</ele></trkpt>
<trkpt lat="-35.95374" lon="147.10715"><ele>215</ele></trkpt>
<trkpt lat="-35.95333" lon="147.10665"><ele>214</ele></trkpt>
<trkpt lat="-35.95238" lon="147.10591"><ele>213</ele></trkpt>
<trkpt lat="-35.9521" lon="147.10552"><ele>211</ele></trkpt>
<trkpt lat="-35.95199" lon="147.10524"><ele>210</ele></trkpt>
<trkpt lat="-35.95243" lon="147.10367"><ele>207</ele></trkpt>
<trkpt lat="-35.95192" lon="147.10342"><ele>207</ele></trkpt>
<trkpt lat="-35.95138" lon="147.10328"><ele>207</ele></trkpt>
<trkpt lat="-35.9509" lon="147.10294"><ele>207</ele></trkpt>
<trkpt lat="-35.95048" lon="147.10254"><ele>208</ele></trkpt>
<trkpt lat="-35.95031" lon="147.10222"><ele>206</ele></trkpt>
<trkpt lat="-35.95012" lon="147.1017"><ele>204</ele></trkpt>
<trkpt lat="-35.94946" lon="147.10108"><ele>204</ele></trkpt>
<trkpt lat="-35.94913" lon="147.10102"><ele>203</ele></trkpt>
<trkpt lat="-35.94906" lon="147.10084"><ele>203</ele></trkpt>
<trkpt lat="-35.94891" lon="147.10068"><ele>203</ele></trkpt>
<trkpt lat="-35.94873" lon="147.10059"><ele>203</ele></trkpt>
<trkpt lat="-35.94858" lon="147.10036"><ele>202</ele></trkpt>
<trkpt lat="-35.9484" lon="147.10038"><ele>202</ele></trkpt>
<trkpt lat="-35.94413" lon="147.09644"><ele>204</ele></trkpt>
<trkpt lat="-35.94345" lon="147.09572"><ele>206</ele></trkpt>
<trkpt lat="-35.94302" lon="147.09513"><ele>209</ele></trkpt>
<trkpt lat="-35.94263" lon="147.09443"><ele>211</ele></trkpt>
<trkpt lat="-35.94237" lon="147.09386"><ele>211</ele></trkpt>
<trkpt lat="-35.94068" lon="147.08856"><ele>226</ele></trkpt>
<trkpt lat="-35.94033" lon="147.0876"><ele>228</ele></trkpt>
<trkpt lat="-35.93975" lon="147.08643"><ele>229</ele></trkpt>
<trkpt lat="-35.93898" lon="147.08534"><ele>227</ele></trkpt>
<trkpt lat="-35.9385" lon="147.08483"><ele>226</ele></trkpt>
<trkpt lat="-35.93745" lon="147.08393"><ele>228</ele></trkpt>
<trkpt lat="-35.93118" lon="147.07896"><ele>232</ele></trkpt>
<trkpt lat="-35.92947" lon="147.07785"><ele>230</ele></trkpt>
<trkpt lat="-35.92914" lon="147.0777"><ele>230</ele></trkpt>
<trkpt lat="-35.9287" lon="147.07761"><ele>231</ele></trkpt>
<trkpt lat="-35.92826" lon="147.07763"><ele>232</ele></trkpt>
<trkpt lat="-35.92815" lon="147.07696"><ele>228</ele></trkpt>
<trkpt lat="-35.92741" lon="147.07596"><ele>229</ele></trkpt>
<trkpt lat="-35.92726" lon="147.07556"><ele>230</ele></trkpt>
<trkpt lat="-35.9272" lon="147.07461"><ele>230</ele></trkpt>
<trkpt lat="-35.92514" lon="147.05907"><ele>221</ele></trkpt>
<trkpt lat="-35.92502" lon="147.0579"><ele>221</ele></trkpt>
<trkpt lat="-35.92495" lon="147.05583"><ele>225</ele></trkpt>
<trkpt lat="-35.92497" lon="147.05184"><ele>233</ele></trkpt>
<trkpt lat="-35.92574" lon="147.03324"><ele>202</ele></trkpt>
<trkpt lat="-35.926" lon="147.03303"><ele>202</ele></trkpt>
<trkpt lat="-35.92764" lon="147.03069"><ele>197</ele></trkpt>
<trkpt lat="-35.92793" lon="147.03045"><ele>198</ele></trkpt>
<trkpt lat="-35.93195" lon="147.02965"><ele>195</ele></trkpt>
<trkpt lat="-35.93423" lon="147.02927"><ele>193</ele></trkpt>
<trkpt lat="-35.93588" lon="147.02892"><ele>191</ele></trkpt>
<trkpt lat="-35.94738" lon="147.02677"><ele>201</ele></trkpt>
<trkpt lat="-35.94788" lon="147.02662"><ele>201</ele></trkpt>
<trkpt lat="-35.94828" lon="147.02633"><ele>201</ele></trkpt>
<trkpt lat="-35.95158" lon="147.02346"><ele>208</ele></trkpt>
<trkpt lat="-35.95177" lon="147.02365"><ele>207</ele></trkpt>
<trkpt lat="-35.95344" lon="147.02443"><ele>211</ele></trkpt>
<trkpt lat="-35.95381" lon="147.02464"><ele>213</ele></trkpt>
<trkpt lat="-35.95521" lon="147.02519"><ele>217</ele></trkpt>
<trkpt lat="-35.96053" lon="147.02769"><ele>240</ele></trkpt>
<trkpt lat="-35.9612" lon="147.02805"><ele>231</ele></trkpt>
<trkpt lat="-35.96196" lon="147.02836"><ele>221</ele></trkpt>
<trkpt lat="-35.97294" lon="147.02616"><ele>218</ele></trkpt>
<trkpt lat="-35.97438" lon="147.03754"><ele>204</ele></trkpt>
<trkpt lat="-35.97468" lon="147.03943"><ele>201</ele></trkpt>
<trkpt lat="-35.97498" lon="147.04026"><ele>200</ele></trkpt>
<trkpt lat="-35.97549" lon="147.04107"><ele>199</ele></trkpt>
<trkpt lat="-35.97582" lon="147.04142"><ele>199</ele></trkpt>
<trkpt lat="-35.97626" lon="147.04178"><ele>199</ele></trkpt>
<trkpt lat="-35.977" lon="147.04214"><ele>197</ele></trkpt>
<trkpt lat="-35.97739" lon="147.04223"><ele>197</ele></trkpt>
<trkpt lat="-35.9779" lon="147.04226"><ele>197</ele></trkpt>
<trkpt lat="-35.97885" lon="147.04213"><ele>197</ele></trkpt>
<trkpt lat="-35.99424" lon="147.03897"><ele>227</ele></trkpt>
<trkpt lat="-35.99604" lon="147.03852"><ele>231</ele></trkpt>
<trkpt lat="-35.99822" lon="147.0376"><ele>244</ele></trkpt>
<trkpt lat="-35.99892" lon="147.03735"><ele>245</ele></trkpt>
<trkpt lat="-35.99954" lon="147.0372"><ele>242</ele></trkpt>
<trkpt lat="-36.0035" lon="147.03666"><ele>233</ele></trkpt>
<trkpt lat="-36.00403" lon="147.03648"><ele>231</ele></trkpt>
<trkpt lat="-36.00476" lon="147.03604"><ele>227</ele></trkpt>
<trkpt lat="-36.00547" lon="147.03536"><ele>226</ele></trkpt>
<trkpt lat="-36.00596" lon="147.03467"><ele>225</ele></trkpt>
<trkpt lat="-36.0118" lon="147.02375"><ele>204</ele></trkpt>
<trkpt lat="-36.01207" lon="147.02394"><ele>204</ele></trkpt>
<trkpt lat="-36.01256" lon="147.02371"><ele>203</ele></trkpt>
<trkpt lat="-36.01297" lon="147.02342"><ele>202</ele></trkpt>
<trkpt lat="-36.01427" lon="147.023"><ele>201</ele></trkpt>
<trkpt lat="-36.01589" lon="147.02234"><ele>202</ele></trkpt>
<trkpt lat="-36.01718" lon="147.02046"><ele>202</ele></trkpt>
<trkpt lat="-36.0177" lon="147.02007"><ele>202</ele></trkpt>
<trkpt lat="-36.01831" lon="147.01992"><ele>203</ele></trkpt>
<trkpt lat="-36.01859" lon="147.01941"><ele>202</ele></trkpt>
<trkpt lat="-36.01892" lon="147.01927"><ele>202</ele></trkpt>
<trkpt lat="-36.01991" lon="147.01913"><ele>199</ele></trkpt>
<trkpt lat="-36.02032" lon="147.019"><ele>199</ele></trkpt>
<trkpt lat="-36.02048" lon="147.01867"><ele>199</ele></trkpt>
<trkpt lat="-36.02098" lon="147.01698"><ele>199</ele></trkpt>
<trkpt lat="-36.02137" lon="147.01616"><ele>198</ele></trkpt>
<trkpt lat="-36.02205" lon="147.01569"><ele>199</ele></trkpt>
<trkpt lat="-36.02191" lon="147.01442"><ele>198</ele></trkpt>
<trkpt lat="-36.02197" lon="147.01339"><ele>197</ele></trkpt>
<trkpt lat="-36.0223" lon="147.01211"><ele>193</ele></trkpt>
<trkpt lat="-36.0223" lon="147.01137"><ele>192</ele></trkpt>
<trkpt lat="-36.02241" lon="147.01106"><ele>192</ele></trkpt>
<trkpt lat="-36.02229" lon="147.01085"><ele>192</ele></trkpt>
<trkpt lat="-36.02225" lon="147.01067"><ele>192</ele></trkpt>
<trkpt lat="-36.02237" lon="147.01039"><ele>192</ele></trkpt>
<trkpt lat="-36.02241" lon="147.01006"><ele>193</ele></trkpt>
<trkpt lat="-36.02235" lon="147.00953"><ele>192</ele></trkpt>
<trkpt lat="-36.02274" lon="147.00884"><ele>192</ele></trkpt>
<trkpt lat="-36.02369" lon="147.00808"><ele>191</ele></trkpt>
<trkpt lat="-36.02459" lon="147.00727"><ele>190</ele></trkpt>
<trkpt lat="-36.02489" lon="147.00688"><ele>191</ele></trkpt>
<trkpt lat="-36.02498" lon="147.00665"><ele>191</ele></trkpt>
<trkpt lat="-36.02517" lon="147.00645"><ele>191</ele></trkpt>
<trkpt lat="-36.02537" lon="147.00633"><ele>191</ele></trkpt>
<trkpt lat="-36.02578" lon="147.00634"><ele>191</ele></trkpt>
<trkpt lat="-36.02632" lon="147.00623"><ele>191</ele></trkpt>
<trkpt lat="-36.02768" lon="147.00643"><ele>190</ele></trkpt>
<trkpt lat="-36.02802" lon="147.00637"><ele>190</ele></trkpt>
<trkpt lat="-36.02838" lon="147.00639"><ele>191</ele></trkpt>
<trkpt lat="-36.02994" lon="147.00565"><ele>187</ele></trkpt>
<trkpt lat="-36.03059" lon="147.00523"><ele>187</ele></trkpt>
<trkpt lat="-36.03077" lon="147.00518"><ele>187</ele></trkpt>
<trkpt lat="-36.03206" lon="147.00429"><ele>185</ele></trkpt>
<trkpt lat="-36.0322" lon="147.00414"><ele>185</ele></trkpt>
<trkpt lat="-36.03237" lon="147.00343"><ele>186</ele></trkpt>
<trkpt lat="-36.03572" lon="147.00071"><ele>184</ele></trkpt>
<trkpt lat="-36.03523" lon="146.99962"><ele>183</ele></trkpt>
<trkpt lat="-36.03505" lon="146.99948"><ele>183</ele></trkpt>
<trkpt lat="-36.03461" lon="146.99935"><ele>184</ele></trkpt>
<trkpt lat="-36.03441" lon="146.99914"><ele>186</ele></trkpt>
<trkpt lat="-36.03396" lon="146.99889"><ele>187</ele></trkpt>
<trkpt lat="-36.03422" lon="146.99871"><ele>187</ele></trkpt>
<trkpt lat="-36.03443" lon="146.99847"><ele>186</ele></trkpt>
<trkpt lat="-36.03445" lon="146.99837"><ele>186</ele></trkpt>
<trkpt lat="-36.03419" lon="146.99743"><ele>185</ele></trkpt>
<trkpt lat="-36.0341" lon="146.99721"><ele>185</ele></trkpt>
<trkpt lat="-36.03389" lon="146.99705"><ele>186</ele></trkpt>
<trkpt lat="-36.03373" lon="146.99675"><ele>187</ele></trkpt>
<trkpt lat="-36.03348" lon="146.996"><ele>187</ele></trkpt>
<trkpt lat="-36.03364" lon="146.99576"><ele>187</ele></trkpt>
<trkpt lat="-36.03386" lon="146.99558"><ele>188</ele></trkpt>
<trkpt lat="-36.03393" lon="146.99486"><ele>189</ele></trkpt>
<trkpt lat="-36.03392" lon="146.99462"><ele>188</ele></trkpt>
<trkpt lat="-36.03383" lon="146.99428"><ele>187</ele></trkpt>
<trkpt lat="-36.03342" lon="146.99355"><ele>187</ele></trkpt>
<trkpt lat="-36.03343" lon="146.99342"><ele>187</ele></trkpt>
<trkpt lat="-36.03365" lon="146.99341"><ele>187</ele></trkpt>
<trkpt lat="-36.03377" lon="146.99356"><ele>187</ele></trkpt>
<trkpt lat="-36.03394" lon="146.99357"><ele>187</ele></trkpt>
<trkpt lat="-36.03415" lon="146.99341"><ele>187</ele></trkpt>
<trkpt lat="-36.03435" lon="146.99316"><ele>187</ele></trkpt>
<trkpt lat="-36.03433" lon="146.99303"><ele>187</ele></trkpt>
<trkpt lat="-36.03412" lon="146.99258"><ele>189</ele></trkpt>
<trkpt lat="-36.03398" lon="146.99239"><ele>189</ele></trkpt>
<trkpt lat="-36.03337" lon="146.99215"><ele>190</ele></trkpt>
<trkpt lat="-36.03299" lon="146.99169"><ele>192</ele></trkpt>
<trkpt lat="-36.03267" lon="146.99107"><ele>194</ele></trkpt>
<trkpt lat="-36.03188" lon="146.99022"><ele>195</ele></trkpt>
<trkpt lat="-36.03167" lon="146.99007"><ele>196</ele></trkpt>
<trkpt lat="-36.0314" lon="146.98961"><ele>196</ele></trkpt>
<trkpt lat="-36.03118" lon="146.98894"><ele>195</ele></trkpt>
<trkpt lat="-36.03126" lon="146.98853"><ele>195</ele></trkpt>
<trkpt lat="-36.03123" lon="146.98766"><ele>196</ele></trkpt>
<trkpt lat="-36.03455" lon="146.98696"><ele>197</ele></trkpt>
<trkpt lat="-36.03719" lon="146.98651"><ele>201</ele></trkpt>
<trkpt lat="-36.03916" lon="146.98608"><ele>202</ele></trkpt>
<trkpt lat="-36.03917" lon="146.98567"><ele>203</ele></trkpt>
<trkpt lat="-36.03898" lon="146.98547"><ele>203</ele></trkpt>
<trkpt lat="-36.03871" lon="146.98458"><ele>202</ele></trkpt>
<trkpt lat="-36.03886" lon="146.9845"><ele>200</ele></trkpt>
<trkpt lat="-36.03911" lon="146.98424"><ele>197</ele></trkpt>
<trkpt lat="-36.03912" lon="146.98428"><ele>197</ele></trkpt>
<trkpt lat="-36.03926" lon="146.98405"><ele>196</ele></trkpt>
<trkpt lat="-36.03969" lon="146.98367"><ele>196</ele></trkpt>
<trkpt lat="-36.0399" lon="146.98357"><ele>196</ele></trkpt>
<trkpt lat="-36.04087" lon="146.98458"><ele>201</ele></trkpt>
<trkpt lat="-36.04099" lon="146.98565"><ele>203</ele></trkpt>
<trkpt lat="-36.04114" lon="146.9857"><ele>203</ele></trkpt>
<trkpt lat="-36.04218" lon="146.98553"><ele>201</ele></trkpt>
<trkpt lat="-36.04301" lon="146.98533"><ele>202</ele></trkpt>
<trkpt lat="-36.04319" lon="146.98535"><ele>203</ele></trkpt>
<trkpt lat="-36.04331" lon="146.98557"><ele>203</ele></trkpt>
<trkpt lat="-36.04373" lon="146.98582"><ele>204</ele></trkpt>
<trkpt lat="-36.04382" lon="146.98543"><ele>204</ele></trkpt>
<trkpt lat="-36.04397" lon="146.98534"><ele>204</ele></trkpt>
<trkpt lat="-36.04414" lon="146.98512"><ele>204</ele></trkpt>
<trkpt lat="-36.04428" lon="146.98506"><ele>204</ele></trkpt>
<trkpt lat="-36.04465" lon="146.98497"><ele>203</ele></trkpt>
<trkpt lat="-36.04513" lon="146.98492"><ele>202</ele></trkpt>
<trkpt lat="-36.04534" lon="146.98494"><ele>201</ele></trkpt>
<trkpt lat="-36.04556" lon="146.98488"><ele>201</ele></trkpt>
<trkpt lat="-36.04583" lon="146.98495"><ele>200</ele></trkpt>
<trkpt lat="-36.04612" lon="146.98491"><ele>200</ele></trkpt>
<trkpt lat="-36.04675" lon="146.98471"><ele>202</ele></trkpt>
<trkpt lat="-36.04694" lon="146.98457"><ele>203</ele></trkpt>
<trkpt lat="-36.04809" lon="146.9843"><ele>205</ele></trkpt>
<trkpt lat="-36.05024" lon="146.98389"><ele>206</ele></trkpt>
<trkpt lat="-36.05031" lon="146.9839"><ele>206</ele></trkpt>
<trkpt lat="-36.05036" lon="146.98405"><ele>207</ele></trkpt>
<trkpt lat="-36.05059" lon="146.98526"><ele>212</ele></trkpt>
<trkpt lat="-36.05076" lon="146.98546"><ele>212</ele></trkpt>
<trkpt lat="-36.05102" lon="146.98549"><ele>212</ele></trkpt>
<trkpt lat="-36.05217" lon="146.98496"><ele>211</ele></trkpt>
<trkpt lat="-36.05262" lon="146.98441"><ele>211</ele></trkpt>
<trkpt lat="-36.05313" lon="146.98398"><ele>213</ele></trkpt>
<trkpt lat="-36.05331" lon="146.98395"><ele>213</ele></trkpt>
<trkpt lat="-36.05344" lon="146.98364"><ele>212</ele></trkpt>
<trkpt lat="-36.05347" lon="146.98328"><ele>211</ele></trkpt>
<trkpt lat="-36.05356" lon="146.98325"><ele>210</ele></trkpt>
<trkpt lat="-36.05538" lon="146.98292"><ele>204</ele></trkpt>
<trkpt lat="-36.05571" lon="146.98283"><ele>206</ele></trkpt>
<trkpt lat="-36.05576" lon="146.98272"><ele>206</ele></trkpt>
<trkpt lat="-36.05602" lon="146.98276"><ele>206</ele></trkpt>
<trkpt lat="-36.06663" lon="146.98052"><ele>167</ele></trkpt>
<trkpt lat="-36.06687" lon="146.98053"><ele>167</ele></trkpt>
<trkpt lat="-36.06703" lon="146.97842"><ele>166</ele></trkpt>
<trkpt lat="-36.06726" lon="146.97688"><ele>165</ele></trkpt>
<trkpt lat="-36.06764" lon="146.97525"><ele>162</ele></trkpt>
<trkpt lat="-36.06808" lon="146.97392"><ele>163</ele></trkpt>
<trkpt lat="-36.06836" lon="146.97322"><ele>165</ele></trkpt>
<trkpt lat="-36.06901" lon="146.97187"><ele>164</ele></trkpt>
<trkpt lat="-36.06976" lon="146.97061"><ele>162</ele></trkpt>
<trkpt lat="-36.07084" lon="146.969"><ele>166</ele></trkpt>
<trkpt lat="-36.07111" lon="146.96851"><ele>166</ele></trkpt>
<trkpt lat="-36.07142" lon="146.96783"><ele>165</ele></trkpt>
<trkpt lat="-36.07174" lon="146.96686"><ele>167</ele></trkpt>
<trkpt lat="-36.07189" lon="146.96616"><ele>165</ele></trkpt>
<trkpt lat="-36.07201" lon="146.96519"><ele>164</ele></trkpt>
<trkpt lat="-36.07197" lon="146.95971"><ele>163</ele></trkpt>
<trkpt lat="-36.07209" lon="146.95867"><ele>161</ele></trkpt>
<trkpt lat="-36.07232" lon="146.95774"><ele>162</ele></trkpt>
<trkpt lat="-36.07365" lon="146.95448"><ele>162</ele></trkpt>
<trkpt lat="-36.07482" lon="146.95113"><ele>159</ele></trkpt>
<trkpt lat="-36.07531" lon="146.95116"><ele>159</ele></trkpt>
<trkpt lat="-36.07553" lon="146.95112"><ele>160</ele></trkpt>
<trkpt lat="-36.0757" lon="146.95103"><ele>160</ele></trkpt>
<trkpt lat="-36.0763" lon="146.9505"><ele>161</ele></trkpt>
<trkpt lat="-36.07741" lon="146.95022"><ele>161</ele></trkpt>
<trkpt lat="-36.07834" lon="146.95006"><ele>160</ele></trkpt>
<trkpt lat="-36.07875" lon="146.95004"><ele>159</ele></trkpt>
<trkpt lat="-36.07926" lon="146.95013"><ele>158</ele></trkpt>
<trkpt lat="-36.07959" lon="146.95012"><ele>158</ele></trkpt>
<trkpt lat="-36.07987" lon="146.95"><ele>158</ele></trkpt>
<trkpt lat="-36.08023" lon="146.94962"><ele>158</ele></trkpt>
<trkpt lat="-36.08046" lon="146.94947"><ele>157</ele></trkpt>
<trkpt lat="-36.08313" lon="146.94886"><ele>158</ele></trkpt>
<trkpt lat="-36.08362" lon="146.94884"><ele>158</ele></trkpt>
<trkpt lat="-36.08431" lon="146.94892"><ele>157</ele></trkpt>
<trkpt lat="-36.08896" lon="146.9497"><ele>158</ele></trkpt>
<trkpt lat="-36.08923" lon="146.94943"><ele>157</ele></trkpt>
<trkpt lat="-36.08941" lon="146.94909"><ele>156</ele></trkpt>
<trkpt lat="-36.08924" lon="146.94831"><ele>156</ele></trkpt>
<trkpt lat="-36.08912" lon="146.94746"><ele>159</ele></trkpt>
<trkpt lat="-36.08925" lon="146.94666"><ele>160</ele></trkpt>
<trkpt lat="-36.08944" lon="146.94627"><ele>160</ele></trkpt>
<trkpt lat="-36.0898" lon="146.94591"><ele>160</ele></trkpt>
<trkpt lat="-36.09024" lon="146.94564"><ele>159</ele></trkpt>
<trkpt lat="-36.09083" lon="146.94546"><ele>157</ele></trkpt>
<trkpt lat="-36.09219" lon="146.94533"><ele>164</ele></trkpt>
<trkpt lat="-36.09272" lon="146.94544"><ele>166</ele></trkpt>
<trkpt lat="-36.09303" lon="146.94535"><ele>171</ele></trkpt>
<trkpt lat="-36.0928" lon="146.94518"><ele>172</ele></trkpt>
<trkpt lat="-36.09274" lon="146.94511"><ele>172</ele></trkpt>
<trkpt lat="-36.09277" lon="146.94507"><ele>173</ele></trkpt>
<trkpt lat="-36.09286" lon="146.94511"><ele>174</ele></trkpt>
<trkpt lat="-36.09335" lon="146.94492"><ele>184</ele></trkpt>
<trkpt lat="-36.09371" lon="146.94489"><ele>190</ele></trkpt>
<trkpt lat="-36.09395" lon="146.94482"><ele>195</ele></trkpt>
<trkpt lat="-36.094" lon="146.94474"><ele>198</ele></trkpt>
<trkpt lat="-36.09372" lon="146.94433"><ele>203</ele></trkpt>
<trkpt lat="-36.09364" lon="146.94401"><ele>209</ele></trkpt>
<trkpt lat="-36.0938" lon="146.94397"><ele>213</ele></trkpt>
<trkpt lat="-36.09432" lon="146.944"><ele>221</ele></trkpt>
<trkpt lat="-36.09486" lon="146.94412"><ele>224</ele></trkpt>
<trkpt lat="-36.09572" lon="146.94389"><ele>240</ele></trkpt>
<trkpt lat="-36.09637" lon="146.94389"><ele>246</ele></trkpt>
<trkpt lat="-36.09655" lon="146.94373"><ele>247</ele></trkpt>
<trkpt lat="-36.09578" lon="146.94341"><ele>249</ele></trkpt>
<trkpt lat="-36.09501" lon="146.9428"><ele>245</ele></trkpt>
<trkpt lat="-36.09413" lon="146.94232"><ele>246</ele></trkpt>
<trkpt lat="-36.09339" lon="146.94179"><ele>248</ele></trkpt>
<trkpt lat="-36.09326" lon="146.9416"><ele>249</ele></trkpt>
<trkpt lat="-36.0929" lon="146.94143"><ele>247</ele></trkpt>
<trkpt lat="-36.09265" lon="146.94139"><ele>247</ele></trkpt>
<trkpt lat="-36.09239" lon="146.94117"><ele>248</ele></trkpt>
<trkpt lat="-36.09178" lon="146.94086"><ele>259</ele></trkpt>
<trkpt lat="-36.09157" lon="146.94058"><ele>260</ele></trkpt>
<trkpt lat="-36.09117" lon="146.94025"><ele>259</ele></trkpt>
<trkpt lat="-36.09035" lon="146.94024"><ele>258</ele></trkpt>
<trkpt lat="-36.08989" lon="146.94016"><ele>258</ele></trkpt>
<trkpt lat="-36.08922" lon="146.93959"><ele>260</ele></trkpt>
<trkpt lat="-36.08852" lon="146.93947"><ele>261</ele></trkpt>
<trkpt lat="-36.08798" lon="146.93884"><ele>257</ele></trkpt>
<trkpt lat="-36.08769" lon="146.93875"><ele>252</ele></trkpt>
<trkpt lat="-36.08732" lon="146.93873"><ele>246</ele></trkpt>
<trkpt lat="-36.08669" lon="146.93897"><ele>238</ele></trkpt>
<trkpt lat="-36.08657" lon="146.93886"><ele>235</ele></trkpt>
<trkpt lat="-36.08657" lon="146.93866"><ele>234</ele></trkpt>
<trkpt lat="-36.08672" lon="146.9384"><ele>235</ele></trkpt>
<trkpt lat="-36.08579" lon="146.93847"><ele>223</ele></trkpt>
<trkpt lat="-36.08572" lon="146.9375"><ele>215</ele></trkpt>
<trkpt lat="-36.08633" lon="146.93629"><ele>206</ele></trkpt>
<trkpt lat="-36.08533" lon="146.92839"><ele>174</ele></trkpt>
<trkpt lat="-36.08782" lon="146.92795"><ele>178</ele></trkpt>
<trkpt lat="-36.08731" lon="146.9254"><ele>168</ele></trkpt>
<trkpt lat="-36.08761" lon="146.92316"><ele>158</ele></trkpt>
<trkpt lat="-36.08856" lon="146.92298"><ele>157</ele></trkpt>
<trkpt lat="-36.09058" lon="146.92216"><ele>155</ele></trkpt>
<trkpt lat="-36.09041" lon="146.92067"><ele>157</ele></trkpt>
<trkpt lat="-36.09067" lon="146.9205"><ele>156</ele></trkpt>
<trkpt lat="-36.09191" lon="146.92027"><ele>155</ele></trkpt>
<trkpt lat="-36.09223" lon="146.91876"><ele>155</ele></trkpt>
<trkpt lat="-36.09168" lon="146.91816"><ele>155</ele></trkpt>
<trkpt lat="-36.0916" lon="146.91801"><ele>155</ele></trkpt>
<trkpt lat="-36.09139" lon="146.91641"><ele>156</ele></trkpt>
<trkpt lat="-36.09123" lon="146.91641"><ele>156</ele></trkpt>
<trkpt lat="-36.09094" lon="146.91404"><ele>154</ele></trkpt>
<trkpt lat="-36.09092" lon="146.91391"><ele>154</ele></trkpt>
<trkpt lat="-36.09085" lon="146.91392"><ele>154</ele></trkpt>
<trkpt lat="-36.09082" lon="146.91362"><ele>153</ele></trkpt>
<trkpt lat="-36.09088" lon="146.91361"><ele>153</ele></trkpt>
<trkpt lat="-36.09087" lon="146.91351"><ele>153</ele></trkpt>
<trkpt lat="-36.09107" lon="146.91347"><ele>154</ele></trkpt>
<trkpt lat="-36.09053" lon="146.90941"><ele>155</ele></trkpt>
<trkpt lat="-36.09039" lon="146.90915"><ele>155</ele></trkpt>
<trkpt lat="-36.0905" lon="146.90874"><ele>156</ele></trkpt>
<trkpt lat="-36.09096" lon="146.90858"><ele>157</ele></trkpt>
<trkpt lat="-36.09117" lon="146.90809"><ele>159</ele></trkpt>
<trkpt lat="-36.09164" lon="146.90753"><ele>161</ele></trkpt>
<trkpt lat="-36.09172" lon="146.90717"><ele>158</ele></trkpt>
<trkpt lat="-36.09161" lon="146.90693"><ele>156</ele></trkpt>
<trkpt lat="-36.09145" lon="146.90682"><ele>155</ele></trkpt>
<trkpt lat="-36.0913" lon="146.9068"><ele>155</ele></trkpt>
<trkpt lat="-36.09099" lon="146.9069"><ele>155</ele></trkpt>
<trkpt lat="-36.08947" lon="146.90635"><ele>157</ele></trkpt>
<trkpt lat="-36.08919" lon="146.9061"><ele>159</ele></trkpt>
<trkpt lat="-36.08855" lon="146.9058"><ele>165</ele></trkpt>
<trkpt lat="-36.08848" lon="146.90568"><ele>165</ele></trkpt>
<trkpt lat="-36.08843" lon="146.90511"><ele>161</ele></trkpt>
<trkpt lat="-36.08813" lon="146.90467"><ele>161</ele></trkpt>
<trkpt lat="-36.08793" lon="146.90424"><ele>161</ele></trkpt>
<trkpt lat="-36.08772" lon="146.90401"><ele>161</ele></trkpt>
<trkpt lat="-36.08753" lon="146.90388"><ele>161</ele></trkpt>
<trkpt lat="-36.08741" lon="146.9039"><ele>161</ele></trkpt>
<trkpt lat="-36.08681" lon="146.90454"><ele>159</ele></trkpt>
<trkpt lat="-36.08677" lon="146.90471"><ele>159</ele></trkpt>
<trkpt lat="-36.08696" lon="146.90629"><ele>158</ele></trkpt>
<trkpt lat="-36.08695" lon="146.9065"><ele>157</ele></trkpt>
<trkpt lat="-36.08677" lon="146.90717"><ele>155</ele></trkpt>
<trkpt lat="-36.08636" lon="146.90781"><ele>154</ele></trkpt>
<trkpt lat="-36.08584" lon="146.90812"><ele>153</ele></trkpt>
<trkpt lat="-36.08581" lon="146.90821"><ele>153</ele></trkpt>
<trkpt lat="-36.08586" lon="146.90837"><ele>153</ele></trkpt>
<trkpt lat="-36.08566" lon="146.90854"><ele>153</ele></trkpt>
<trkpt lat="-36.08518" lon="146.90816"><ele>154</ele></trkpt>
<trkpt lat="-36.08482" lon="146.90797"><ele>155</ele></trkpt>
<trkpt lat="-36.08474" lon="146.90821"><ele>155</ele></trkpt>
</trkseg></trk>
</gpx>
