<?xml version="1.0" encoding="UTF-8"?>
<gpx xmlns="http://www.topografix.com/GPX/1/1" version="1.1" creator="Split from the Hume and Hovell Full Track Alignment GPX (NSW Crown Lands)">
<metadata><name>Hume and Hovell Track, Section 1 - Cooma Cottage to Fitzpatrick Trackhead</name></metadata>
<trk><name>Section 1 - Cooma Cottage to Fitzpatrick Trackhead</name><trkseg>
<trkpt lat="-34.86306" lon="148.94819"><ele>515</ele></trkpt>
<trkpt lat="-34.8636" lon="148.94726"><ele>520</ele></trkpt>
<trkpt lat="-34.86428" lon="148.94629"><ele>524</ele></trkpt>
<trkpt lat="-34.86488" lon="148.94627"><ele>526</ele></trkpt>
<trkpt lat="-34.86502" lon="148.94623"><ele>527</ele></trkpt>
<trkpt lat="-34.86353" lon="148.94251"><ele>538</ele></trkpt>
<trkpt lat="-34.86332" lon="148.9417"><ele>532</ele></trkpt>
<trkpt lat="-34.86304" lon="148.94001"><ele>524</ele></trkpt>
<trkpt lat="-34.86264" lon="148.939"><ele>517</ele></trkpt>
<trkpt lat="-34.86181" lon="148.9379"><ele>512</ele></trkpt>
<trkpt lat="-34.86047" lon="148.93655"><ele>509</ele></trkpt>
<trkpt lat="-34.85979" lon="148.93573"><ele>512</ele></trkpt>
<trkpt lat="-34.85965" lon="148.93547"><ele>513</ele></trkpt>
<trkpt lat="-34.85602" lon="148.93027"><ele>536</ele></trkpt>
<trkpt lat="-34.85475" lon="148.92879"><ele>540</ele></trkpt>
<trkpt lat="-34.85384" lon="148.92783"><ele>542</ele></trkpt>
<trkpt lat="-34.85246" lon="148.9253"><ele>533</ele></trkpt>
<trkpt lat="-34.85194" lon="148.92423"><ele>531</ele></trkpt>
<trkpt lat="-34.85146" lon="148.92304"><ele>532</ele></trkpt>
<trkpt lat="-34.85124" lon="148.92185"><ele>532</ele></trkpt>
<trkpt lat="-34.85054" lon="148.92034"><ele>529</ele></trkpt>
<trkpt lat="-34.84993" lon="148.91841"><ele>517</ele></trkpt>
<trkpt lat="-34.84971" lon="148.91794"><ele>516</ele></trkpt>
<trkpt lat="-34.84885" lon="148.91723"><ele>514</ele></trkpt>
<trkpt lat="-34.84836" lon="148.91674"><ele>511</ele></trkpt>
<trkpt lat="-34.84552" lon="148.91425"><ele>501</ele></trkpt>
<trkpt lat="-34.84541" lon="148.91411"><ele>501</ele></trkpt>
<trkpt lat="-34.84045" lon="148.90973"><ele>488</ele></trkpt>
<trkpt lat="-34.83769" lon="148.9076"><ele>495</ele></trkpt>
<trkpt lat="-34.83686" lon="148.90702"><ele>498</ele></trkpt>
<trkpt lat="-34.83618" lon="148.90669"><ele>499</ele></trkpt>
<trkpt lat="-34.83563" lon="148.90676"><ele>501</ele></trkpt>
<trkpt lat="-34.83115" lon="148.90761"><ele>499</ele></trkpt>
<trkpt lat="-34.82429" lon="148.909"><ele>494</ele></trkpt>
<trkpt lat="-34.82133" lon="148.90517"><ele>487</ele></trkpt>
<trkpt lat="-34.81794" lon="148.90155"><ele>487</ele></trkpt>
<trkpt lat="-34.81753" lon="148.90082"><ele>489</ele></trkpt>
<trkpt lat="-34.81717" lon="148.90004"><ele>492</ele></trkpt>
<trkpt lat="-34.81671" lon="148.89869"><ele>501</ele></trkpt>
<trkpt lat="-34.8161" lon="148.89653"><ele>513</ele></trkpt>
<trkpt lat="-34.81535" lon="148.89525"><ele>511</ele></trkpt>
<trkpt lat="-34.81258" lon="148.89099"><ele>506</ele></trkpt>
<trkpt lat="-34.81196" lon="148.88959"><ele>507</ele></trkpt>
<trkpt lat="-34.81161" lon="148.88852"><ele>510</ele></trkpt>
<trkpt lat="-34.81093" lon="148.88602"><ele>512</ele></trkpt>
<trkpt lat="-34.81085" lon="148.88556"><ele>513</ele></trkpt>
<trkpt lat="-34.81059" lon="148.88474"><ele>515</ele></trkpt>
<trkpt lat="-34.81027" lon="148.88389"><ele>517</ele></trkpt>
<trkpt lat="-34.80973" lon="148.88296"><ele>523</ele></trkpt>
<trkpt lat="-34.81151" lon="148.88011"><ele>526</ele></trkpt>
<trkpt lat="-34.81199" lon="148.87955"><ele>528</ele></trkpt>
<trkpt lat="-34.81258" lon="148.87902"><ele>532</ele></trkpt>
<trkpt lat="-34.81486" lon="148.87716"><ele>537</ele></trkpt>
<trkpt lat="-34.81731" lon="148.87412"><ele>523</ele></trkpt>
<trkpt lat="-34.8186" lon="148.87201"><ele>522</ele></trkpt>
<trkpt lat="-34.82008" lon="148.86921"><ele>523</ele></trkpt>
<trkpt lat="-34.8209" lon="148.86776"><ele>528</ele></trkpt>
<trkpt lat="-34.82188" lon="148.8664"><ele>528</ele></trkpt>
<trkpt lat="-34.82325" lon="148.86427"><ele>535</ele></trkpt>
<trkpt lat="-34.82476" lon="148.86054"><ele>525</ele></trkpt>
<trkpt lat="-34.82497" lon="148.8598"><ele>519</ele></trkpt>
<trkpt lat="-34.82505" lon="148.85887"><ele>516</ele></trkpt>
<trkpt lat="-34.82504" lon="148.85849"><ele>515</ele></trkpt>
<trkpt lat="-34.82487" lon="148.85771"><ele>514</ele></trkpt>
<trkpt lat="-34.82413" lon="148.85548"><ele>525</ele></trkpt>
<trkpt lat="-34.82401" lon="148.85443"><ele>524</ele></trkpt>
<trkpt lat="-34.8241" lon="148.84951"><ele>506</ele></trkpt>
<trkpt lat="-34.82407" lon="148.84469"><ele>490</ele></trkpt>
<trkpt lat="-34.82429" lon="148.83975"><ele>493</ele></trkpt>
<trkpt lat="-34.82427" lon="148.83893"><ele>495</ele></trkpt>
<trkpt lat="-34.8242" lon="148.83863"><ele>496</ele></trkpt>
<trkpt lat="-34.82377" lon="148.83777"><ele>496</ele></trkpt>
<trkpt lat="-34.82299" lon="148.83649"><ele>498</ele></trkpt>
<trkpt lat="-34.82217" lon="148.83434"><ele>488</ele></trkpt>
<trkpt lat="-34.82184" lon="148.83374"><ele>485</ele></trkpt>
<trkpt lat="-34.8215" lon="148.83327"><ele>483</ele></trkpt>
<trkpt lat="-34.82029" lon="148.83216"><ele>481</ele></trkpt>
<trkpt lat="-34.81904" lon="148.83069"><ele>473</ele></trkpt>
<trkpt lat="-34.81794" lon="148.82994"><ele>470</ele></trkpt>
<trkpt lat="-34.81745" lon="148.82942"><ele>467</ele></trkpt>
<trkpt lat="-34.81707" lon="148.82911"><ele>466</ele></trkpt>
<trkpt lat="-34.81694" lon="148.82905"><ele>466</ele></trkpt>
<trkpt lat="-34.81635" lon="148.82895"><ele>466</ele></trkpt>
<trkpt lat="-34.81615" lon="148.82887"><ele>465</ele></trkpt>
<trkpt lat="-34.81605" lon="148.82877"><ele>464</ele></trkpt>
<trkpt lat="-34.81563" lon="148.82822"><ele>459</ele></trkpt>
<trkpt lat="-34.81536" lon="148.8273"><ele>460</ele></trkpt>
<trkpt lat="-34.81393" lon="148.82565"><ele>468</ele></trkpt>
<trkpt lat="-34.81324" lon="148.82467"><ele>469</ele></trkpt>
<trkpt lat="-34.813" lon="148.824"><ele>467</ele></trkpt>
<trkpt lat="-34.81273" lon="148.82265"><ele>470</ele></trkpt>
<trkpt lat="-34.81238" lon="148.8204"><ele>481</ele></trkpt>
<trkpt lat="-34.81215" lon="148.81847"><ele>482</ele></trkpt>
<trkpt lat="-34.81209" lon="148.81823"><ele>482</ele></trkpt>
<trkpt lat="-34.81162" lon="148.81755"><ele>484</ele></trkpt>
<trkpt lat="-34.81155" lon="148.81738"><ele>485</ele></trkpt>
<trkpt lat="-34.81143" lon="148.81648"><ele>488</ele></trkpt>
<trkpt lat="-34.81132" lon="148.81519"><ele>496</ele></trkpt>
<trkpt lat="-34.81125" lon="148.81161"><ele>512</ele></trkpt>
<trkpt lat="-34.81108" lon="148.81029"><ele>511</ele></trkpt>
<trkpt lat="-34.81114" lon="148.80997"><ele>510</ele></trkpt>
<trkpt lat="-34.81162" lon="148.80886"><ele>505</ele></trkpt>
<trkpt lat="-34.81164" lon="148.80772"><ele>502</ele></trkpt>
<trkpt lat="-34.8116" lon="148.80658"><ele>500</ele></trkpt>
<trkpt lat="-34.81129" lon="148.80325"><ele>482</ele></trkpt>
<trkpt lat="-34.81116" lon="148.80276"><ele>478</ele></trkpt>
<trkpt lat="-34.81091" lon="148.80254"><ele>476</ele></trkpt>
<trkpt lat="-34.81057" lon="148.80248"><ele>476</ele></trkpt>
<trkpt lat="-34.80962" lon="148.80253"><ele>477</ele></trkpt>
<trkpt lat="-34.80935" lon="148.80242"><ele>479</ele></trkpt>
<trkpt lat="-34.80902" lon="148.80203"><ele>484</ele></trkpt>
<trkpt lat="-34.80893" lon="148.80183"><ele>486</ele></trkpt>
<trkpt lat="-34.80887" lon="148.80159"><ele>488</ele></trkpt>
<trkpt lat="-34.80888" lon="148.80118"><ele>492</ele></trkpt>
<trkpt lat="-34.80906" lon="148.80076"><ele>497</ele></trkpt>
<trkpt lat="-34.80978" lon="148.80006"><ele>504</ele></trkpt>
<trkpt lat="-34.81001" lon="148.79965"><ele>506</ele></trkpt>
<trkpt lat="-34.81022" lon="148.7988"><ele>508</ele></trkpt>
<trkpt lat="-34.81058" lon="148.79656"><ele>523</ele></trkpt>
<trkpt lat="-34.81076" lon="148.79581"><ele>528</ele></trkpt>
<trkpt lat="-34.81229" lon="148.79135"><ele>534</ele></trkpt>
<trkpt lat="-34.81253" lon="148.79047"><ele>534</ele></trkpt>
<trkpt lat="-34.81271" lon="148.78922"><ele>534</ele></trkpt>
<trkpt lat="-34.81293" lon="148.78813"><ele>532</ele></trkpt>
<trkpt lat="-34.81335" lon="148.78717"><ele>535</ele></trkpt>
<trkpt lat="-34.81458" lon="148.78561"><ele>538</ele></trkpt>
<trkpt lat="-34.81481" lon="148.78524"><ele>539</ele></trkpt>
<trkpt lat="-34.81496" lon="148.78486"><ele>540</ele></trkpt>
<trkpt lat="-34.81526" lon="148.78357"><ele>542</ele></trkpt>
<trkpt lat="-34.81549" lon="148.78299"><ele>544</ele></trkpt>
<trkpt lat="-34.81594" lon="148.78219"><ele>547</ele></trkpt>
<trkpt lat="-34.8165" lon="148.78049"><ele>560</ele></trkpt>
<trkpt lat="-34.81701" lon="148.77919"><ele>567</ele></trkpt>
<trkpt lat="-34.81724" lon="148.77827"><ele>568</ele></trkpt>
<trkpt lat="-34.81728" lon="148.77791"><ele>569</ele></trkpt>
<trkpt lat="-34.81732" lon="148.77478"><ele>565</ele></trkpt>
<trkpt lat="-34.81753" lon="148.77374"><ele>564</ele></trkpt>
<trkpt lat="-34.81787" lon="148.77259"><ele>561</ele></trkpt>
<trkpt lat="-34.81817" lon="148.77015"><ele>555</ele></trkpt>
<trkpt lat="-34.81829" lon="148.76977"><ele>553</ele></trkpt>
<trkpt lat="-34.8193" lon="148.76885"><ele>551</ele></trkpt>
<trkpt lat="-34.81959" lon="148.76865"><ele>551</ele></trkpt>
<trkpt lat="-34.8199" lon="148.76851"><ele>551</ele></trkpt>
<trkpt lat="-34.82026" lon="148.76841"><ele>551</ele></trkpt>
<trkpt lat="-34.82088" lon="148.76836"><ele>551</ele></trkpt>
<trkpt lat="-34.82319" lon="148.76804"><ele>551</ele></trkpt>
<trkpt lat="-34.82348" lon="148.76806"><ele>551</ele></trkpt>
<trkpt lat="-34.82433" lon="148.76843"><ele>547</ele></trkpt>
<trkpt lat="-34.8263" lon="148.76911"><ele>548</ele></trkpt>
<trkpt lat="-34.82813" lon="148.76926"><ele>548</ele></trkpt>
<trkpt lat="-34.82951" lon="148.76957"><ele>541</ele></trkpt>
<trkpt lat="-34.83118" lon="148.76967"><ele>544</ele></trkpt>
<trkpt lat="-34.83148" lon="148.76965"><ele>547</ele></trkpt>
<trkpt lat="-34.83188" lon="148.76957"><ele>548</ele></trkpt>
<trkpt lat="-34.83276" lon="148.7692"><ele>548</ele></trkpt>
<trkpt lat="-34.83335" lon="148.76886"><ele>547</ele></trkpt>
<trkpt lat="-34.83362" lon="148.76838"><ele>548</ele></trkpt>
<trkpt lat="-34.83372" lon="148.76763"><ele>558</ele></trkpt>
<trkpt lat="-34.83383" lon="148.76747"><ele>560</ele></trkpt>
<trkpt lat="-34.83448" lon="148.76751"><ele>558</ele></trkpt>
<trkpt lat="-34.8348" lon="148.76739"><ele>561</ele></trkpt>
<trkpt lat="-34.83526" lon="148.76714"><ele>565</ele></trkpt>
<trkpt lat="-34.83544" lon="148.76714"><ele>563</ele></trkpt>
<trkpt lat="-34.83568" lon="148.76705"><ele>563</ele></trkpt>
<trkpt lat="-34.83595" lon="148.76687"><ele>565</ele></trkpt>
<trkpt lat="-34.83626" lon="148.766"><ele>574</ele></trkpt>
<trkpt lat="-34.83629" lon="148.76536"><ele>579</ele></trkpt>
<trkpt lat="-34.83627" lon="148.76424"><ele>580</ele></trkpt>
<trkpt lat="-34.83657" lon="148.76391"><ele>580</ele></trkpt>
<trkpt lat="-34.83723" lon="148.76336"><ele>584</ele></trkpt>
<trkpt lat="-34.83848" lon="148.7621"><ele>594</ele></trkpt>
<trkpt lat="-34.8393" lon="148.76136"><ele>597</ele></trkpt>
<trkpt lat="-34.83942" lon="148.76112"><ele>598</ele></trkpt>
<trkpt lat="-34.83948" lon="148.76044"><ele>604</ele></trkpt>
<trkpt lat="-34.8393" lon="148.75974"><ele>609</ele></trkpt>
<trkpt lat="-34.83896" lon="148.75927"><ele>612</ele></trkpt>
<trkpt lat="-34.83817" lon="148.75848"><ele>614</ele></trkpt>
<trkpt lat="-34.83783" lon="148.75793"><ele>615</ele></trkpt>
<trkpt lat="-34.83709" lon="148.75631"><ele>610</ele></trkpt>
<trkpt lat="-34.83706" lon="148.75597"><ele>607</ele></trkpt>
<trkpt lat="-34.83708" lon="148.75584"><ele>606</ele></trkpt>
<trkpt lat="-34.83788" lon="148.7551"><ele>603</ele></trkpt>
<trkpt lat="-34.83805" lon="148.75489"><ele>603</ele></trkpt>
<trkpt lat="-34.83848" lon="148.75399"><ele>601</ele></trkpt>
<trkpt lat="-34.83862" lon="148.75353"><ele>599</ele></trkpt>
<trkpt lat="-34.83849" lon="148.7524"><ele>600</ele></trkpt>
<trkpt lat="-34.83848" lon="148.75138"><ele>601</ele></trkpt>
<trkpt lat="-34.83862" lon="148.75004"><ele>603</ele></trkpt>
<trkpt lat="-34.83868" lon="148.74748"><ele>609</ele></trkpt>
<trkpt lat="-34.83882" lon="148.74673"><ele>610</ele></trkpt>
<trkpt lat="-34.83932" lon="148.74535"><ele>612</ele></trkpt>
<trkpt lat="-34.83955" lon="148.74492"><ele>612</ele></trkpt>
<trkpt lat="-34.84023" lon="148.74393"><ele>613</ele></trkpt>
<trkpt lat="-34.84091" lon="148.74281"><ele>617</ele></trkpt>
<trkpt lat="-34.84155" lon="148.74148"><ele>618</ele></trkpt>
<trkpt lat="-34.84179" lon="148.74069"><ele>619</ele></trkpt>
<trkpt lat="-34.84206" lon="148.74026"><ele>620</ele></trkpt>
<trkpt lat="-34.84283" lon="148.73939"><ele>624</ele></trkpt>
<trkpt lat="-34.84309" lon="148.73921"><ele>624</ele></trkpt>
<trkpt lat="-34.84391" lon="148.73835"><ele>628</ele></trkpt>
<trkpt lat="-34.84446" lon="148.73786"><ele>630</ele></trkpt>
<trkpt lat="-34.84655" lon="148.7354"><ele>645</ele></trkpt>
<trkpt lat="-34.84702" lon="148.73507"><ele>646</ele></trkpt>
<trkpt lat="-34.84788" lon="148.73462"><ele>644</ele></trkpt>
<trkpt lat="-34.8487" lon="148.73428"><ele>643</ele></trkpt>
<trkpt lat="-34.84925" lon="148.73397"><ele>644</ele></trkpt>
<trkpt lat="-34.8504" lon="148.73355"><ele>645</ele></trkpt>
<trkpt lat="-34.85172" lon="148.73285"><ele>646</ele></trkpt>
<trkpt lat="-34.85194" lon="148.73278"><ele>645</ele></trkpt>
<trkpt lat="-34.85221" lon="148.73259"><ele>644</ele></trkpt>
<trkpt lat="-34.8524" lon="148.73235"><ele>642</ele></trkpt>
<trkpt lat="-34.85248" lon="148.73213"><ele>640</ele></trkpt>
<trkpt lat="-34.8528" lon="148.73088"><ele>624</ele></trkpt>
<trkpt lat="-34.85283" lon="148.73024"><ele>618</ele></trkpt>
<trkpt lat="-34.85315" lon="148.72942"><ele>610</ele></trkpt>
<trkpt lat="-34.85316" lon="148.72899"><ele>607</ele></trkpt>
<trkpt lat="-34.85297" lon="148.72787"><ele>596</ele></trkpt>
<trkpt lat="-34.85299" lon="148.72728"><ele>590</ele></trkpt>
<trkpt lat="-34.85319" lon="148.72702"><ele>589</ele></trkpt>
<trkpt lat="-34.85369" lon="148.72658"><ele>585</ele></trkpt>
<trkpt lat="-34.85528" lon="148.72541"><ele>575</ele></trkpt>
<trkpt lat="-34.85579" lon="148.72515"><ele>573</ele></trkpt>
<trkpt lat="-34.85746" lon="148.7246"><ele>564</ele></trkpt>
<trkpt lat="-34.85906" lon="148.72396"><ele>557</ele></trkpt>
<trkpt lat="-34.86041" lon="148.72351"><ele>551</ele></trkpt>
<trkpt lat="-34.86113" lon="148.72337"><ele>549</ele></trkpt>
<trkpt lat="-34.86131" lon="148.72322"><ele>549</ele></trkpt>
<trkpt lat="-34.86209" lon="148.72296"><ele>546</ele></trkpt>
<trkpt lat="-34.86259" lon="148.72285"><ele>544</ele></trkpt>
<trkpt lat="-34.86291" lon="148.72284"><ele>542</ele></trkpt>
<trkpt lat="-34.86385" lon="148.7226"><ele>538</ele></trkpt>
<trkpt lat="-34.8645" lon="148.72257"><ele>536</ele></trkpt>
<trkpt lat="-34.86523" lon="148.72264"><ele>535</ele></trkpt>
<trkpt lat="-34.86637" lon="148.72253"><ele>534</ele></trkpt>
<trkpt lat="-34.86723" lon="148.72226"><ele>531</ele></trkpt>
<trkpt lat="-34.86864" lon="148.72198"><ele>527</ele></trkpt>
<trkpt lat="-34.86981" lon="148.72155"><ele>526</ele></trkpt>
<trkpt lat="-34.87107" lon="148.72095"><ele>528</ele></trkpt>
<trkpt lat="-34.87261" lon="148.72007"><ele>529</ele></trkpt>
<trkpt lat="-34.87286" lon="148.71988"><ele>530</ele></trkpt>
<trkpt lat="-34.8734" lon="148.71928"><ele>531</ele></trkpt>
<trkpt lat="-34.87399" lon="148.71846"><ele>533</ele></trkpt>
<trkpt lat="-34.87431" lon="148.71834"><ele>535</ele></trkpt>
<trkpt lat="-34.87525" lon="148.71785"><ele>541</ele></trkpt>
<trkpt lat="-34.87598" lon="148.7173"><ele>545</ele></trkpt>
<trkpt lat="-34.87704" lon="148.71662"><ele>548</ele></trkpt>
<trkpt lat="-34.87771" lon="148.71629"><ele>549</ele></trkpt>
<trkpt lat="-34.87869" lon="148.71596"><ele>544</ele></trkpt>
<trkpt lat="-34.87882" lon="148.71584"><ele>543</ele></trkpt>
<trkpt lat="-34.87922" lon="148.71477"><ele>541</ele></trkpt>
<trkpt lat="-34.87962" lon="148.71345"><ele>540</ele></trkpt>
<trkpt lat="-34.87972" lon="148.713"><ele>540</ele></trkpt>
<trkpt lat="-34.87984" lon="148.71194"><ele>541</ele></trkpt>
<trkpt lat="-34.87992" lon="148.71179"><ele>540</ele></trkpt>
<trkpt lat="-34.88007" lon="148.71104"><ele>543</ele></trkpt>
<trkpt lat="-34.8802" lon="148.71104"><ele>543</ele></trkpt>
<trkpt lat="-34.88027" lon="148.71131"><ele>542</ele></trkpt>
<trkpt lat="-34.88036" lon="148.71146"><ele>542</ele></trkpt>
<trkpt lat="-34.8805" lon="148.71145"><ele>542</ele></trkpt>
<trkpt lat="-34.88067" lon="148.71128"><ele>543</ele></trkpt>
<trkpt lat="-34.88121" lon="148.71025"><ele>547</ele></trkpt>
<trkpt lat="-34.88154" lon="148.70994"><ele>547</ele></trkpt>
<trkpt lat="-34.88199" lon="148.70971"><ele>547</ele></trkpt>
<trkpt lat="-34.88262" lon="148.70951"><ele>548</ele></trkpt>
<trkpt lat="-34.88639" lon="148.70234"><ele>562</ele></trkpt>
<trkpt lat="-34.88616" lon="148.70126"><ele>565</ele></trkpt>
<trkpt lat="-34.88568" lon="148.69748"><ele>580</ele></trkpt>
<trkpt lat="-34.88577" lon="148.69678"><ele>583</ele></trkpt>
<trkpt lat="-34.88603" lon="148.69583"><ele>584</ele></trkpt>
<trkpt lat="-34.88639" lon="148.69492"><ele>588</ele></trkpt>
<trkpt lat="-34.88748" lon="148.69279"><ele>597</ele></trkpt>
<trkpt lat="-34.8877" lon="148.69173"><ele>602</ele></trkpt>
<trkpt lat="-34.88799" lon="148.68847"><ele>615</ele></trkpt>
<trkpt lat="-34.88889" lon="148.68705"><ele>621</ele></trkpt>
<trkpt lat="-34.88906" lon="148.68667"><ele>623</ele></trkpt>
<trkpt lat="-34.88938" lon="148.68538"><ele>622</ele></trkpt>
<trkpt lat="-34.88959" lon="148.68514"><ele>622</ele></trkpt>
<trkpt lat="-34.88984" lon="148.68472"><ele>622</ele></trkpt>
<trkpt lat="-34.89072" lon="148.68311"><ele>623</ele></trkpt>
<trkpt lat="-34.89099" lon="148.6828"><ele>623</ele></trkpt>
<trkpt lat="-34.89695" lon="148.67782"><ele>634</ele></trkpt>
<trkpt lat="-34.89738" lon="148.67758"><ele>636</ele></trkpt>
<trkpt lat="-34.89877" lon="148.6771"><ele>644</ele></trkpt>
<trkpt lat="-34.89926" lon="148.67685"><ele>646</ele></trkpt>
<trkpt lat="-34.89965" lon="148.67653"><ele>647</ele></trkpt>
<trkpt lat="-34.90061" lon="148.6755"><ele>649</ele></trkpt>
<trkpt lat="-34.90096" lon="148.6752"><ele>650</ele></trkpt>
<trkpt lat="-34.90348" lon="148.67383"><ele>654</ele></trkpt>
<trkpt lat="-34.90558" lon="148.67219"><ele>647</ele></trkpt>
<trkpt lat="-34.90626" lon="148.67157"><ele>643</ele></trkpt>
<trkpt lat="-34.90991" lon="148.66791"><ele>627</ele></trkpt>
<trkpt lat="-34.91219" lon="148.66587"><ele>618</ele></trkpt>
<trkpt lat="-34.91397" lon="148.66415"><ele>613</ele></trkpt>
<trkpt lat="-34.91744" lon="148.66054"><ele>602</ele></trkpt>
<trkpt lat="-34.92151" lon="148.65679"><ele>591</ele></trkpt>
<trkpt lat="-34.92192" lon="148.65649"><ele>591</ele></trkpt>
<trkpt lat="-34.92242" lon="148.6563"><ele>591</ele></trkpt>
<trkpt lat="-34.92295" lon="148.65625"><ele>592</ele></trkpt>
<trkpt lat="-34.92336" lon="148.65632"><ele>592</ele></trkpt>
<trkpt lat="-34.92619" lon="148.65745"><ele>599</ele></trkpt>
<trkpt lat="-34.92686" lon="148.65781"><ele>600</ele></trkpt>
<trkpt lat="-34.93082" lon="148.66026"><ele>610</ele></trkpt>
<trkpt lat="-34.9325" lon="148.66158"><ele>624</ele></trkpt>
<trkpt lat="-34.93433" lon="148.66285"><ele>639</ele></trkpt>
<trkpt lat="-34.9351" lon="148.66313"><ele>644</ele></trkpt>
<trkpt lat="-34.93578" lon="148.66328"><ele>647</ele></trkpt>
<trkpt lat="-34.93775" lon="148.66386"><ele>660</ele></trkpt>
<trkpt lat="-34.93834" lon="148.66408"><ele>670</ele></trkpt>
<trkpt lat="-34.93913" lon="148.66422"><ele>672</ele></trkpt>
<trkpt lat="-34.94014" lon="148.66481"><ele>674</ele></trkpt>
<trkpt lat="-34.94166" lon="148.66434"><ele>660</ele></trkpt>
<trkpt lat="-34.94197" lon="148.66416"><ele>657</ele></trkpt>
<trkpt lat="-34.94233" lon="148.66419"><ele>656</ele></trkpt>
<trkpt lat="-34.94256" lon="148.66408"><ele>654</ele></trkpt>
<trkpt lat="-34.94308" lon="148.66353"><ele>647</ele></trkpt>
<trkpt lat="-34.9434" lon="148.66332"><ele>644</ele></trkpt>
<trkpt lat="-34.94465" lon="148.66291"><ele>636</ele></trkpt>
<trkpt lat="-34.94545" lon="148.66279"><ele>627</ele></trkpt>
<trkpt lat="-34.94611" lon="148.6631"><ele>622</ele></trkpt>
<trkpt lat="-34.94636" lon="148.66311"><ele>619</ele></trkpt>
<trkpt lat="-34.94661" lon="148.66286"><ele>616</ele></trkpt>
<trkpt lat="-34.94689" lon="148.66231"><ele>613</ele></trkpt>
<trkpt lat="-34.94713" lon="148.6617"><ele>610</ele></trkpt>
<trkpt lat="-34.94734" lon="148.6614"><ele>609</ele></trkpt>
<trkpt lat="-34.9477" lon="148.66117"><ele>606</ele></trkpt>
<trkpt lat="-34.94867" lon="148.66089"><ele>594</ele></trkpt>
<trkpt lat="-34.94918" lon="148.66069"><ele>592</ele></trkpt>
<trkpt lat="-34.94925" lon="148.66056"><ele>592</ele></trkpt>
<trkpt lat="-34.94973" lon="148.66019"><ele>592</ele></trkpt>
<trkpt lat="-34.94993" lon="148.66014"><ele>591</ele></trkpt>
<trkpt lat="-34.95035" lon="148.66025"><ele>591</ele></trkpt>
<trkpt lat="-34.95117" lon="148.6603"><ele>591</ele></trkpt>
<trkpt lat="-34.95202" lon="148.6605"><ele>597</ele></trkpt>
<trkpt lat="-34.95224" lon="148.66051"><ele>597</ele></trkpt>
<trkpt lat="-34.95265" lon="148.66066"><ele>599</ele></trkpt>
<trkpt lat="-34.95306" lon="148.66054"><ele>599</ele></trkpt>
<trkpt lat="-34.9533" lon="148.66037"><ele>598</ele></trkpt>
<trkpt lat="-34.95373" lon="148.66003"><ele>598</ele></trkpt>
<trkpt lat="-34.95408" lon="148.65963"><ele>596</ele></trkpt>
<trkpt lat="-34.95458" lon="148.65949"><ele>596</ele></trkpt>
<trkpt lat="-34.95502" lon="148.6592"><ele>595</ele></trkpt>
<trkpt lat="-34.95534" lon="148.65915"><ele>597</ele></trkpt>
<trkpt lat="-34.95596" lon="148.65887"><ele>598</ele></trkpt>
<trkpt lat="-34.95725" lon="148.65857"><ele>605</ele></trkpt>
<trkpt lat="-34.95826" lon="148.65842"><ele>612</ele></trkpt>
<trkpt lat="-34.95851" lon="148.65834"><ele>611</ele></trkpt>
<trkpt lat="-34.95899" lon="148.65837"><ele>610</ele></trkpt>
<trkpt lat="-34.95942" lon="148.6586"><ele>613</ele></trkpt>
<trkpt lat="-34.96052" lon="148.65882"><ele>617</ele></trkpt>
<trkpt lat="-34.96148" lon="148.65909"><ele>622</ele></trkpt>
<trkpt lat="-34.96151" lon="148.65945"><ele>623</ele></trkpt>
<trkpt lat="-34.96175" lon="148.66006"><ele>622</ele></trkpt>
<trkpt lat="-34.9621" lon="148.66023"><ele>620</ele></trkpt>
<trkpt lat="-34.96276" lon="148.6603"><ele>615</ele></trkpt>
<trkpt lat="-34.96322" lon="148.66023"><ele>609</ele></trkpt>
<trkpt lat="-34.9637" lon="148.66001"><ele>604</ele></trkpt>
<trkpt lat="-34.96405" lon="148.65991"><ele>603</ele></trkpt>
<trkpt lat="-34.96456" lon="148.65986"><ele>602</ele></trkpt>
<trkpt lat="-34.96492" lon="148.65958"><ele>602</ele></trkpt>
<trkpt lat="-34.96533" lon="148.65936"><ele>600</ele></trkpt>
<trkpt lat="-34.96619" lon="148.65902"><ele>594</ele></trkpt>
<trkpt lat="-34.96679" lon="148.65886"><ele>592</ele></trkpt>
<trkpt lat="-34.96852" lon="148.65864"><ele>579</ele></trkpt>
<trkpt lat="-34.97015" lon="148.65813"><ele>558</ele></trkpt>
<trkpt lat="-34.97026" lon="148.65816"><ele>557</ele></trkpt>
<trkpt lat="-34.97062" lon="148.65844"><ele>556</ele></trkpt>
<trkpt lat="-34.97083" lon="148.65843"><ele>553</ele></trkpt>
<trkpt lat="-34.97113" lon="148.65771"><ele>548</ele></trkpt>
<trkpt lat="-34.97149" lon="148.65717"><ele>545</ele></trkpt>
<trkpt lat="-34.9721" lon="148.65606"><ele>540</ele></trkpt>
<trkpt lat="-34.973" lon="148.65501"><ele>535</ele></trkpt>
<trkpt lat="-34.97377" lon="148.65445"><ele>530</ele></trkpt>
<trkpt lat="-34.97437" lon="148.65422"><ele>525</ele></trkpt>
<trkpt lat="-34.97491" lon="148.65426"><ele>520</ele></trkpt>
<trkpt lat="-34.97543" lon="148.65393"><ele>519</ele></trkpt>
<trkpt lat="-34.97559" lon="148.65318"><ele>513</ele></trkpt>
<trkpt lat="-34.97599" lon="148.65244"><ele>507</ele></trkpt>
<trkpt lat="-34.976" lon="148.65222"><ele>504</ele></trkpt>
<trkpt lat="-34.97581" lon="148.65173"><ele>495</ele></trkpt>
<trkpt lat="-34.97579" lon="148.65153"><ele>492</ele></trkpt>
<trkpt lat="-34.97588" lon="148.65101"><ele>486</ele></trkpt>
<trkpt lat="-34.97618" lon="148.65077"><ele>487</ele></trkpt>
<trkpt lat="-34.97627" lon="148.65061"><ele>486</ele></trkpt>
<trkpt lat="-34.97625" lon="148.64981"><ele>474</ele></trkpt>
<trkpt lat="-34.97659" lon="148.64959"><ele>475</ele></trkpt>
<trkpt lat="-34.97673" lon="148.64942"><ele>475</ele></trkpt>
<trkpt lat="-34.97681" lon="148.64916"><ele>471</ele></trkpt>
<trkpt lat="-34.9772" lon="148.6489"><ele>472</ele></trkpt>
<trkpt lat="-34.97742" lon="148.64866"><ele>473</ele></trkpt>
<trkpt lat="-34.97712" lon="148.64785"><ele>459</ele></trkpt>
<trkpt lat="-34.97708" lon="148.64742"><ele>453</ele></trkpt>
<trkpt lat="-34.97711" lon="148.64717"><ele>452</ele></trkpt>
<trkpt lat="-34.97739" lon="148.64662"><ele>451</ele></trkpt>
<trkpt lat="-34.97794" lon="148.64644"><ele>457</ele></trkpt>
<trkpt lat="-34.97804" lon="148.64635"><ele>458</ele></trkpt>
<trkpt lat="-34.97793" lon="148.64603"><ele>453</ele></trkpt>
<trkpt lat="-34.9774" lon="148.64575"><ele>442</ele></trkpt>
<trkpt lat="-34.97739" lon="148.64546"><ele>439</ele></trkpt>
<trkpt lat="-34.97749" lon="148.64526"><ele>439</ele></trkpt>
<trkpt lat="-34.97772" lon="148.64508"><ele>439</ele></trkpt>
<trkpt lat="-34.97894" lon="148.64461"><ele>428</ele></trkpt>
<trkpt lat="-34.97952" lon="148.64432"><ele>421</ele></trkpt>
<trkpt lat="-34.97963" lon="148.64408"><ele>419</ele></trkpt>
<trkpt lat="-34.97962" lon="148.64383"><ele>418</ele></trkpt>
<trkpt lat="-34.97863" lon="148.64288"><ele>404</ele></trkpt>
<trkpt lat="-34.97834" lon="148.64245"><ele>398</ele></trkpt>
<trkpt lat="-34.97805" lon="148.6421"><ele>403</ele></trkpt>
<trkpt lat="-34.97795" lon="148.64168"><ele>402</ele></trkpt>
<trkpt lat="-34.97781" lon="148.64135"><ele>408</ele></trkpt>
<trkpt lat="-34.97787" lon="148.64092"><ele>405</ele></trkpt>
<trkpt lat="-34.97833" lon="148.64034"><ele>389</ele></trkpt>
<trkpt lat="-34.97846" lon="148.63954"><ele>382</ele></trkpt>
<trkpt lat="-34.97847" lon="148.63901"><ele>376</ele></trkpt>
<trkpt lat="-34.97833" lon="148.63829"><ele>370</ele></trkpt>
<trkpt lat="-34.9778" lon="148.63811"><ele>376</ele></trkpt>
<trkpt lat="-34.97694" lon="148.63764"><ele>381</ele></trkpt>
<trkpt lat="-34.97678" lon="148.63644"><ele>375</ele></trkpt>
<trkpt lat="-34.97659" lon="148.63581"><ele>374</ele></trkpt>
<trkpt lat="-34.97651" lon="148.63512"><ele>375</ele></trkpt>
<trkpt lat="-34.97636" lon="148.63462"><ele>374</ele></trkpt>
<trkpt lat="-34.97598" lon="148.63398"><ele>374</ele></trkpt>
<trkpt lat="-34.97512" lon="148.6334"><ele>379</ele></trkpt>
<trkpt lat="-34.97461" lon="148.63347"><ele>388</ele></trkpt>
<trkpt lat="-34.97397" lon="148.63342"><ele>393</ele></trkpt>
<trkpt lat="-34.97333" lon="148.63291"><ele>381</ele></trkpt>
<trkpt lat="-34.97308" lon="148.63296"><ele>381</ele></trkpt>
<trkpt lat="-34.97271" lon="148.63323"><ele>390</ele></trkpt>
<trkpt lat="-34.97221" lon="148.63321"><ele>389</ele></trkpt>
<trkpt lat="-34.9719" lon="148.63301"><ele>385</ele></trkpt>
<trkpt lat="-34.97163" lon="148.6325"><ele>371</ele></trkpt>
<trkpt lat="-34.97129" lon="148.63211"><ele>375</ele></trkpt>
<trkpt lat="-34.97107" lon="148.63192"><ele>375</ele></trkpt>
<trkpt lat="-34.97085" lon="148.63185"><ele>376</ele></trkpt>
<trkpt lat="-34.97058" lon="148.63191"><ele>378</ele></trkpt>
<trkpt lat="-34.97047" lon="148.632"><ele>380</ele></trkpt>
<trkpt lat="-34.97037" lon="148.63224"><ele>383</ele></trkpt>
<trkpt lat="-34.96895" lon="148.63316"><ele>386</ele></trkpt>
<trkpt lat="-34.96849" lon="148.63339"><ele>385</ele></trkpt>
<trkpt lat="-34.96824" lon="148.63356"><ele>389</ele></trkpt>
<trkpt lat="-34.96804" lon="148.63331"><ele>395</ele></trkpt>
<trkpt lat="-34.96844" lon="148.63273"><ele>389</ele></trkpt>
<trkpt lat="-34.97005" lon="148.63125"><ele>394</ele></trkpt>
<trkpt lat="-34.97044" lon="148.63099"><ele>401</ele></trkpt>
<trkpt lat="-34.97082" lon="148.63098"><ele>398</ele></trkpt>
<trkpt lat="-34.97098" lon="148.63109"><ele>394</ele></trkpt>
<trkpt lat="-34.97117" lon="148.6311"><ele>392</ele></trkpt>
<trkpt lat="-34.97173" lon="148.63139"><ele>378</ele></trkpt>
<trkpt lat="-34.97207" lon="148.63167"><ele>365</ele></trkpt>
<trkpt lat="-34.97221" lon="148.63169"><ele>363</ele></trkpt>
<trkpt lat="-34.9724" lon="148.63151"><ele>366</ele></trkpt>
<trkpt lat="-34.97268" lon="148.63086"><ele>378</ele></trkpt>
<trkpt lat="-34.97272" lon="148.63058"><ele>386</ele></trkpt>
<trkpt lat="-34.97289" lon="148.63063"><ele>380</ele></trkpt>
<trkpt lat="-34.97316" lon="148.63047"><ele>379</ele></trkpt>
<trkpt lat="-34.97345" lon="148.63047"><ele>372</ele></trkpt>
<trkpt lat="-34.97362" lon="148.63031"><ele>372</ele></trkpt>
<trkpt lat="-34.97385" lon="148.62935"><ele>388</ele></trkpt>
<trkpt lat="-34.9741" lon="148.62969"><ele>373</ele></trkpt>
<trkpt lat="-34.97432" lon="148.6297"><ele>368</ele></trkpt>
<trkpt lat="-34.97448" lon="148.6296"><ele>368</ele></trkpt>
<trkpt lat="-34.97448" lon="148.62922"><ele>377</ele></trkpt>
<trkpt lat="-34.97453" lon="148.62904"><ele>381</ele></trkpt>
<trkpt lat="-34.97461" lon="148.62895"><ele>382</ele></trkpt>
<trkpt lat="-34.9751" lon="148.6291"><ele>367</ele></trkpt>
<trkpt lat="-34.97519" lon="148.62904"><ele>367</ele></trkpt>
<trkpt lat="-34.97526" lon="148.62864"><ele>378</ele></trkpt>
<trkpt lat="-34.97534" lon="148.62851"><ele>380</ele></trkpt>
<trkpt lat="-34.97555" lon="148.62834"><ele>380</ele></trkpt>
<trkpt lat="-34.97596" lon="148.62822"><ele>376</ele></trkpt>
<trkpt lat="-34.97631" lon="148.6282"><ele>373</ele></trkpt>
<trkpt lat="-34.97699" lon="148.62796"><ele>371</ele></trkpt>
<trkpt lat="-34.97752" lon="148.62749"><ele>370</ele></trkpt>
<trkpt lat="-34.97788" lon="148.62691"><ele>378</ele></trkpt>
<trkpt lat="-34.97805" lon="148.62694"><ele>375</ele></trkpt>
<trkpt lat="-34.97823" lon="148.62674"><ele>377</ele></trkpt>
<trkpt lat="-34.97843" lon="148.62675"><ele>374</ele></trkpt>
<trkpt lat="-34.97859" lon="148.62695"><ele>369</ele></trkpt>
<trkpt lat="-34.97905" lon="148.62651"><ele>370</ele></trkpt>
<trkpt lat="-34.97926" lon="148.62641"><ele>367</ele></trkpt>
<trkpt lat="-34.97932" lon="148.62571"><ele>370</ele></trkpt>
<trkpt lat="-34.97925" lon="148.6255"><ele>373</ele></trkpt>
<trkpt lat="-34.97922" lon="148.62522"><ele>375</ele></trkpt>
<trkpt lat="-34.97939" lon="148.62464"><ele>378</ele></trkpt>
<trkpt lat="-34.97932" lon="148.6245"><ele>381</ele></trkpt>
<trkpt lat="-34.97937" lon="148.62433"><ele>383</ele></trkpt>
<trkpt lat="-34.97965" lon="148.62414"><ele>381</ele></trkpt>
<trkpt lat="-34.98073" lon="148.62356"><ele>376</ele></trkpt>
<trkpt lat="-34.98134" lon="148.62373"><ele>368</ele></trkpt>
<trkpt lat="-34.98258" lon="148.62494"><ele>349</ele></trkpt>
<trkpt lat="-34.98763" lon="148.62823"><ele>345</ele></trkpt>
<trkpt lat="-34.99437" lon="148.63224"><ele>345</ele></trkpt>
<trkpt lat="-34.99709" lon="148.63428"><ele>345</ele></trkpt>
<trkpt lat="-35.0059" lon="148.63882"><ele>345</ele></trkpt>
<trkpt lat="-35.01181" lon="148.64105"><ele>345</ele></trkpt>
<trkpt lat="-35.0165" lon="148.64321"><ele>345</ele></trkpt>
<trkpt lat="-35.02225" lon="148.64572"><ele>345</ele></trkpt>
<trkpt lat="-35.02542" lon="148.64653"><ele>345</ele></trkpt>
<trkpt lat="-35.02656" lon="148.6457"><ele>345</ele></trkpt>
<trkpt lat="-35.02765" lon="148.64321"><ele>365</ele></trkpt>
<trkpt lat="-35.02785" lon="148.64305"><ele>366</ele></trkpt>
<trkpt lat="-35.02807" lon="148.64264"><ele>369</ele></trkpt>
<trkpt lat="-35.02851" lon="148.64214"><ele>374</ele></trkpt>
<trkpt lat="-35.02873" lon="148.64209"><ele>376</ele></trkpt>
<trkpt lat="-35.02913" lon="148.64213"><ele>379</ele></trkpt>
<trkpt lat="-35.0298" lon="148.64243"><ele>374</ele></trkpt>
<trkpt lat="-35.03038" lon="148.64241"><ele>373</ele></trkpt>
<trkpt lat="-35.03065" lon="148.64248"><ele>371</ele></trkpt>
<trkpt lat="-35.03097" lon="148.64264"><ele>369</ele></trkpt>
<trkpt lat="-35.03137" lon="148.64271"><ele>369</ele></trkpt>
<trkpt lat="-35.03151" lon="148.64313"><ele>367</ele></trkpt>
<trkpt lat="-35.03182" lon="148.64363"><ele>367</ele></trkpt>
<trkpt lat="-35.03248" lon="148.64531"><ele>370</ele></trkpt>
<trkpt lat="-35.03259" lon="148.64553"><ele>370</ele></trkpt>
<trkpt lat="-35.03275" lon="148.6457"><ele>371</ele></trkpt>
<trkpt lat="-35.03293" lon="148.64609"><ele>368</ele></trkpt>
<trkpt lat="-35.03346" lon="148.6464"><ele>368</ele></trkpt>
<trkpt lat="-35.03435" lon="148.64706"><ele>375</ele></trkpt>
<trkpt lat="-35.03475" lon="148.64729"><ele>378</ele></trkpt>
<trkpt lat="-35.03552" lon="148.64748"><ele>380</ele></trkpt>
<trkpt lat="-35.03578" lon="148.64762"><ele>379</ele></trkpt>
<trkpt lat="-35.03608" lon="148.6479"><ele>377</ele></trkpt>
<trkpt lat="-35.0364" lon="148.64832"><ele>375</ele></trkpt>
<trkpt lat="-35.03704" lon="148.64877"><ele>372</ele></trkpt>
<trkpt lat="-35.03722" lon="148.64897"><ele>372</ele></trkpt>
<trkpt lat="-35.03743" lon="148.64907"><ele>371</ele></trkpt>
<trkpt lat="-35.03837" lon="148.6492"><ele>373</ele></trkpt>
<trkpt lat="-35.03882" lon="148.64941"><ele>372</ele></trkpt>
<trkpt lat="-35.03944" lon="148.6496"><ele>371</ele></trkpt>
<trkpt lat="-35.03984" lon="148.64964"><ele>371</ele></trkpt>
<trkpt lat="-35.04085" lon="148.6495"><ele>371</ele></trkpt>
<trkpt lat="-35.0413" lon="148.64973"><ele>368</ele></trkpt>
<trkpt lat="-35.04161" lon="148.64971"><ele>368</ele></trkpt>
<trkpt lat="-35.04202" lon="148.64982"><ele>369</ele></trkpt>
<trkpt lat="-35.04295" lon="148.64972"><ele>372</ele></trkpt>
<trkpt lat="-35.04368" lon="148.64948"><ele>374</ele></trkpt>
<trkpt lat="-35.04381" lon="148.64961"><ele>374</ele></trkpt>
<trkpt lat="-35.04411" lon="148.6504"><ele>374</ele></trkpt>
<trkpt lat="-35.04412" lon="148.65126"><ele>377</ele></trkpt>
<trkpt lat="-35.0442" lon="148.65139"><ele>378</ele></trkpt>
<trkpt lat="-35.04521" lon="148.65189"><ele>388</ele></trkpt>
<trkpt lat="-35.04585" lon="148.6523"><ele>393</ele></trkpt>
<trkpt lat="-35.04681" lon="148.65271"><ele>397</ele></trkpt>
<trkpt lat="-35.04758" lon="148.65313"><ele>404</ele></trkpt>
<trkpt lat="-35.05014" lon="148.65393"><ele>411</ele></trkpt>
<trkpt lat="-35.0513" lon="148.65464"><ele>412</ele></trkpt>
<trkpt lat="-35.05219" lon="148.65497"><ele>409</ele></trkpt>
<trkpt lat="-35.05266" lon="148.65496"><ele>407</ele></trkpt>
<trkpt lat="-35.05299" lon="148.65518"><ele>404</ele></trkpt>
<trkpt lat="-35.05326" lon="148.65495"><ele>404</ele></trkpt>
<trkpt lat="-35.05419" lon="148.65518"><ele>401</ele></trkpt>
<trkpt lat="-35.05533" lon="148.65601"><ele>396</ele></trkpt>
<trkpt lat="-35.05689" lon="148.65835"><ele>383</ele></trkpt>
<trkpt lat="-35.05758" lon="148.65825"><ele>382</ele></trkpt>
<trkpt lat="-35.05808" lon="148.65822"><ele>385</ele></trkpt>
<trkpt lat="-35.05902" lon="148.6584"><ele>385</ele></trkpt>
<trkpt lat="-35.05949" lon="148.65857"><ele>383</ele></trkpt>
<trkpt lat="-35.05992" lon="148.65887"><ele>381</ele></trkpt>
<trkpt lat="-35.06036" lon="148.65929"><ele>378</ele></trkpt>
<trkpt lat="-35.06131" lon="148.65985"><ele>373</ele></trkpt>
<trkpt lat="-35.06287" lon="148.6604"><ele>377</ele></trkpt>
<trkpt lat="-35.06427" lon="148.66107"><ele>376</ele></trkpt>
<trkpt lat="-35.06509" lon="148.66138"><ele>374</ele></trkpt>
<trkpt lat="-35.06554" lon="148.66149"><ele>370</ele></trkpt>
<trkpt lat="-35.06587" lon="148.6615"><ele>369</ele></trkpt>
<trkpt lat="-35.06607" lon="148.6618"><ele>367</ele></trkpt>
<trkpt lat="-35.06641" lon="148.66284"><ele>364</ele></trkpt>
<trkpt lat="-35.06645" lon="148.664"><ele>363</ele></trkpt>
<trkpt lat="-35.06685" lon="148.66654"><ele>367</ele></trkpt>
<trkpt lat="-35.06705" lon="148.66711"><ele>367</ele></trkpt>
<trkpt lat="-35.06739" lon="148.66752"><ele>367</ele></trkpt>
<trkpt lat="-35.06782" lon="148.66778"><ele>371</ele></trkpt>
<trkpt lat="-35.06964" lon="148.66869"><ele>377</ele></trkpt>
<trkpt lat="-35.0726" lon="148.6697"><ele>366</ele></trkpt>
<trkpt lat="-35.07336" lon="148.66979"><ele>366</ele></trkpt>
<trkpt lat="-35.07433" lon="148.66947"><ele>365</ele></trkpt>
<trkpt lat="-35.07471" lon="148.66954"><ele>365</ele></trkpt>
<trkpt lat="-35.07515" lon="148.66982"><ele>366</ele></trkpt>
<trkpt lat="-35.07696" lon="148.67153"><ele>375</ele></trkpt>
<trkpt lat="-35.07758" lon="148.6719"><ele>378</ele></trkpt>
<trkpt lat="-35.07954" lon="148.67244"><ele>382</ele></trkpt>
<trkpt lat="-35.08286" lon="148.67322"><ele>386</ele></trkpt>
<trkpt lat="-35.0833" lon="148.67329"><ele>386</ele></trkpt>
<trkpt lat="-35.08547" lon="148.67343"><ele>372</ele></trkpt>
<trkpt lat="-35.08703" lon="148.67378"><ele>365</ele></trkpt>
<trkpt lat="-35.08843" lon="148.67331"><ele>367</ele></trkpt>
<trkpt lat="-35.08943" lon="148.67284"><ele>370</ele></trkpt>
<trkpt lat="-35.09168" lon="148.67155"><ele>376</ele></trkpt>
<trkpt lat="-35.09189" lon="148.67135"><ele>375</ele></trkpt>
<trkpt lat="-35.09228" lon="148.6708"><ele>373</ele></trkpt>
<trkpt lat="-35.09262" lon="148.67049"><ele>370</ele></trkpt>
<trkpt lat="-35.09291" lon="148.67036"><ele>371</ele></trkpt>
<trkpt lat="-35.09359" lon="148.67029"><ele>372</ele></trkpt>
<trkpt lat="-35.09486" lon="148.67034"><ele>372</ele></trkpt>
<trkpt lat="-35.09691" lon="148.67062"><ele>376</ele></trkpt>
<trkpt lat="-35.09855" lon="148.67075"><ele>380</ele></trkpt>
<trkpt lat="-35.10034" lon="148.67118"><ele>381</ele></trkpt>
<trkpt lat="-35.10206" lon="148.67153"><ele>388</ele></trkpt>
<trkpt lat="-35.10406" lon="148.67173"><ele>392</ele></trkpt>
<trkpt lat="-35.10545" lon="148.67219"><ele>390</ele></trkpt>
<trkpt lat="-35.10703" lon="148.67219"><ele>382</ele></trkpt>
<trkpt lat="-35.10731" lon="148.6723"><ele>380</ele></trkpt>
<trkpt lat="-35.10795" lon="148.6727"><ele>380</ele></trkpt>
<trkpt lat="-35.10828" lon="148.6728"><ele>382</ele></trkpt>
<trkpt lat="-35.10893" lon="148.67277"><ele>381</ele></trkpt>
<trkpt lat="-35.11056" lon="148.67286"><ele>387</ele></trkpt>
<trkpt lat="-35.11097" lon="148.6728"><ele>389</ele></trkpt>
<trkpt lat="-35.11183" lon="148.67248"><ele>395</ele></trkpt>
<trkpt lat="-35.11223" lon="148.67251"><ele>397</ele></trkpt>
<trkpt lat="-35.11263" lon="148.67261"><ele>400</ele></trkpt>
<trkpt lat="-35.11328" lon="148.67287"><ele>405</ele></trkpt>
<trkpt lat="-35.1144" lon="148.67292"><ele>410</ele></trkpt>
<trkpt lat="-35.11538" lon="148.67302"><ele>411</ele></trkpt>
<trkpt lat="-35.11581" lon="148.67311"><ele>412</ele></trkpt>
<trkpt lat="-35.1163" lon="148.6733"><ele>411</ele></trkpt>
<trkpt lat="-35.11835" lon="148.67429"><ele>404</ele></trkpt>
<trkpt lat="-35.11892" lon="148.67445"><ele>408</ele></trkpt>
<trkpt lat="-35.11955" lon="148.67453"><ele>410</ele></trkpt>
<trkpt lat="-35.11984" lon="148.67462"><ele>409</ele></trkpt>
<trkpt lat="-35.12185" lon="148.6757"><ele>407</ele></trkpt>
<trkpt lat="-35.12211" lon="148.67588"><ele>407</ele></trkpt>
<trkpt lat="-35.12294" lon="148.67671"><ele>406</ele></trkpt>
<trkpt lat="-35.12331" lon="148.67691"><ele>405</ele></trkpt>
<trkpt lat="-35.12401" lon="148.67713"><ele>402</ele></trkpt>
<trkpt lat="-35.12436" lon="148.67733"><ele>402</ele></trkpt>
<trkpt lat="-35.12632" lon="148.67894"><ele>391</ele></trkpt>
<trkpt lat="-35.12686" lon="148.67929"><ele>391</ele></trkpt>
<trkpt lat="-35.12766" lon="148.67964"><ele>394</ele></trkpt>
<trkpt lat="-35.12888" lon="148.67971"><ele>392</ele></trkpt>
<trkpt lat="-35.12907" lon="148.67976"><ele>393</ele></trkpt>
<trkpt lat="-35.13037" lon="148.68026"><ele>403</ele></trkpt>
<trkpt lat="-35.13211" lon="148.6808"><ele>399</ele></trkpt>
<trkpt lat="-35.13306" lon="148.68104"><ele>397</ele></trkpt>
<trkpt lat="-35.13435" lon="148.68124"><ele>392</ele></trkpt>
<trkpt lat="-35.13503" lon="148.68129"><ele>385</ele></trkpt>
<trkpt lat="-35.13581" lon="148.68124"><ele>380</ele></trkpt>
<trkpt lat="-35.13627" lon="148.68109"><ele>378</ele></trkpt>
<trkpt lat="-35.13823" lon="148.67971"><ele>381</ele></trkpt>
<trkpt lat="-35.13871" lon="148.67919"><ele>382</ele></trkpt>
<trkpt lat="-35.1392" lon="148.67855"><ele>385</ele></trkpt>
<trkpt lat="-35.13941" lon="148.67823"><ele>388</ele></trkpt>
<trkpt lat="-35.13953" lon="148.67792"><ele>389</ele></trkpt>
<trkpt lat="-35.13961" lon="148.67742"><ele>390</ele></trkpt>
<trkpt lat="-35.13962" lon="148.67645"><ele>391</ele></trkpt>
<trkpt lat="-35.13973" lon="148.67573"><ele>391</ele></trkpt>
<trkpt lat="-35.13972" lon="148.67553"><ele>391</ele></trkpt>
<trkpt lat="-35.13965" lon="148.6754"><ele>392</ele></trkpt>
<trkpt lat="-35.13953" lon="148.67528"><ele>391</ele></trkpt>
<trkpt lat="-35.13908" lon="148.67512"><ele>389</ele></trkpt>
<trkpt lat="-35.13914" lon="148.675"><ele>388</ele></trkpt>
<trkpt lat="-35.13907" lon="148.67478"><ele>390</ele></trkpt>
<trkpt lat="-35.13901" lon="148.67466"><ele>391</ele></trkpt>
<trkpt lat="-35.13877" lon="148.67439"><ele>395</ele></trkpt>
<trkpt lat="-35.13871" lon="148.6742"><ele>397</ele></trkpt>
<trkpt lat="-35.13924" lon="148.67281"><ele>401</ele></trkpt>
</trkseg></trk>
</gpx>
